Postal Code,Place Name,Latitude,Longitude
L-1009,Luxembourg,49.6117,6.13
L-1010,Luxembourg,49.6117,6.13
L-1011,Luxembourg,49.6117,6.13
L-1012,Luxembourg,49.6117,6.13
L-1013,Luxembourg,49.6117,6.13
L-1014,Luxembourg,49.6117,6.13
L-1015,Luxembourg,49.6117,6.13
L-1016,Luxembourg,49.6009,6.1332
L-1017,Luxembourg,49.6117,6.13
L-1018,Luxembourg,49.6117,6.13
L-1019,Luxembourg,49.6117,6.13
L-1020,Luxembourg,49.6117,6.13
L-1021,Luxembourg,49.6117,6.13
L-1022,Luxembourg,49.6117,6.13
L-1023,Luxembourg,49.6117,6.13
L-1024,Luxembourg,49.6117,6.13
L-1025,Luxembourg,49.6117,6.13
L-1026,Luxembourg,49.6117,6.13
L-1027,Luxembourg,49.6117,6.13
L-1028,Luxembourg,49.6117,6.13
L-1029,Luxembourg,49.6117,6.13
L-1030,Luxembourg,49.6117,6.13
L-1050,Luxembourg,49.6117,6.13
L-1090,Luxembourg,49.6117,6.13
L-1110,Findel,49.6239,6.2028
L-1111,Luxembourg,49.6117,6.13
L-1112,Luxembourg,49.6117,6.13
L-1113,Luxembourg,49.6117,6.13
L-1114,Luxembourg,49.6117,6.13
L-1115,Luxembourg,49.6117,6.13
L-1116,Luxembourg,49.6117,6.13
L-1117,Luxembourg,49.6082,6.1183
L-1118,Luxembourg,49.6117,6.13
L-1119,Luxembourg,49.6117,6.13
L-1120,Luxembourg,49.6117,6.13
L-1121,Luxembourg,49.6117,6.13
L-1122,Luxembourg,49.6117,6.13
L-1123,Luxembourg,49.6117,6.13
L-1124,Luxembourg,49.6117,6.13
L-1125,Luxembourg,49.6117,6.13
L-1126,Luxembourg,49.6117,6.13
L-1127,Luxembourg,49.6117,6.13
L-1128,Luxembourg,49.6117,6.13
L-1129,Luxembourg,49.6117,6.13
L-1130,Luxembourg,49.6033,6.13
L-1131,Luxembourg,49.6117,6.13
L-1132,Luxembourg,49.6117,6.13
L-1133,Luxembourg,49.6117,6.13
L-1134,Luxembourg,49.6117,6.13
L-1135,Luxembourg,49.6117,6.13
L-1136,Luxembourg,49.6117,6.13
L-1137,Howald,49.6117,6.13
L-1138,Luxembourg,49.6117,6.13
L-1139,Luxembourg,49.6117,6.13
L-1140,Luxembourg,49.6117,6.13
L-1141,Luxembourg,49.6117,6.13
L-1142,Luxembourg,49.6117,6.13
L-1143,Luxembourg,49.6117,6.13
L-1144,Luxembourg,49.6117,6.13
L-1145,Luxembourg,49.6117,6.13
L-1146,Luxembourg,49.6117,6.13
L-1147,Luxembourg,49.6117,6.13
L-1148,Luxembourg,49.6117,6.13
L-1149,Luxembourg,49.6117,6.13
L-1150,Luxembourg,49.6117,6.13
L-1151,Luxembourg,49.6117,6.13
L-1152,Luxembourg,49.6117,6.13
L-1159,Luxembourg,49.6117,6.13
L-1160,Luxembourg,49.6117,6.13
L-1208,Luxembourg,49.6117,6.13
L-1209,Senningerberg,49.6117,6.13
L-1210,Luxembourg,49.6117,6.13
L-1211,Luxembourg,49.6117,6.13
L-1212,Luxembourg,49.6117,6.13
L-1213,Luxembourg,49.6117,6.13
L-1214,Luxembourg,49.6117,6.13
L-1215,Luxembourg,49.6117,6.13
L-1216,Howald,49.6117,6.13
L-1217,Luxembourg,49.6117,6.13
L-1218,Luxembourg,49.6117,6.13
L-1219,Luxembourg,49.6117,6.13
L-1220,Luxembourg,49.6117,6.13
L-1221,Luxembourg,49.6117,6.13
L-1222,Luxembourg,49.6117,6.13
L-1223,Howald,49.6117,6.13
L-1224,Luxembourg,49.6117,6.13
L-1225,Luxembourg,49.6117,6.13
L-1226,Luxembourg,49.6117,6.13
L-1227,Luxembourg,49.6117,6.13
L-1228,Howald,49.6117,6.13
L-1229,Luxembourg,49.6117,6.13
L-1230,Luxembourg,49.6117,6.13
L-1231,Howald,49.6117,6.13
L-1232,Howald,49.6117,6.13
L-1233,Luxembourg,49.6117,6.13
L-1234,Luxembourg,49.6117,6.13
L-1235,Luxembourg,49.6117,6.13
L-1236,Luxembourg,49.6117,6.13
L-1237,Luxembourg,49.6117,6.13
L-1238,Luxembourg,49.6117,6.13
L-1239,Senningerberg,49.6117,6.13
L-1240,Luxembourg,49.6117,6.13
L-1241,Luxembourg,49.6117,6.13
L-1242,Luxembourg,49.6117,6.13
L-1243,Luxembourg,49.6117,6.13
L-1244,Luxembourg,49.6117,6.13
L-1245,Senningerberg,49.6117,6.13
L-1246,Luxembourg,49.6117,6.13
L-1247,Luxembourg,49.6117,6.13
L-1248,Luxembourg,49.6117,6.13
L-1249,Luxembourg,49.6117,6.13
L-1250,Luxembourg,49.6117,6.13
L-1251,Luxembourg,49.6117,6.13
L-1252,Luxembourg,49.6117,6.13
L-1253,Luxembourg,49.6117,6.13
L-1254,Luxembourg,49.6117,6.13
L-1255,Luxembourg,49.6117,6.13
L-1256,Luxembourg,49.6117,6.13
L-1257,Luxembourg,49.6117,6.13
L-1258,Luxembourg,49.6117,6.13
L-1259,Senningerberg,49.6117,6.13
L-1260,Luxembourg,49.6117,6.13
L-1261,Luxembourg,49.6117,6.13
L-1262,Luxembourg,49.6117,6.13
L-1263,Luxembourg,49.6117,6.13
L-1264,Luxembourg,49.6117,6.13
L-1265,Luxembourg,49.6117,6.13
L-1266,Luxembourg,49.6117,6.13
L-1267,Luxembourg,49.6117,6.13
L-1268,Luxembourg,49.6117,6.13
L-1269,Luxembourg,49.6117,6.13
L-1270,Luxembourg,49.6117,6.13
L-1271,Luxembourg,49.6117,6.13
L-1272,Luxembourg,49.6117,6.13
L-1273,Luxembourg,49.6117,6.13
L-1274,Howald,49.6117,6.13
L-1275,Luxembourg,49.6117,6.13
L-1276,Luxembourg,49.6117,6.13
L-1277,Luxembourg,49.6117,6.13
L-1278,Luxembourg,49.6117,6.13
L-1279,Luxembourg,49.6117,6.13
L-1280,Luxembourg,49.6117,6.13
L-1310,Luxembourg,49.6117,6.13
L-1311,Luxembourg,49.6117,6.13
L-1312,Luxembourg,49.6117,6.13
L-1313,Luxembourg,49.6117,6.13
L-1314,Luxembourg,49.6117,6.13
L-1315,Luxembourg,49.6117,6.13
L-1316,Luxembourg,49.6117,6.13
L-1317,Luxembourg,49.6117,6.13
L-1318,Luxembourg,49.6117,6.13
L-1319,Luxembourg,49.6117,6.13
L-1320,Luxembourg,49.6117,6.13
L-1321,Luxembourg,49.6117,6.13
L-1322,Luxembourg,49.6117,6.13
L-1323,Luxembourg,49.6117,6.13
L-1324,Luxembourg,49.6117,6.13
L-1325,Luxembourg,49.6117,6.13
L-1326,Luxembourg,49.6117,6.13
L-1327,Luxembourg,49.6117,6.13
L-1328,Luxembourg,49.6117,6.13
L-1329,Luxembourg,49.6117,6.13
L-1330,Luxembourg,49.6117,6.13
L-1331,Luxembourg,49.6117,6.13
L-1332,Luxembourg,49.6117,6.13
L-1333,Luxembourg,49.6117,6.13
L-1334,Luxembourg,49.6117,6.13
L-1335,Luxembourg,49.6117,6.13
L-1336,Luxembourg,49.6117,6.13
L-1337,Luxembourg,49.6117,6.13
L-1338,Luxembourg,49.6117,6.13
L-1339,Luxembourg,49.6117,6.13
L-1340,Luxembourg,49.6117,6.13
L-1341,Luxembourg,49.6117,6.13
L-1342,Luxembourg,49.6117,6.13
L-1343,Luxembourg,49.6117,6.13
L-1344,Luxembourg,49.6117,6.13
L-1345,Luxembourg,49.6117,6.13
L-1346,Luxembourg,49.6117,6.13
L-1347,Luxembourg,49.6117,6.13
L-1348,Luxembourg,49.6117,6.13
L-1349,Luxembourg,49.6117,6.13
L-1350,Howald,49.6117,6.13
L-1351,Luxembourg,49.6117,6.13
L-1352,Luxembourg,49.6117,6.13
L-1353,Howald,49.6117,6.13
L-1354,Luxembourg,49.6117,6.13
L-1355,Luxembourg,49.6117,6.13
L-1356,Luxembourg,49.6117,6.13
L-1357,Luxembourg,49.6117,6.13
L-1358,Luxembourg,49.6117,6.13
L-1359,Luxembourg,49.6117,6.13
L-1360,Senningerberg,49.6117,6.13
L-1361,Luxembourg,49.6117,6.13
L-1362,Luxembourg,49.6117,6.13
L-1363,Howald,49.6117,6.13
L-1364,Luxembourg,49.6117,6.13
L-1365,Luxembourg,49.6117,6.13
L-1366,Luxembourg,49.6117,6.13
L-1367,Luxembourg,49.6156,6.1432
L-1368,Luxembourg,49.6117,6.13
L-1369,Luxembourg,49.6117,6.13
L-1370,Luxembourg,49.6117,6.13
L-1371,Luxembourg,49.6117,6.13
L-1372,Luxembourg,49.6117,6.13
L-1373,Luxembourg,49.6117,6.13
L-1409,Luxembourg,49.6117,6.13
L-1411,Luxembourg,49.6117,6.13
L-1412,Luxembourg,49.6117,6.13
L-1413,Luxembourg,49.6117,6.13
L-1414,Luxembourg,49.6117,6.13
L-1415,Luxembourg,49.6117,6.13
L-1416,Luxembourg,49.6117,6.13
L-1417,Luxembourg,49.6117,6.13
L-1418,Luxembourg,49.6117,6.13
L-1419,Luxembourg,49.6117,6.13
L-1420,Luxembourg,49.6117,6.13
L-1421,Luxembourg,49.6117,6.13
L-1422,Luxembourg,49.6117,6.13
L-1423,Howald,49.6117,6.13
L-1424,Luxembourg,49.6117,6.13
L-1425,Luxembourg,49.6117,6.13
L-1426,Luxembourg,49.6117,6.13
L-1427,Luxembourg,49.6117,6.13
L-1428,Luxembourg,49.6117,6.13
L-1429,Luxembourg,49.6117,6.13
L-1430,Luxembourg,49.6117,6.13
L-1431,Luxembourg,49.6117,6.13
L-1432,Luxembourg,49.6117,6.13
L-1445,Strassen,49.6206,6.0733
L-1448,Senningerberg,49.6146,6.1111
L-1449,Luxembourg,49.6117,6.13
L-1450,Luxembourg,49.6117,6.13
L-1451,Luxembourg,49.6117,6.13
L-1452,Luxembourg,49.6117,6.13
L-1453,Luxembourg,49.6117,6.13
L-1454,Luxembourg,49.6117,6.13
L-1455,Howald,49.6117,6.13
L-1456,Luxembourg,49.6117,6.13
L-1457,Luxembourg,49.6117,6.13
L-1458,Luxembourg,49.6117,6.13
L-1459,Luxembourg,49.6117,6.13
L-1460,Luxembourg,49.6117,6.13
L-1461,Luxembourg,49.6117,6.13
L-1462,Luxembourg,49.6117,6.13
L-1463,Luxembourg,49.6117,6.13
L-1464,Luxembourg,49.6117,6.13
L-1465,Luxembourg,49.6117,6.13
L-1466,Luxembourg,49.6397,6.1471
L-1467,Howald,49.6117,6.13
L-1468,Luxembourg,49.6117,6.13
L-1469,Luxembourg,49.6117,6.13
L-1470,Luxembourg,49.6117,6.13
L-1471,Luxembourg,49.6117,6.13
L-1472,Luxembourg,49.6117,6.13
L-1473,Luxembourg,49.6117,6.13
L-1474,Luxembourg,49.6117,6.13
L-1475,Luxembourg,49.6117,6.13
L-1476,Luxembourg,49.6117,6.13
L-1477,Luxembourg,49.6117,6.13
L-1478,Luxembourg,49.6117,6.13
L-1479,Luxembourg,49.6117,6.13
L-1480,Luxembourg,49.6117,6.13
L-1481,Luxembourg,49.6117,6.13
L-1482,Luxembourg,49.6117,6.13
L-1490,Luxembourg,49.6117,6.13
L-1499,Luxembourg,49.6117,6.13
L-1508,Howald,49.6117,6.13
L-1509,Luxembourg,49.6117,6.13
L-1510,Luxembourg,49.6117,6.13
L-1511,Luxembourg,49.6117,6.13
L-1512,Strassen,49.6206,6.0733
L-1513,Luxembourg,49.6117,6.13
L-1514,Luxembourg,49.6117,6.13
L-1515,Luxembourg,49.6117,6.13
L-1516,Luxembourg,49.6117,6.13
L-1517,Luxembourg,49.6117,6.13
L-1518,Luxembourg,49.6117,6.13
L-1519,Luxembourg,49.6117,6.13
L-1520,Luxembourg,49.6117,6.13
L-1521,Luxembourg,49.6018,6.1271
L-1522,Luxembourg,49.6117,6.13
L-1523,Findel,49.6239,6.2028
L-1524,Luxembourg,49.6117,6.13
L-1525,Luxembourg,49.6117,6.13
L-1526,Luxembourg,49.6117,6.13
L-1527,Luxembourg,49.6117,6.13
L-1528,Luxembourg,49.6117,6.13
L-1529,Luxembourg,49.6117,6.13
L-1530,Luxembourg,49.6117,6.13
L-1531,Luxembourg,49.6117,6.13
L-1532,Luxembourg,49.6117,6.13
L-1533,Luxembourg,49.6117,6.13
L-1534,Luxembourg,49.6117,6.13
L-1535,Luxembourg,49.6117,6.13
L-1536,Luxembourg,49.6117,6.13
L-1537,Luxembourg,49.6117,6.13
L-1538,Luxembourg,49.6117,6.13
L-1539,Luxembourg,49.6117,6.13
L-1540,Luxembourg,49.6117,6.13
L-1541,Luxembourg,49.6117,6.13
L-1542,Luxembourg,49.6117,6.13
L-1543,Luxembourg,49.6117,6.13
L-1544,Luxembourg,49.6117,6.13
L-1545,Luxembourg,49.6117,6.13
L-1546,Luxembourg,49.6117,6.13
L-1547,Luxembourg,49.6117,6.13
L-1610,Luxembourg,49.6117,6.13
L-1611,Luxembourg,49.6023,6.1331
L-1613,Luxembourg,49.6117,6.13
L-1614,Hesperange,49.5681,6.1514
L-1615,Luxembourg,49.6117,6.13
L-1616,Luxembourg,49.6117,6.13
L-1617,Luxembourg,49.6117,6.13
L-1618,Luxembourg,49.6117,6.13
L-1619,Luxembourg,49.6117,6.13
L-1620,Luxembourg,49.6117,6.13
L-1621,Luxembourg,49.6117,6.13
L-1622,Luxembourg,49.6117,6.13
L-1623,Luxembourg,49.6117,6.13
L-1624,Luxembourg,49.6117,6.13
L-1625,Howald,49.6117,6.13
L-1626,Luxembourg,49.6117,6.13
L-1627,Luxembourg,49.6117,6.13
L-1628,Luxembourg,49.6117,6.13
L-1629,Luxembourg,49.6117,6.13
L-1630,Luxembourg,49.6117,6.13
L-1631,Luxembourg,49.6117,6.13
L-1632,Luxembourg,49.6117,6.13
L-1633,Luxembourg,49.6117,6.13
L-1634,Luxembourg,49.6117,6.13
L-1635,Luxembourg,49.6117,6.13
L-1636,Luxembourg,49.6117,6.13
L-1637,Luxembourg,49.6117,6.13
L-1638,Senningerberg,49.6117,6.13
L-1639,Luxembourg,49.6117,6.13
L-1640,Luxembourg,49.6117,6.13
L-1641,Luxembourg,49.6117,6.13
L-1642,Luxembourg,49.6117,6.13
L-1643,Luxembourg,49.6117,6.13
L-1644,Luxembourg,49.6117,6.13
L-1645,Luxembourg,49.6117,6.13
L-1646,Senningerberg,49.6117,6.13
L-1647,Luxembourg,49.6117,6.13
L-1648,Luxembourg,49.611,6.1303
L-1649,Luxembourg,49.6117,6.13
L-1650,Luxembourg,49.6117,6.13
L-1651,Luxembourg,49.6117,6.13
L-1652,Luxembourg,49.6117,6.13
L-1660,Luxembourg,49.6117,6.13
L-1661,Luxembourg,49.6117,6.13
L-1670,Senningerberg,49.6106,6.1305
L-1709,Senningerberg,49.612,6.1319
L-1710,Luxembourg,49.6117,6.13
L-1711,Luxembourg,49.6117,6.13
L-1712,Luxembourg,49.6117,6.13
L-1713,Luxembourg,49.6117,6.13
L-1714,Luxembourg,49.6117,6.13
L-1715,Luxembourg,49.6117,6.13
L-1716,Luxembourg,49.6117,6.13
L-1717,Luxembourg,49.6117,6.13
L-1718,Luxembourg,49.6117,6.13
L-1719,Luxembourg,49.6117,6.13
L-1720,Luxembourg,49.6117,6.13
L-1721,Luxembourg,49.6117,6.13
L-1722,Luxembourg,49.6117,6.13
L-1723,Luxembourg,49.6117,6.13
L-1724,Luxembourg,49.6117,6.13
L-1725,Luxembourg,49.6117,6.13
L-1726,Luxembourg,49.6117,6.13
L-1727,Luxembourg,49.6117,6.13
L-1728,Luxembourg,49.6117,6.13
L-1729,Luxembourg,49.6117,6.13
L-1730,Luxembourg,49.6117,6.13
L-1731,Luxembourg,49.6117,6.13
L-1732,Luxembourg,49.6117,6.13
L-1733,Luxembourg,49.6117,6.13
L-1734,Luxembourg,49.6117,6.13
L-1735,Luxembourg,49.6117,6.13
L-1736,Senningerberg,49.6117,6.13
L-1737,Luxembourg,49.6117,6.13
L-1738,Luxembourg,49.6117,6.13
L-1739,Luxembourg,49.6117,6.13
L-1740,Luxembourg,49.6117,6.13
L-1741,Luxembourg,49.6117,6.13
L-1742,Luxembourg,49.6117,6.13
L-1743,Luxembourg,49.6117,6.13
L-1744,Luxembourg,49.6117,6.13
L-1745,Luxembourg,49.6117,6.13
L-1746,Luxembourg,49.6117,6.13
L-1747,Luxembourg,49.6117,6.13
L-1748,Findel,49.6239,6.2028
L-1749,Howald,49.613,6.1381
L-1750,Luxembourg,49.6186,6.1251
L-1811,Luxembourg,49.6117,6.13
L-1812,Luxembourg,49.6117,6.13
L-1813,Howald,49.6117,6.13
L-1814,Luxembourg,49.6117,6.13
L-1815,Luxembourg,49.6117,6.13
L-1816,Luxembourg,49.6117,6.13
L-1817,Luxembourg,49.6117,6.13
L-1818,Howald,49.6117,6.13
L-1820,Luxembourg,49.6117,6.13
L-1831,Luxembourg,49.6117,6.13
L-1832,Luxembourg,49.6117,6.13
L-1833,Luxembourg,49.6117,6.13
L-1834,Luxembourg,49.6117,6.13
L-1835,Luxembourg,49.6117,6.13
L-1836,Luxembourg,49.6117,6.13
L-1837,Luxembourg,49.6117,6.13
L-1838,Luxembourg,49.6117,6.13
L-1839,Luxembourg,49.6007,6.1309
L-1840,Luxembourg,49.6117,6.13
L-1841,Luxembourg,49.6117,6.13
L-1842,Howald,49.6157,6.1543
L-1843,Findel,49.6239,6.2028
L-1850,Luxembourg,49.6117,6.13
L-1851,Luxembourg,49.6117,6.13
L-1852,Luxembourg,49.6117,6.13
L-1853,Luxembourg,49.6117,6.13
L-1854,Luxembourg,49.6117,6.13
L-1855,Luxembourg,49.6117,6.13
L-1856,Luxembourg,49.6117,6.13
L-1857,Luxembourg,49.6117,6.13
L-1858,Luxembourg,49.6117,6.13
L-1859,Luxembourg,49.6117,6.13
L-1860,Luxembourg,49.6117,6.13
L-1861,Luxembourg,49.6117,6.13
L-1862,Luxembourg,49.6117,6.13
L-1863,Luxembourg,49.6117,6.13
L-1864,Luxembourg,49.6117,6.13
L-1865,Luxembourg,49.6117,6.13
L-1866,Luxembourg,49.6117,6.13
L-1867,Howald,49.6117,6.13
L-1868,Luxembourg,49.6117,6.13
L-1869,Luxembourg,49.6117,6.13
L-1870,Luxembourg,49.6117,6.13
L-1871,Luxembourg,49.6117,6.13
L-1880,Luxembourg,49.6117,6.13
L-1881,Luxembourg,49.6117,6.13
L-1882,Luxembourg,49.6117,6.13
L-1898,Kockelscheuer,49.5611,6.1122
L-1899,Luxembourg,49.6117,6.13
L-1910,Luxembourg,49.6117,6.13
L-1911,Luxembourg,49.6117,6.13
L-1912,Luxembourg,49.6117,6.13
L-1913,Luxembourg,49.6117,6.13
L-1914,Luxembourg,49.6117,6.13
L-1915,Luxembourg,49.6117,6.13
L-1916,Luxembourg,49.6117,6.13
L-1917,Luxembourg,49.6117,6.13
L-1918,Luxembourg,49.6117,6.13
L-1919,Luxembourg,49.6117,6.13
L-1920,Luxembourg,49.6117,6.13
L-1921,Luxembourg,49.6117,6.13
L-1922,Luxembourg,49.6117,6.13
L-1923,Luxembourg,49.6117,6.13
L-1924,Luxembourg,49.6117,6.13
L-1925,Luxembourg,49.6117,6.13
L-1926,Luxembourg,49.6117,6.13
L-1927,Luxembourg,49.6117,6.13
L-1928,Luxembourg,49.6117,6.13
L-1929,Luxembourg,49.6117,6.13
L-1930,Luxembourg,49.6117,6.13
L-1931,Luxembourg,49.6117,6.13
L-1932,Luxembourg,49.6117,6.13
L-1933,Luxembourg,49.6117,6.13
L-1934,Luxembourg,49.6117,6.13
L-1935,Luxembourg,49.6117,6.13
L-1936,Luxembourg,49.6117,6.13
L-1937,Luxembourg,49.6117,6.13
L-1938,Luxembourg,49.6117,6.13
L-1939,Luxembourg,49.6117,6.13
L-1940,Luxembourg,49.6117,6.13
L-1941,Luxembourg,49.6117,6.13
L-1942,Luxembourg,49.6117,6.13
L-1943,Luxembourg,49.6117,6.13
L-1944,Luxembourg,49.6117,6.13
L-1945,Luxembourg,49.6117,6.13
L-1946,Luxembourg,49.6117,6.13
L-1947,Luxembourg,49.6117,6.13
L-1948,Luxembourg,49.6117,6.13
L-1949,Howald,49.6117,6.13
L-1950,Luxembourg,49.6117,6.13
L-1951,Luxembourg,49.6117,6.13
L-1952,Luxembourg,49.6117,6.13
L-1953,Luxembourg,49.6117,6.13
L-1954,Luxembourg,49.6117,6.13
L-2010,Luxembourg,49.6117,6.13
L-2011,Luxembourg,49.6117,6.13
L-2012,Luxembourg,49.6117,6.13
L-2013,Luxembourg,49.6117,6.13
L-2014,Luxembourg,49.6117,6.13
L-2015,Luxembourg,49.6208,6.144
L-2016,Luxembourg,49.6117,6.13
L-2017,Luxembourg,49.6117,6.13
L-2018,Luxembourg,49.6117,6.13
L-2019,Luxembourg,49.6117,6.13
L-2020,Luxembourg,49.6117,6.13
L-2085,Luxembourg,49.6117,6.13
L-2086,Luxembourg,49.6117,6.13
L-2087,Luxembourg,49.6117,6.13
L-2088,Luxembourg,49.6117,6.13
L-2089,Luxembourg,49.6117,6.13
L-2090,Luxembourg,49.6117,6.13
L-2091,Luxembourg,49.6117,6.13
L-2092,Luxembourg,49.6117,6.13
L-2093,Luxembourg,49.6117,6.13
L-2094,Luxembourg,49.6117,6.13
L-2095,Luxembourg,49.6117,6.13
L-2096,Luxembourg,49.6117,6.13
L-2097,Luxembourg,49.6117,6.13
L-2098,Luxembourg,49.6117,6.13
L-2099,Luxembourg,49.6117,6.13
L-2111,Luxembourg,49.6117,6.13
L-2112,Howald,49.6117,6.13
L-2113,Luxembourg,49.6117,6.13
L-2114,Luxembourg,49.6117,6.13
L-2115,Luxembourg,49.6117,6.13
L-2116,Luxembourg,49.6117,6.13
L-2117,Luxembourg,49.6117,6.13
L-2118,Luxembourg,49.6117,6.13
L-2119,Luxembourg,49.6117,6.13
L-2120,Luxembourg,49.6117,6.13
L-2121,Luxembourg,49.6117,6.13
L-2122,Luxembourg,49.6117,6.13
L-2123,Luxembourg,49.6117,6.13
L-2124,Luxembourg,49.6117,6.13
L-2125,Luxembourg,49.6117,6.13
L-2127,Luxembourg,49.6117,6.13
L-2128,Luxembourg,49.6117,6.13
L-2129,Howald,49.6117,6.13
L-2130,Luxembourg,49.6117,6.13
L-2131,Luxembourg,49.6117,6.13
L-2132,Luxembourg,49.6065,6.121
L-2133,Luxembourg,49.6117,6.13
L-2134,Luxembourg,49.6117,6.13
L-2135,Luxembourg,49.6117,6.13
L-2137,Luxembourg,49.6117,6.13
L-2138,Luxembourg,49.6117,6.13
L-2140,Luxembourg,49.6117,6.13
L-2141,Luxembourg,49.6117,6.13
L-2142,Luxembourg,49.6117,6.13
L-2143,Luxembourg,49.6117,6.13
L-2144,Luxembourg,49.6117,6.13
L-2145,Luxembourg,49.6117,6.13
L-2146,Luxembourg,49.6117,6.13
L-2147,Luxembourg,49.6117,6.13
L-2148,Luxembourg,49.6117,6.13
L-2149,Luxembourg,49.6117,6.13
L-2150,Luxembourg,49.6117,6.13
L-2151,Luxembourg,49.6117,6.13
L-2152,Luxembourg,49.6117,6.13
L-2153,Luxembourg,49.6117,6.13
L-2154,Luxembourg,49.6117,6.13
L-2155,Luxembourg,49.6117,6.13
L-2156,Luxembourg,49.6117,6.13
L-2157,Luxembourg,49.6117,6.13
L-2158,Luxembourg,49.6117,6.13
L-2159,Luxembourg,49.6117,6.13
L-2160,Luxembourg,49.6117,6.13
L-2161,Luxembourg,49.6117,6.13
L-2162,Luxembourg,49.6117,6.13
L-2163,Luxembourg,49.6117,6.13
L-2164,Luxembourg,49.6117,6.13
L-2165,Luxembourg,49.6117,6.13
L-2166,Luxembourg,49.6117,6.13
L-2167,Luxembourg,49.6117,6.13
L-2168,Luxembourg,49.6117,6.13
L-2169,Luxembourg,49.6117,6.13
L-2170,Senningerberg,49.6117,6.13
L-2171,Luxembourg,49.6117,6.13
L-2172,Luxembourg,49.6117,6.13
L-2173,Luxembourg,49.6117,6.13
L-2174,Luxembourg,49.6117,6.13
L-2175,Luxembourg,49.6117,6.13
L-2176,Luxembourg,49.6117,6.13
L-2177,Luxembourg,49.6117,6.13
L-2178,Luxembourg,49.6117,6.13
L-2179,Luxembourg,49.6117,6.13
L-2180,Luxembourg,49.6117,6.13
L-2181,Luxembourg,49.6117,6.13
L-2210,Luxembourg,49.6117,6.13
L-2211,Luxembourg,49.6117,6.13
L-2212,Luxembourg,49.6117,6.13
L-2213,Luxembourg,49.6117,6.13
L-2214,Luxembourg,49.6117,6.13
L-2220,Luxembourg,49.6117,6.13
L-2221,Luxembourg,49.6117,6.13
L-2222,Luxembourg,49.6117,6.13
L-2223,Luxembourg,49.6117,6.13
L-2224,Luxembourg,49.6117,6.13
L-2225,Luxembourg,49.6117,6.13
L-2226,Luxembourg,49.6117,6.13
L-2227,Luxembourg,49.6117,6.13
L-2228,Luxembourg,49.6117,6.13
L-2229,Luxembourg,49.6117,6.13
L-2230,Luxembourg,49.6013,6.1335
L-2231,Luxembourg,49.6117,6.13
L-2232,Luxembourg,49.6117,6.13
L-2233,Luxembourg,49.6117,6.13
L-2240,Luxembourg,49.6117,6.13
L-2241,Luxembourg,49.6117,6.13
L-2261,Luxembourg,49.6117,6.13
L-2262,Luxembourg,49.6117,6.13
L-2263,Luxembourg,49.6117,6.13
L-2264,Luxembourg,49.6117,6.13
L-2265,Luxembourg,49.6117,6.13
L-2266,Luxembourg,49.6117,6.13
L-2267,Luxembourg,49.6117,6.13
L-2268,Luxembourg,49.6117,6.13
L-2269,Luxembourg,49.6117,6.13
L-2270,Luxembourg,49.6117,6.13
L-2271,Luxembourg,49.6117,6.13
L-2272,Howald,49.6117,6.13
L-2273,Luxembourg,49.6117,6.13
L-2308,Luxembourg,49.6117,6.13
L-2309,Luxembourg,49.6117,6.13
L-2310,Luxembourg,49.6117,6.13
L-2311,Luxembourg,49.6117,6.13
L-2312,Luxembourg,49.6117,6.13
L-2313,Luxembourg,49.6117,6.13
L-2314,Luxembourg,49.6117,6.13
L-2315,Senningerberg,49.6117,6.13
L-2316,Luxembourg,49.6117,6.13
L-2317,Howald,49.6117,6.13
L-2318,Luxembourg,49.6117,6.13
L-2319,Howald,49.6117,6.13
L-2320,Luxembourg,49.6117,6.13
L-2322,Luxembourg,49.6117,6.13
L-2323,Luxembourg,49.6117,6.13
L-2324,Luxembourg,49.6117,6.13
L-2326,Luxembourg,49.6117,6.13
L-2327,Luxembourg,49.6117,6.13
L-2328,Luxembourg,49.6117,6.13
L-2329,Luxembourg,49.6117,6.13
L-2330,Luxembourg,49.6117,6.13
L-2331,Luxembourg,49.6117,6.13
L-2332,Luxembourg,49.6117,6.13
L-2333,Luxembourg,49.6117,6.13
L-2334,Luxembourg,49.6117,6.13
L-2335,Luxembourg,49.6117,6.13
L-2336,Luxembourg,49.6117,6.13
L-2337,Luxembourg,49.6117,6.13
L-2338,Luxembourg,49.6117,6.13
L-2339,Luxembourg,49.6117,6.13
L-2340,Luxembourg,49.6117,6.13
L-2341,Luxembourg,49.6117,6.13
L-2342,Luxembourg,49.6117,6.13
L-2343,Luxembourg,49.6117,6.13
L-2344,Luxembourg,49.6117,6.13
L-2345,Luxembourg,49.6117,6.13
L-2346,Luxembourg,49.6117,6.13
L-2347,Luxembourg,49.6117,6.13
L-2348,Luxembourg,49.6117,6.13
L-2349,Luxembourg,49.6117,6.13
L-2350,Luxembourg,49.6117,6.13
L-2351,Luxembourg,49.6117,6.13
L-2352,Luxembourg,49.6117,6.13
L-2353,Luxembourg,49.6117,6.13
L-2354,Luxembourg,49.6117,6.13
L-2355,Luxembourg,49.6117,6.13
L-2356,Luxembourg,49.6117,6.13
L-2357,Senningerberg,49.6117,6.13
L-2358,Luxembourg,49.6117,6.13
L-2359,Luxembourg,49.6117,6.13
L-2360,Luxembourg,49.6117,6.13
L-2361,Luxembourg,49.6117,6.13
L-2370,Howald,49.6118,6.1289
L-2380,Luxembourg,49.6117,6.13
L-2381,Luxembourg,49.6117,6.13
L-2409,Luxembourg,49.6117,6.13
L-2410,Luxembourg,49.6117,6.13
L-2411,Luxembourg,49.6117,6.13
L-2412,Howald,49.6117,6.13
L-2413,Luxembourg,49.6117,6.13
L-2414,Luxembourg,49.6117,6.13
L-2415,Luxembourg,49.6117,6.13
L-2416,Howald,49.6126,6.1243
L-2417,Luxembourg,49.6117,6.13
L-2418,Luxembourg,49.6117,6.13
L-2419,Luxembourg,49.6117,6.13
L-2420,Luxembourg,49.6117,6.13
L-2422,Luxembourg,49.6117,6.13
L-2423,Luxembourg,49.6117,6.13
L-2424,Luxembourg,49.6117,6.13
L-2425,Howald,49.6117,6.13
L-2426,Luxembourg,49.6117,6.13
L-2427,Luxembourg,49.6117,6.13
L-2428,Luxembourg,49.6117,6.13
L-2429,Luxembourg,49.6117,6.13
L-2430,Luxembourg,49.6117,6.13
L-2431,Luxembourg,49.6117,6.13
L-2432,Luxembourg,49.6117,6.13
L-2433,Luxembourg,49.6117,6.13
L-2434,Senningerberg,49.6117,6.13
L-2435,Luxembourg,49.6117,6.13
L-2440,Luxembourg,49.6117,6.13
L-2441,Luxembourg,49.6117,6.13
L-2442,Luxembourg,49.6117,6.13
L-2443,Senningerberg,49.6117,6.13
L-2444,Luxembourg,49.6117,6.13
L-2445,Luxembourg,49.6117,6.13
L-2446,Howald,49.6117,6.13
L-2447,Luxembourg,49.6117,6.13
L-2448,Luxembourg,49.6117,6.13
L-2449,Luxembourg,49.6134,6.126
L-2450,Luxembourg,49.6097,6.1299
L-2451,Luxembourg,49.6117,6.13
L-2452,Luxembourg,49.6117,6.13
L-2453,Luxembourg,49.6117,6.13
L-2510,Strassen,49.6206,6.0733
L-2511,Luxembourg,49.6117,6.13
L-2512,Luxembourg,49.6117,6.13
L-2513,Senningerberg,49.6127,6.1237
L-2514,Luxembourg,49.6117,6.13
L-2515,Luxembourg,49.6117,6.13
L-2516,Luxembourg,49.6117,6.13
L-2517,Luxembourg,49.6117,6.13
L-2518,Luxembourg,49.6117,6.13
L-2519,Luxembourg,49.6117,6.13
L-2520,Luxembourg,49.6117,6.13
L-2521,Luxembourg,49.6117,6.13
L-2522,Luxembourg,49.6117,6.13
L-2523,Luxembourg,49.6117,6.13
L-2524,Howald,49.6117,6.13
L-2525,Luxembourg,49.6117,6.13
L-2526,Luxembourg,49.6117,6.13
L-2527,Luxembourg,49.6117,6.13
L-2528,Luxembourg,49.6117,6.13
L-2529,Howald,49.6117,6.13
L-2530,Luxembourg,49.6117,6.13
L-2531,Luxembourg,49.6117,6.13
L-2532,Luxembourg,49.6117,6.13
L-2533,Luxembourg,49.6117,6.13
L-2534,Luxembourg,49.627,6.1002
L-2535,Luxembourg,49.6117,6.13
L-2536,Luxembourg,49.6117,6.1337
L-2537,Luxembourg,49.6117,6.13
L-2538,Luxembourg,49.6117,6.13
L-2539,Luxembourg,49.6117,6.13
L-2540,Luxembourg,49.6117,6.13
L-2541,Luxembourg,49.6117,6.13
L-2542,Luxembourg,49.6117,6.13
L-2543,Luxembourg,49.6117,6.13
L-2544,Luxembourg,49.6117,6.13
L-2545,Howald,49.6117,6.13
L-2546,Luxembourg,49.6117,6.13
L-2547,Luxembourg,49.6117,6.13
L-2548,Luxembourg,49.6117,6.13
L-2549,Luxembourg,49.6117,6.13
L-2550,Luxembourg,49.6117,6.13
L-2551,Luxembourg,49.6073,6.1104
L-2552,Luxembourg,49.6117,6.13
L-2553,Luxembourg,49.6117,6.13
L-2554,Luxembourg,49.6117,6.13
L-2555,Luxembourg,49.6117,6.13
L-2556,Luxembourg,49.6117,6.13
L-2557,Luxembourg,49.6117,6.13
L-2558,Luxembourg,49.6117,6.13
L-2559,Luxembourg,49.6117,6.13
L-2560,Luxembourg,49.6117,6.13
L-2561,Luxembourg,49.6117,6.13
L-2562,Luxembourg,49.6117,6.13
L-2563,Luxembourg,49.6117,6.13
L-2564,Luxembourg,49.6117,6.13
L-2565,Luxembourg,49.6117,6.13
L-2566,Luxembourg,49.6117,6.13
L-2609,Luxembourg,49.6117,6.13
L-2610,Howald,49.6117,6.13
L-2611,Howald,49.6117,6.13
L-2612,Luxembourg,49.6117,6.13
L-2613,Luxembourg,49.6117,6.13
L-2614,Luxembourg,49.6117,6.13
L-2615,Luxembourg,49.6117,6.13
L-2616,Luxembourg,49.6117,6.13
L-2619,Luxembourg,49.6117,6.13
L-2620,Luxembourg,49.6117,6.13
L-2621,Luxembourg,49.6117,6.13
L-2622,Luxembourg,49.6117,6.13
L-2623,Luxembourg,49.6117,6.13
L-2624,Luxembourg,49.6117,6.13
L-2625,Luxembourg,49.6117,6.13
L-2626,Luxembourg,49.6117,6.13
L-2627,Luxembourg,49.6117,6.13
L-2628,Luxembourg,49.6117,6.13
L-2629,Luxembourg,49.6117,6.13
L-2630,Luxembourg,49.6117,6.13
L-2631,Luxembourg,49.6117,6.13
L-2632,Findel,49.634,6.2091
L-2633,Senningerberg,49.6137,6.1421
L-2634,Luxembourg,49.6117,6.13
L-2635,Luxembourg,49.6117,6.13
L-2636,Luxembourg,49.6117,6.13
L-2651,Luxembourg,49.6117,6.13
L-2652,Luxembourg,49.6117,6.13
L-2653,Luxembourg,49.6117,6.13
L-2661,Luxembourg,49.6117,6.13
L-2662,Luxembourg,49.6117,6.13
L-2663,Luxembourg,49.6117,6.13
L-2664,Luxembourg,49.6117,6.13
L-2665,Luxembourg,49.6117,6.13
L-2666,Luxembourg,49.6117,6.13
L-2667,Luxembourg,49.6117,6.13
L-2668,Luxembourg,49.6117,6.13
L-2669,Luxembourg,49.6117,6.13
L-2670,Luxembourg,49.6117,6.13
L-2671,Luxembourg,49.6117,6.13
L-2672,Luxembourg,49.6117,6.13
L-2673,Luxembourg,49.6117,6.13
L-2680,Luxembourg,49.6117,6.13
L-2711,Luxembourg,49.6117,6.13
L-2712,Staffelstein,49.6117,6.13
L-2713,Luxembourg,49.6117,6.13
L-2714,Luxembourg,49.6117,6.13
L-2715,Luxembourg,49.6117,6.13
L-2716,Luxembourg,49.6117,6.13
L-2717,Luxembourg,49.6117,6.13
L-2718,Luxembourg,49.6117,6.13
L-2719,Luxembourg,49.6117,6.13
L-2720,Luxembourg,49.6117,6.13
L-2721,Luxembourg,49.6117,6.13
L-2722,Luxembourg,49.6117,6.13
L-2723,Howald,49.6117,6.13
L-2724,Luxembourg,49.6117,6.13
L-2725,Luxembourg,49.6117,6.13
L-2726,Luxembourg,49.6117,6.13
L-2727,Howald,49.6117,6.13
L-2728,Luxembourg,49.6117,6.13
L-2729,Luxembourg,49.6117,6.13
L-2730,Luxembourg,49.6117,6.13
L-2731,Luxembourg,49.6117,6.13
L-2732,Luxembourg,49.6117,6.13
L-2733,Luxembourg,49.6117,6.13
L-2734,Luxembourg,49.6117,6.13
L-2736,Luxembourg,49.6117,6.13
L-2737,Luxembourg,49.6117,6.13
L-2738,Luxembourg,49.6117,6.13
L-2739,Luxembourg,49.6117,6.13
L-2740,Luxembourg,49.6117,6.13
L-2761,Luxembourg,49.6117,6.13
L-2762,Luxembourg,49.6117,6.13
L-2763,Luxembourg,49.6117,6.13
L-2764,Luxembourg,49.6117,6.13
L-2850,Luxembourg,49.6117,6.13
L-2887,Luxembourg,49.6117,6.13
L-2888,Luxembourg,49.6117,6.13
L-2889,Luxembourg,49.6117,6.13
L-2900,Luxembourg,49.6117,6.13
L-2910,Luxembourg,49.6117,6.13
L-2911,Luxembourg,49.6117,6.13
L-2912,Luxembourg,49.6117,6.13
L-2913,Luxembourg,49.6117,6.13
L-2914,Luxembourg,49.6117,6.13
L-2918,Luxembourg,49.6117,6.13
L-2919,Luxembourg,49.6117,6.13
L-2920,Luxembourg,49.6117,6.13
L-2921,Luxembourg,49.6117,6.13
L-2922,Luxembourg,49.6117,6.13
L-2925,Luxembourg,49.6117,6.13
L-2926,Luxembourg,49.6117,6.13
L-2928,Luxembourg,49.6117,6.13
L-2929,Luxembourg,49.6117,6.13
L-2930,Luxembourg,49.6117,6.13
L-2931,Luxembourg,49.6117,6.13
L-2932,Luxembourg,49.6117,6.13
L-2933,Luxembourg,49.6117,6.13
L-2934,Luxembourg,49.6117,6.13
L-2935,Luxembourg,49.6117,6.13
L-2936,Luxembourg,49.6117,6.13
L-2937,Luxembourg,49.6117,6.13
L-2938,Luxembourg,49.6117,6.13
L-2939,Luxembourg,49.6117,6.13
L-2940,Luxembourg,49.6117,6.13
L-2941,Luxembourg,49.6117,6.13
L-2942,Luxembourg,49.6117,6.13
L-2946,Luxembourg,49.6117,6.13
L-2950,Luxembourg,49.6117,6.13
L-2951,Luxembourg,49.6117,6.13
L-2952,Luxembourg,49.6117,6.13
L-2953,Luxembourg,49.6117,6.13
L-2954,Luxembourg,49.6117,6.13
L-2955,Luxembourg,49.6117,6.13
L-2956,Luxembourg,49.6117,6.13
L-2957,Luxembourg,49.6117,6.13
L-2958,Luxembourg,49.6117,6.13
L-2959,Luxembourg,49.6117,6.13
L-2960,Luxembourg,49.6117,6.13
L-2961,Luxembourg,49.6117,6.13
L-2963,Luxembourg,49.6117,6.13
L-2964,Luxembourg,49.6117,6.13
L-2965,Luxembourg,49.6117,6.13
L-2966,Luxembourg,49.6117,6.13
L-2967,Luxembourg,49.6117,6.13
L-2968,Luxembourg,49.6117,6.13
L-2969,Luxembourg,49.6117,6.13
L-2970,Luxembourg,49.6117,6.13
L-2971,Luxembourg,49.6117,6.13
L-2972,Luxembourg,49.6117,6.13
L-2973,Luxembourg,49.6117,6.13
L-2974,Luxembourg,49.6117,6.13
L-2975,Luxembourg,49.6117,6.13
L-2976,Luxembourg,49.6117,6.13
L-2977,Luxembourg,49.6117,6.13
L-2981,Luxembourg,49.6117,6.13
L-2982,Luxembourg,49.6117,6.13
L-2983,Luxembourg,49.6117,6.13
L-2984,Luxembourg,49.6117,6.13
L-2985,Luxembourg,49.6117,6.13
L-2986,Luxembourg,49.6117,6.13
L-2987,Luxembourg,49.6117,6.13
L-2988,Luxembourg,49.6117,6.13
L-2990,Luxembourg,49.6117,6.13
L-2991,Luxembourg,49.6117,6.13
L-2992,Luxembourg,49.6117,6.13
L-2997,Luxembourg,49.6117,6.13
L-2998,Luxembourg,49.6117,6.13
L-2999,Luxembourg,49.6117,6.13
L-3201,Bettembourg,49.5186,6.1028
L-3205,Leudelange,49.5683,6.0653
L-3206,Roeser,49.5422,6.15
L-3209,Bettembourg,49.5186,6.1028
L-3210,Bettembourg,49.5186,6.1028
L-3211,Bettembourg,49.5186,6.1028
L-3212,Bettembourg,49.5186,6.1028
L-3213,Bettembourg,49.5186,6.1028
L-3214,Bettembourg,49.5186,6.1028
L-3215,Bettembourg,49.5186,6.1028
L-3216,Bettembourg,49.5186,6.1028
L-3217,Bettembourg,49.5186,6.1028
L-3218,Bettembourg,49.5186,6.1028
L-3219,Bettembourg,49.5186,6.1028
L-3220,Bettembourg,49.5186,6.1028
L-3221,Bettembourg,49.5186,6.1028
L-3222,Bettembourg,49.5186,6.1028
L-3223,Bettembourg,49.5186,6.1028
L-3224,Bettembourg,49.5186,6.1028
L-3225,Bettembourg,49.5186,6.1028
L-3230,Bettembourg,49.5186,6.1028
L-3231,Bettembourg,49.5186,6.1028
L-3232,Bettembourg,49.5186,6.1028
L-3233,Bettembourg,49.5186,6.1028
L-3234,Bettembourg,49.5186,6.1028
L-3235,Bettembourg,49.5186,6.1028
L-3236,Bettembourg,49.5186,6.1028
L-3237,Bettembourg,49.5186,6.1028
L-3238,Bettembourg,49.5186,6.1028
L-3239,Bettembourg,49.5186,6.1028
L-3240,Bettembourg,49.5186,6.1028
L-3241,Bettembourg,49.5186,6.1028
L-3242,Bettembourg,49.5186,6.1028
L-3249,Bettembourg,49.5186,6.1028
L-3250,Bettembourg,49.5186,6.1028
L-3251,Bettembourg,49.5186,6.1028
L-3252,Bettembourg,49.5186,6.1028
L-3253,Bettembourg,49.5186,6.1028
L-3254,Bettembourg,49.5186,6.1028
L-3255,Bettembourg,49.5186,6.1028
L-3256,Bettembourg,49.5186,6.1028
L-3257,Bettembourg,49.5186,6.1028
L-3258,Bettembourg,49.5186,6.1028
L-3259,Bettembourg,49.5186,6.1028
L-3260,Peppange,49.5244,6.1297
L-3261,Bettembourg,49.5186,6.1028
L-3265,Bettembourg,49.5186,6.1028
L-3266,Bettembourg,49.5186,6.1028
L-3267,Bettembourg,49.5186,6.1028
L-3269,Bettembourg,49.5186,6.1028
L-3270,Bettembourg,49.5186,6.1028
L-3271,Bettembourg,49.5186,6.1028
L-3272,Bettembourg,49.5186,6.1028
L-3273,Bettembourg,49.5186,6.1028
L-3274,Bettembourg,49.5186,6.1028
L-3275,Bettembourg,49.5186,6.1028
L-3276,Bettembourg,49.5186,6.1028
L-3277,Bettembourg,49.5186,6.1028
L-3278,Bettembourg,49.5186,6.1028
L-3279,Bettembourg,49.5186,6.1028
L-3280,Bettembourg,49.5186,6.1028
L-3281,Bettembourg,49.5186,6.1028
L-3282,Bettembourg,49.5186,6.1028
L-3283,Bettembourg,49.5186,6.1028
L-3284,Bettembourg,49.5186,6.1028
L-3285,Bettembourg,49.5186,6.1028
L-3286,Bettembourg,49.5186,6.1028
L-3287,Bettembourg,49.5186,6.1028
L-3288,Bettembourg,49.5186,6.1028
L-3290,Bettembourg,49.5186,6.1028
L-3311,Abweiler,49.5336,6.0808
L-3313,Bergem,49.525,6.0422
L-3314,Bergem,49.525,6.0422
L-3315,Bergem,49.525,6.0422
L-3316,Bergem,49.525,6.0422
L-3317,Bergem,49.525,6.0422
L-3318,Bergem,49.525,6.0422
L-3320,Bivange,49.5444,6.1378
L-3321,Berchem,49.5403,6.1292
L-3322,Bivange,49.5444,6.1378
L-3323,Bivange,49.5444,6.1378
L-3324,Bivange,49.5444,6.1378
L-3325,Berchem,49.5403,6.1292
L-3326,Crauthem,49.5356,6.1469
L-3327,Crauthem,49.5356,6.1469
L-3328,Crauthem,49.5356,6.1469
L-3329,Crauthem,49.5356,6.1469
L-3330,Crauthem,49.5356,6.1469
L-3332,Fennange,49.5197,6.0783
L-3333,Hellange,49.5067,6.1506
L-3334,Hellange,49.5067,6.1506
L-3335,Hellange,49.5067,6.1506
L-3336,Hellange,49.5067,6.1506
L-3337,Hellange,49.5067,6.1506
L-3340,Huncherange,49.5169,6.065
L-3341,Huncherange,49.5169,6.065
L-3345,Leudelange,49.5683,6.0653
L-3346,Leudelange,49.5683,6.0653
L-3347,Leudelange,49.5683,6.0653
L-3348,Leudelange,49.5683,6.0653
L-3349,Leudelange,49.5683,6.0653
L-3350,Leudelange,49.5683,6.0653
L-3351,Leudelange,49.5683,6.0653
L-3352,Leudelange,49.5683,6.0653
L-3353,Leudelange,49.5683,6.0653
L-3354,Leudelange,49.5683,6.0653
L-3355,Leudelange,49.5683,6.0653
L-3356,Leudelange,49.5683,6.0653
L-3357,Leudelange,49.5683,6.0653
L-3358,Leudelange,49.5683,6.0653
L-3359,Leudelange,49.5683,6.0653
L-3360,Leudelange,49.5683,6.0653
L-3361,Leudelange,49.5683,6.0653
L-3362,Leudelange,49.5683,6.0653
L-3363,Leudelange,49.5683,6.0653
L-3364,Leudelange,49.5683,6.0653
L-3365,Leudelange,49.5683,6.0653
L-3366,Leudelange,49.5683,6.0653
L-3367,Leudelange,49.5683,6.0653
L-3368,Leudelange,49.5683,6.0653
L-3369,Leudelange,49.5683,6.0653
L-3370,Leudelange,49.5683,6.0653
L-3371,Leudelange,49.5683,6.0653
L-3372,Leudelange,49.5683,6.0653
L-3373,Leudelange,49.5683,6.0653
L-3376,Leudelange,49.5683,6.0653
L-3377,Leudelange,49.5683,6.0653
L-3378,Livange,49.5303,6.1203
L-3380,Noertzange,49.5092,6.0561
L-3382,Noertzange,49.5092,6.0561
L-3383,Noertzange,49.5092,6.0561
L-3384,Noertzange,49.5092,6.0561
L-3385,Noertzange,49.5092,6.0561
L-3386,Noertzange,49.5092,6.0561
L-3390,Peppange,49.5244,6.1297
L-3391,Peppange,49.5244,6.1297
L-3392,Roedgen,49.5747,6.0347
L-3393,Roedgen,49.5747,6.0347
L-3394,Roeser,49.5422,6.15
L-3395,Roeser,49.5422,6.15
L-3396,Roeser,49.5422,6.15
L-3397,Roeser,49.5422,6.15
L-3398,Roeser,49.5422,6.15
L-3401,Dudelange,49.4806,6.0875
L-3402,Dudelange,49.4806,6.0875
L-3403,Dudelange,49.4806,6.0875
L-3409,Dudelange,49.4806,6.0875
L-3410,Dudelange,49.4806,6.0875
L-3411,Dudelange,49.4806,6.0875
L-3412,Dudelange,49.4806,6.0875
L-3413,Dudelange,49.4806,6.0875
L-3414,Dudelange,49.4806,6.0875
L-3415,Dudelange,49.4806,6.0875
L-3416,Dudelange,49.4806,6.0875
L-3417,Dudelange,49.4806,6.0875
L-3418,Dudelange,49.4806,6.0875
L-3419,Dudelange,49.4806,6.0875
L-3420,Dudelange,49.4806,6.0875
L-3421,Dudelange,49.4806,6.0875
L-3422,Dudelange,49.4806,6.0875
L-3423,Dudelange,49.4806,6.0875
L-3424,Dudelange,49.4806,6.0875
L-3425,Dudelange,49.4806,6.0875
L-3426,Dudelange,49.4806,6.0875
L-3427,Dudelange,49.4806,6.0875
L-3428,Dudelange,49.4806,6.0875
L-3429,Dudelange,49.4806,6.0875
L-3430,Dudelange,49.4806,6.0875
L-3431,Dudelange,49.4806,6.0875
L-3432,Dudelange,49.4806,6.0875
L-3433,Dudelange,49.4806,6.0875
L-3439,Dudelange,49.4806,6.0875
L-3440,Dudelange,49.4806,6.0875
L-3441,Dudelange,49.4806,6.0875
L-3442,Dudelange,49.4806,6.0875
L-3443,Dudelange,49.4806,6.0875
L-3444,Dudelange,49.4806,6.0875
L-3445,Dudelange,49.4806,6.0875
L-3446,Dudelange,49.4806,6.0875
L-3447,Dudelange,49.4806,6.0875
L-3448,Dudelange,49.4806,6.0875
L-3449,Dudelange,49.4806,6.0875
L-3450,Dudelange,49.4806,6.0875
L-3451,Dudelange,49.4806,6.0875
L-3452,Dudelange,49.4806,6.0875
L-3453,Dudelange,49.4806,6.0875
L-3460,Dudelange,49.4806,6.0875
L-3461,Dudelange,49.4806,6.0875
L-3462,Dudelange,49.4806,6.0875
L-3463,Dudelange,49.4806,6.0875
L-3464,Dudelange,49.4806,6.0875
L-3465,Dudelange,49.4806,6.0875
L-3466,Dudelange,49.4806,6.0875
L-3467,Dudelange,49.4806,6.0875
L-3468,Dudelange,49.4806,6.0875
L-3469,Dudelange,49.4806,6.0875
L-3470,Dudelange,49.4806,6.0875
L-3471,Dudelange,49.4806,6.0875
L-3472,Dudelange,49.4806,6.0875
L-3473,Dudelange,49.4806,6.0875
L-3474,Dudelange,49.4764,6.0826
L-3475,Dudelange,49.4806,6.0875
L-3480,Dudelange,49.4806,6.0875
L-3481,Dudelange,49.4806,6.0875
L-3482,Dudelange,49.4806,6.0875
L-3483,Dudelange,49.4806,6.0875
L-3484,Dudelange,49.4806,6.0875
L-3485,Dudelange,49.4806,6.0875
L-3486,Dudelange,49.4806,6.0875
L-3487,Dudelange,49.4806,6.0875
L-3488,Dudelange,49.4806,6.0875
L-3489,Dudelange,49.4806,6.0875
L-3490,Dudelange,49.4806,6.0875
L-3491,Dudelange,49.4806,6.0875
L-3492,Dudelange,49.4806,6.0875
L-3493,Dudelange,49.4806,6.0875
L-3501,Dudelange,49.4806,6.0875
L-3502,Dudelange,49.4806,6.0875
L-3503,Dudelange,49.4806,6.0875
L-3504,Dudelange,49.4806,6.0875
L-3505,Dudelange,49.4806,6.0875
L-3506,Dudelange,49.4806,6.0875
L-3507,Dudelange,49.4806,6.0875
L-3508,Dudelange,49.4806,6.0875
L-3509,Dudelange,49.4806,6.0875
L-3510,Dudelange,49.4806,6.0875
L-3511,Dudelange,49.4806,6.0875
L-3512,Dudelange,49.4806,6.0875
L-3513,Dudelange,49.4806,6.0875
L-3514,Dudelange,49.4806,6.0875
L-3515,Dudelange,49.4806,6.0875
L-3516,Dudelange,49.4806,6.0875
L-3520,Dudelange,49.4806,6.0875
L-3521,Dudelange,49.4806,6.0875
L-3522,Dudelange,49.4806,6.0875
L-3523,Dudelange,49.4806,6.0875
L-3524,Dudelange,49.4806,6.0875
L-3525,Dudelange,49.4806,6.0875
L-3526,Dudelange,49.4806,6.0875
L-3530,Dudelange,49.4806,6.0875
L-3531,Dudelange,49.4806,6.0875
L-3532,Dudelange,49.4806,6.0875
L-3539,Dudelange,49.4806,6.0875
L-3540,Dudelange,49.4806,6.0875
L-3541,Dudelange,49.4806,6.0875
L-3542,Dudelange,49.4806,6.0875
L-3543,Dudelange,49.4806,6.0875
L-3544,Dudelange,49.4806,6.0875
L-3545,Dudelange,49.4806,6.0875
L-3546,Dudelange,49.4806,6.0875
L-3547,Dudelange,49.4806,6.0875
L-3548,Dudelange,49.4806,6.0875
L-3549,Dudelange,49.4806,6.0875
L-3550,Dudelange,49.4806,6.0875
L-3551,Dudelange,49.4806,6.0875
L-3552,Dudelange,49.4806,6.0875
L-3553,Dudelange,49.4806,6.0875
L-3554,Dudelange,49.4806,6.0875
L-3560,Dudelange,49.4806,6.0875
L-3561,Dudelange,49.4806,6.0875
L-3562,Dudelange,49.4806,6.0875
L-3563,Dudelange,49.4806,6.0875
L-3564,Dudelange,49.4806,6.0875
L-3565,Dudelange,49.4806,6.0875
L-3566,Dudelange,49.4806,6.0875
L-3567,Dudelange,49.4806,6.0875
L-3568,Dudelange,49.4806,6.0875
L-3569,Dudelange,49.4806,6.0875
L-3570,Dudelange,49.4806,6.0875
L-3571,Dudelange,49.4806,6.0875
L-3572,Dudelange,49.4806,6.0875
L-3573,Dudelange,49.4806,6.0875
L-3574,Dudelange,49.4806,6.0875
L-3575,Dudelange,49.4806,6.0875
L-3576,Dudelange,49.4806,6.0875
L-3582,Dudelange,49.4806,6.0875
L-3583,Dudelange,49.4806,6.0875
L-3588,Dudelange,49.4806,6.0875
L-3589,Dudelange,49.4806,6.0875
L-3590,Dudelange,49.4806,6.0875
L-3591,Dudelange,49.4806,6.0875
L-3592,Dudelange,49.4806,6.0875
L-3593,Dudelange,49.4806,6.0875
L-3594,Dudelange,49.4806,6.0875
L-3595,Dudelange,49.4806,6.0875
L-3596,Dudelange,49.4806,6.0875
L-3597,Dudelange,49.4806,6.0875
L-3598,Dudelange,49.4806,6.0875
L-3601,Kayl,49.4892,6.0397
L-3611,Kayl,49.4892,6.0397
L-3612,Kayl,49.4892,6.0397
L-3613,Kayl,49.4892,6.0397
L-3614,Kayl,49.4892,6.0397
L-3615,Kayl,49.4892,6.0397
L-3616,Kayl,49.4892,6.0397
L-3617,Kayl,49.4892,6.0397
L-3620,Kayl,49.4892,6.0397
L-3621,Kayl,49.4892,6.0397
L-3622,Kayl,49.4892,6.0397
L-3630,Kayl,49.4892,6.0397
L-3631,Kayl,49.4892,6.0397
L-3635,Kayl,49.4892,6.0397
L-3636,Kayl,49.4892,6.0397
L-3637,Kayl,49.4892,6.0397
L-3638,Kayl,49.4892,6.0397
L-3640,Kayl,49.4892,6.0397
L-3641,Kayl,49.4892,6.0397
L-3642,Kayl,49.4892,6.0397
L-3643,Kayl,49.4892,6.0397
L-3644,Kayl,49.4892,6.0397
L-3650,Kayl,49.4892,6.0397
L-3651,Kayl,49.4892,6.0397
L-3652,Kayl,49.4892,6.0397
L-3653,Kayl,49.4892,6.0397
L-3654,Kayl,49.4892,6.0397
L-3655,Kayl,49.4892,6.0397
L-3656,Kayl,49.4892,6.0397
L-3657,Kayl,49.4892,6.0397
L-3658,Kayl,49.4892,6.0397
L-3660,Kayl,49.4892,6.0397
L-3670,Kayl,49.4892,6.0397
L-3671,Kayl,49.4892,6.0397
L-3672,Kayl,49.4892,6.0397
L-3673,Kayl,49.4892,6.0397
L-3674,Kayl,49.4892,6.0397
L-3675,Kayl,49.4892,6.0397
L-3676,Kayl,49.4892,6.0397
L-3701,Rumelange,49.4608,6.0331
L-3705,Tetange,49.4758,6.0422
L-3710,Rumelange,49.4608,6.0331
L-3711,Rumelange,49.4608,6.0331
L-3712,Rumelange,49.4608,6.0331
L-3713,Rumelange,49.4608,6.0331
L-3714,Rumelange,49.4608,6.0331
L-3715,Rumelange,49.4608,6.0331
L-3716,Rumelange,49.4608,6.0331
L-3717,Rumelange,49.4608,6.0331
L-3718,Rumelange,49.4608,6.0331
L-3719,Rumelange,49.4608,6.0331
L-3720,Rumelange,49.4608,6.0331
L-3721,Rumelange,49.4608,6.0331
L-3722,Rumelange,49.4608,6.0331
L-3723,Rumelange,49.4608,6.0331
L-3724,Rumelange,49.4608,6.0331
L-3725,Rumelange,49.4608,6.0331
L-3726,Rumelange,49.4608,6.0331
L-3727,Rumelange,49.4608,6.0331
L-3728,Rumelange,49.4608,6.0331
L-3729,Rumelange,49.4608,6.0331
L-3730,Rumelange,49.4608,6.0331
L-3733,Rumelange,49.4608,6.0331
L-3734,Rumelange,49.4608,6.0331
L-3735,Rumelange,49.4608,6.0331
L-3736,Rumelange,49.4608,6.0331
L-3737,Rumelange,49.4608,6.0331
L-3738,Rumelange,49.4608,6.0331
L-3739,Rumelange,49.4608,6.0331
L-3740,Rumelange,49.4608,6.0331
L-3741,Rumelange,49.4608,6.0331
L-3742,Rumelange,49.4608,6.0331
L-3743,Rumelange,49.4608,6.0331
L-3744,Rumelange,49.4608,6.0331
L-3750,Rumelange,49.4608,6.0331
L-3751,Rumelange,49.4608,6.0331
L-3752,Rumelange,49.4608,6.0331
L-3753,Rumelange,49.4608,6.0331
L-3754,Rumelange,49.4608,6.0331
L-3755,Rumelange,49.4608,6.0331
L-3761,Tetange,49.4758,6.0422
L-3762,Tetange,49.4758,6.0422
L-3763,Tetange,49.4758,6.0422
L-3764,Tetange,49.4758,6.0422
L-3765,Tetange,49.4758,6.0422
L-3766,Tetange,49.4758,6.0422
L-3767,Tetange,49.4758,6.0422
L-3768,Tetange,49.4758,6.0422
L-3770,Tetange,49.4758,6.0422
L-3771,Tetange,49.4758,6.0422
L-3772,Tetange,49.4758,6.0422
L-3773,Tetange,49.4758,6.0422
L-3774,Tetange,49.4758,6.0422
L-3775,Tetange,49.4758,6.0422
L-3776,Tetange,49.4758,6.0422
L-3780,Tetange,49.4758,6.0422
L-3781,Tetange,49.4758,6.0422
L-3782,Tetange,49.4758,6.0422
L-3784,Tetange,49.4758,6.0422
L-3786,Tetange,49.4758,6.0422
L-3787,Tetange,49.4758,6.0422
L-3788,Tetange,49.4758,6.0422
L-3789,Tetange,49.4758,6.0422
L-3790,Tetange,49.4758,6.0422
L-3801,Schifflange,49.5064,6.0128
L-3810,Schifflange,49.5064,6.0128
L-3811,Schifflange,49.5064,6.0128
L-3812,Schifflange,49.5064,6.0128
L-3813,Schifflange,49.5064,6.0128
L-3814,Schifflange,49.5064,6.0128
L-3815,Schifflange,49.5064,6.0128
L-3816,Schifflange,49.5064,6.0128
L-3817,Schifflange,49.5064,6.0128
L-3818,Schifflange,49.5064,6.0128
L-3819,Schifflange,49.5064,6.0128
L-3820,Schifflange,49.5064,6.0128
L-3821,Schifflange,49.5064,6.0128
L-3822,Schifflange,49.5064,6.0128
L-3823,Schifflange,49.5064,6.0128
L-3824,Schifflange,49.5064,6.0128
L-3825,Schifflange,49.5064,6.0128
L-3830,Schifflange,49.5064,6.0128
L-3831,Schifflange,49.5064,6.0128
L-3832,Schifflange,49.5064,6.0128
L-3833,Schifflange,49.5064,6.0128
L-3834,Schifflange,49.5064,6.0128
L-3835,Schifflange,49.5064,6.0128
L-3836,Schifflange,49.5064,6.0128
L-3837,Schifflange,49.5064,6.0128
L-3838,Schifflange,49.5064,6.0128
L-3839,Schifflange,49.5064,6.0128
L-3840,Schifflange,49.5064,6.0128
L-3841,Schifflange,49.5064,6.0128
L-3842,Schifflange,49.5064,6.0128
L-3843,Schifflange,49.5064,6.0128
L-3844,Schifflange,49.5064,6.0128
L-3850,Schifflange,49.5064,6.0128
L-3851,Schifflange,49.5064,6.0128
L-3852,Schifflange,49.5064,6.0128
L-3853,Schifflange,49.5064,6.0128
L-3854,Schifflange,49.5064,6.0128
L-3855,Schifflange,49.5064,6.0128
L-3856,Schifflange,49.5064,6.0128
L-3857,Schifflange,49.5064,6.0128
L-3858,Schifflange,49.5064,6.0128
L-3859,Schifflange,49.5064,6.0128
L-3860,Schifflange,49.5064,6.0128
L-3861,Schifflange,49.5064,6.0128
L-3862,Schifflange,49.5064,6.0128
L-3870,Schifflange,49.5064,6.0128
L-3871,Schifflange,49.5064,6.0128
L-3872,Schifflange,49.5064,6.0128
L-3873,Schifflange,49.5064,6.0128
L-3874,Schifflange,49.5064,6.0128
L-3875,Schifflange,49.5064,6.0128
L-3876,Schifflange,49.5064,6.0128
L-3877,Schifflange,49.5064,6.0128
L-3878,Schifflange,49.5064,6.0128
L-3879,Schifflange,49.5064,6.0128
L-3880,Schifflange,49.5064,6.0128
L-3881,Schifflange,49.5064,6.0128
L-3882,Schifflange,49.5064,6.0128
L-3883,Schifflange,49.5064,6.0128
L-3895,Foetz,49.5294,6.0108
L-3896,Foetz,49.5294,6.0108
L-3897,Foetz,49.5294,6.0108
L-3898,Foetz,49.5294,6.0108
L-3899,Foetz,49.5294,6.0108
L-3901,Mondercange,49.5331,5.9883
L-3909,Mondercange,49.5331,5.9883
L-3910,Mondercange,49.5331,5.9883
L-3911,Mondercange,49.5331,5.9883
L-3912,Mondercange,49.5331,5.9883
L-3913,Mondercange,49.5331,5.9883
L-3914,Mondercange,49.5331,5.9883
L-3915,Mondercange,49.5331,5.9883
L-3916,Mondercange,49.5331,5.9883
L-3917,Mondercange,49.5331,5.9883
L-3918,Mondercange,49.5331,5.9883
L-3919,Mondercange,49.5331,5.9883
L-3920,Mondercange,49.5331,5.9883
L-3921,Mondercange,49.5331,5.9883
L-3922,Mondercange,49.5331,5.9883
L-3923,Mondercange,49.5331,5.9883
L-3924,Mondercange,49.5331,5.9883
L-3925,Mondercange,49.5331,5.9883
L-3926,Mondercange,49.5331,5.9883
L-3927,Mondercange,49.5331,5.9883
L-3928,Mondercange,49.5331,5.9883
L-3929,Mondercange,49.5331,5.9883
L-3930,Mondercange,49.5331,5.9883
L-3931,Mondercange,49.5331,5.9883
L-3932,Mondercange,49.5331,5.9883
L-3933,Mondercange,49.5331,5.9883
L-3934,Mondercange,49.5331,5.9883
L-3935,Mondercange,49.5331,5.9883
L-3936,Mondercange,49.5331,5.9883
L-3937,Mondercange,49.5331,5.9883
L-3938,Mondercange,49.5331,5.9883
L-3939,Mondercange,49.5331,5.9883
L-3940,Mondercange,49.5331,5.9883
L-3941,Mondercange,49.5331,5.9883
L-3943,Mondercange,49.5331,5.9883
L-3944,Mondercange,49.5331,5.9883
L-3960,Ehlange,49.5489,6.0169
L-3961,Ehlange,49.5489,6.0169
L-3980,Wickrange,49.5414,6.0217
L-3985,Pissange,49.5494,6.0003
L-4001,Esch-Sur-Alzette,49.4958,5.9806
L-4002,Esch-Sur-Alzette,49.4958,5.9806
L-4003,Esch-Sur-Alzette,49.4958,5.9806
L-4004,Esch-Sur-Alzette,49.4958,5.9806
L-4005,Esch-Sur-Alzette,49.4933,5.9822
L-4006,Esch-Sur-Alzette,49.4958,5.9806
L-4007,Esch-Sur-Alzette,49.4958,5.9806
L-4008,Esch-Sur-Alzette,49.4958,5.9806
L-4009,Esch-Sur-Alzette,49.4958,5.9806
L-4010,Esch-Sur-Alzette,49.4958,5.9806
L-4011,Esch-Sur-Alzette,49.4936,5.9786
L-4012,Esch-Sur-Alzette,49.4958,5.9806
L-4013,Esch-Sur-Alzette,49.4958,5.9806
L-4014,Esch-Sur-Alzette,49.4958,5.9806
L-4015,Esch-Sur-Alzette,49.4958,5.9806
L-4016,Esch-Sur-Alzette,49.4958,5.9806
L-4017,Esch-Sur-Alzette,49.4958,5.9806
L-4018,Esch-Sur-Alzette,49.4958,5.9806
L-4019,Esch-Sur-Alzette,49.4958,5.9806
L-4020,Esch-Sur-Alzette,49.4958,5.9806
L-4021,Esch-Sur-Alzette,49.4958,5.9806
L-4022,Esch-Sur-Alzette,49.4958,5.9806
L-4023,Esch-Sur-Alzette,49.4958,5.9806
L-4024,Esch-Sur-Alzette,49.4958,5.9806
L-4025,Esch-Sur-Alzette,49.4958,5.9806
L-4026,Esch-Sur-Alzette,49.4958,5.9806
L-4027,Esch-Sur-Alzette,49.4958,5.9806
L-4028,Esch-Sur-Alzette,49.4958,5.9806
L-4029,Esch-Sur-Alzette,49.4958,5.9806
L-4030,Esch-Sur-Alzette,49.4958,5.9806
L-4031,Esch-Sur-Alzette,49.4958,5.9806
L-4032,Esch-Sur-Alzette,49.4958,5.9806
L-4033,Esch-Sur-Alzette,49.4958,5.9806
L-4034,Esch-Sur-Alzette,49.4958,5.9806
L-4035,Esch-Sur-Alzette,49.4958,5.9806
L-4036,Esch-Sur-Alzette,49.4958,5.9806
L-4037,Esch-Sur-Alzette,49.4958,5.9806
L-4038,Esch-Sur-Alzette,49.4958,5.9806
L-4039,Esch-Sur-Alzette,49.4958,5.9806
L-4040,Esch-Sur-Alzette,49.4958,5.9806
L-4041,Esch-Sur-Alzette,49.4958,5.9806
L-4042,Esch-Sur-Alzette,49.4958,5.9806
L-4043,Esch-Sur-Alzette,49.4958,5.9806
L-4044,Esch-Sur-Alzette,49.4956,5.9831
L-4045,Esch-Sur-Alzette,49.4958,5.9806
L-4050,Esch-Sur-Alzette,49.4958,5.9806
L-4051,Esch-Sur-Alzette,49.4958,5.9806
L-4052,Esch-Sur-Alzette,49.4958,5.9806
L-4053,Esch-Sur-Alzette,49.4958,5.9806
L-4054,Esch-Sur-Alzette,49.4958,5.9806
L-4055,Esch-Sur-Alzette,49.4958,5.9806
L-4056,Esch-Sur-Alzette,49.4958,5.9806
L-4057,Esch-Sur-Alzette,49.4958,5.9806
L-4059,Esch-Sur-Alzette,49.4958,5.9806
L-4060,Esch-Sur-Alzette,49.4958,5.9806
L-4061,Esch-Sur-Alzette,49.4958,5.9806
L-4062,Esch-Sur-Alzette,49.4958,5.9806
L-4063,Esch-Sur-Alzette,49.4958,5.9806
L-4064,Esch-Sur-Alzette,49.4958,5.9806
L-4065,Esch-Sur-Alzette,49.4958,5.9806
L-4066,Esch-Sur-Alzette,49.4958,5.9806
L-4067,Esch-Sur-Alzette,49.4958,5.9806
L-4068,Esch-Sur-Alzette,49.4958,5.9806
L-4069,Esch-Sur-Alzette,49.4958,5.9806
L-4070,Esch-Sur-Alzette,49.4958,5.9806
L-4080,Esch-Sur-Alzette,49.4958,5.9806
L-4081,Esch-Sur-Alzette,49.4958,5.9806
L-4082,Esch-Sur-Alzette,49.4958,5.9806
L-4083,Esch-Sur-Alzette,49.4958,5.9806
L-4084,Esch-Sur-Alzette,49.4958,5.9806
L-4085,Esch-Sur-Alzette,49.4958,5.9806
L-4086,Esch-Sur-Alzette,49.4958,5.9806
L-4100,Esch-Sur-Alzette,49.4958,5.9806
L-4101,Esch-Sur-Alzette,49.4958,5.9806
L-4102,Esch-Sur-Alzette,49.4958,5.9806
L-4103,Esch-Sur-Alzette,49.4958,5.9806
L-4104,Esch-Sur-Alzette,49.4958,5.9806
L-4105,Esch-Sur-Alzette,49.4958,5.9806
L-4106,Esch-Sur-Alzette,49.4958,5.9806
L-4107,Esch-Sur-Alzette,49.4958,5.9806
L-4108,Esch-Sur-Alzette,49.4958,5.9806
L-4109,Esch-Sur-Alzette,49.4958,5.9806
L-4110,Esch-Sur-Alzette,49.4958,5.9806
L-4111,Esch-Sur-Alzette,49.4958,5.9806
L-4112,Esch-Sur-Alzette,49.4958,5.9806
L-4113,Esch-Sur-Alzette,49.4958,5.9806
L-4114,Esch-Sur-Alzette,49.4958,5.9806
L-4115,Esch-Sur-Alzette,49.4958,5.9806
L-4118,Esch-Sur-Alzette,49.4958,5.9806
L-4120,Esch-Sur-Alzette,49.4958,5.9806
L-4121,Esch-Sur-Alzette,49.4958,5.9806
L-4122,Esch-Sur-Alzette,49.4958,5.9806
L-4123,Esch-Sur-Alzette,49.4958,5.9806
L-4125,Esch-Sur-Alzette,49.4958,5.9806
L-4130,Esch-Sur-Alzette,49.4958,5.9806
L-4131,Esch-Sur-Alzette,49.4958,5.9806
L-4132,Esch-Sur-Alzette,49.4958,5.9806
L-4133,Esch-Sur-Alzette,49.4958,5.9806
L-4134,Esch-Sur-Alzette,49.4958,5.9806
L-4135,Esch-Sur-Alzette,49.4958,5.9806
L-4136,Esch-Sur-Alzette,49.4958,5.9806
L-4137,Esch-Sur-Alzette,49.4958,5.9806
L-4138,Esch-Sur-Alzette,49.4958,5.9806
L-4139,Esch-Sur-Alzette,49.4958,5.9806
L-4140,Esch-Sur-Alzette,49.4958,5.9806
L-4141,Esch-Sur-Alzette,49.4958,5.9806
L-4142,Esch-Sur-Alzette,49.4958,5.9806
L-4149,Esch-Sur-Alzette,49.4958,5.9806
L-4150,Esch-Sur-Alzette,49.4958,5.9806
L-4151,Esch-Sur-Alzette,49.4958,5.9806
L-4152,Esch-Sur-Alzette,49.4958,5.9806
L-4153,Esch-Sur-Alzette,49.4958,5.9806
L-4154,Esch-Sur-Alzette,49.4958,5.9806
L-4155,Esch-Sur-Alzette,49.4958,5.9806
L-4156,Esch-Sur-Alzette,49.4958,5.9806
L-4165,Esch-Sur-Alzette,49.4958,5.9806
L-4166,Esch-Sur-Alzette,49.4958,5.9806
L-4167,Esch-Sur-Alzette,49.4958,5.9806
L-4168,Esch-Sur-Alzette,49.4958,5.9806
L-4169,Esch-Sur-Alzette,49.4958,5.9806
L-4170,Esch-Sur-Alzette,49.4958,5.9806
L-4171,Esch-Sur-Alzette,49.4958,5.9806
L-4172,Esch-Sur-Alzette,49.4958,5.9806
L-4173,Esch-Sur-Alzette,49.4958,5.9806
L-4174,Esch-Sur-Alzette,49.4958,5.9806
L-4175,Esch-Sur-Alzette,49.4958,5.9806
L-4176,Esch-Sur-Alzette,49.4958,5.9806
L-4177,Esch-Sur-Alzette,49.4958,5.9806
L-4178,Esch-Sur-Alzette,49.4958,5.9806
L-4179,Esch-Sur-Alzette,49.4958,5.9806
L-4201,Esch-Sur-Alzette,49.4958,5.9806
L-4202,Esch-Sur-Alzette,49.4958,5.9806
L-4203,Esch-Sur-Alzette,49.4958,5.9806
L-4204,Esch-Sur-Alzette,49.4958,5.9806
L-4205,Esch-Sur-Alzette,49.4958,5.9806
L-4206,Esch-Sur-Alzette,49.4958,5.9806
L-4207,Esch-Sur-Alzette,49.4958,5.9806
L-4208,Esch-Sur-Alzette,49.4958,5.9806
L-4209,Esch-Sur-Alzette,49.4958,5.9806
L-4210,Esch-Sur-Alzette,49.4958,5.9806
L-4213,Esch-Sur-Alzette,49.4958,5.9806
L-4214,Esch-Sur-Alzette,49.4958,5.9806
L-4216,Esch-Sur-Alzette,49.4958,5.9806
L-4217,Esch-Sur-Alzette,49.4958,5.9806
L-4220,Esch-Sur-Alzette,49.4958,5.9806
L-4221,Esch-Sur-Alzette,49.4958,5.9806
L-4222,Esch-Sur-Alzette,49.4958,5.9806
L-4230,Esch-Sur-Alzette,49.4958,5.9806
L-4231,Esch-Sur-Alzette,49.4958,5.9806
L-4232,Esch-Sur-Alzette,49.4958,5.9806
L-4233,Esch-Sur-Alzette,49.4958,5.9806
L-4234,Esch-Sur-Alzette,49.4958,5.9806
L-4235,Esch-Sur-Alzette,49.4958,5.9806
L-4236,Esch-Sur-Alzette,49.4958,5.9806
L-4237,Esch-Sur-Alzette,49.4958,5.9806
L-4238,Esch-Sur-Alzette,49.4958,5.9806
L-4239,Esch-Sur-Alzette,49.4958,5.9806
L-4240,Esch-Sur-Alzette,49.4958,5.9806
L-4241,Esch-Sur-Alzette,49.4958,5.9806
L-4242,Esch-Sur-Alzette,49.4958,5.9806
L-4243,Esch-Sur-Alzette,49.4958,5.9806
L-4244,Esch-Sur-Alzette,49.4958,5.9806
L-4245,Esch-Sur-Alzette,49.4958,5.9806
L-4246,Esch-Sur-Alzette,49.4958,5.9806
L-4247,Esch-Sur-Alzette,49.4958,5.9806
L-4248,Esch-Sur-Alzette,49.4958,5.9806
L-4249,Esch-Sur-Alzette,49.4958,5.9806
L-4250,Esch-Sur-Alzette,49.4958,5.9806
L-4251,Esch-Sur-Alzette,49.4958,5.9806
L-4252,Esch-Sur-Alzette,49.4958,5.9806
L-4253,Esch-Sur-Alzette,49.4958,5.9806
L-4254,Esch-Sur-Alzette,49.4958,5.9806
L-4260,Esch-Sur-Alzette,49.4958,5.9806
L-4261,Esch-Sur-Alzette,49.4958,5.9806
L-4262,Esch-Sur-Alzette,49.4958,5.9806
L-4263,Esch-Sur-Alzette,49.4958,5.9806
L-4264,Esch-Sur-Alzette,49.4958,5.9806
L-4265,Esch-Sur-Alzette,49.4958,5.9806
L-4266,Esch-Sur-Alzette,49.4958,5.9806
L-4267,Esch-Sur-Alzette,49.4958,5.9806
L-4270,Esch-Sur-Alzette,49.4958,5.9806
L-4271,Esch-Sur-Alzette,49.4958,5.9806
L-4275,Esch-Sur-Alzette,49.4958,5.9806
L-4276,Esch-Sur-Alzette,49.4958,5.9806
L-4277,Esch-Sur-Alzette,49.4958,5.9806
L-4278,Esch-Sur-Alzette,49.4958,5.9806
L-4279,Esch-Sur-Alzette,49.4958,5.9806
L-4280,Esch-Sur-Alzette,49.4958,5.9806
L-4281,Esch-Sur-Alzette,49.4958,5.9806
L-4282,Esch-Sur-Alzette,49.4958,5.9806
L-4289,Esch-Sur-Alzette,49.4958,5.9806
L-4301,Esch-Sur-Alzette,49.4958,5.9806
L-4302,Esch-Sur-Alzette,49.4958,5.9806
L-4303,Esch-Sur-Alzette,49.4958,5.9806
L-4304,Esch-Sur-Alzette,49.4958,5.9806
L-4305,Esch-Sur-Alzette,49.4958,5.9806
L-4306,Esch-Sur-Alzette,49.4958,5.9806
L-4307,Esch-Sur-Alzette,49.4958,5.9806
L-4308,Esch-Sur-Alzette,49.4958,5.9806
L-4309,Esch-Sur-Alzette,49.4958,5.9806
L-4310,Esch-Sur-Alzette,49.4958,5.9806
L-4314,Esch-Sur-Alzette,49.4958,5.9806
L-4315,Esch-Sur-Alzette,49.4958,5.9806
L-4316,Esch-Sur-Alzette,49.4958,5.9806
L-4317,Esch-Sur-Alzette,49.4958,5.9806
L-4318,Esch-Sur-Alzette,49.4958,5.9806
L-4319,Esch-Sur-Alzette,49.4958,5.9806
L-4320,Esch-Sur-Alzette,49.4958,5.9806
L-4321,Esch-Sur-Alzette,49.4958,5.9806
L-4322,Esch-Sur-Alzette,49.4958,5.9806
L-4323,Esch-Sur-Alzette,49.4958,5.9806
L-4324,Esch-Sur-Alzette,49.4958,5.9806
L-4325,Esch-Sur-Alzette,49.4958,5.9806
L-4326,Esch-Sur-Alzette,49.4958,5.9806
L-4329,Esch-Sur-Alzette,49.4958,5.9806
L-4330,Esch-Sur-Alzette,49.4958,5.9806
L-4331,Esch-Sur-Alzette,49.4958,5.9806
L-4332,Esch-Sur-Alzette,49.4958,5.9806
L-4333,Esch-Sur-Alzette,49.4958,5.9806
L-4334,Esch-Sur-Alzette,49.4958,5.9806
L-4335,Esch-Sur-Alzette,49.4958,5.9806
L-4336,Esch-Sur-Alzette,49.4958,5.9806
L-4337,Esch-Sur-Alzette,49.4958,5.9806
L-4340,Esch-Sur-Alzette,49.4958,5.9806
L-4341,Esch-Sur-Alzette,49.4958,5.9806
L-4342,Esch-Sur-Alzette,49.4958,5.9806
L-4343,Esch-Sur-Alzette,49.4958,5.9806
L-4344,Esch-Sur-Alzette,49.4958,5.9806
L-4345,Esch-Sur-Alzette,49.4958,5.9806
L-4346,Esch-Sur-Alzette,49.4958,5.9806
L-4347,Esch-Sur-Alzette,49.4958,5.9806
L-4348,Esch-Sur-Alzette,49.4958,5.9806
L-4349,Esch-Sur-Alzette,49.4958,5.9806
L-4350,Esch-Sur-Alzette,49.4958,5.9806
L-4351,Esch-Sur-Alzette,49.4958,5.9806
L-4352,Esch-Sur-Alzette,49.4958,5.9806
L-4353,Esch-Sur-Alzette,49.4958,5.9806
L-4354,Esch-Sur-Alzette,49.4958,5.9806
L-4380,Ehlerange,49.5242,5.9661
L-4381,Ehlerange,49.5242,5.9661
L-4382,Ehlerange,49.5242,5.9661
L-4383,Ehlerange,49.5242,5.9661
L-4384,Ehlerange,49.5242,5.9661
L-4385,Ehlerange,49.5242,5.9661
L-4390,Pontpierre,49.5364,6.0294
L-4391,Pontpierre,49.5364,6.0294
L-4392,Pontpierre,49.5364,6.0294
L-4393,Pontpierre,49.5364,6.0294
L-4394,Pontpierre,49.5364,6.0294
L-4395,Pontpierre,49.5364,6.0294
L-4396,Pontpierre,49.5364,6.0294
L-4397,Pontpierre,49.5364,6.0294
L-4398,Pontpierre,49.5364,6.0294
L-4401,Belvaux,49.5128,5.9294
L-4402,Belvaux,49.5128,5.9294
L-4405,Soleuvre,49.5256,5.9406
L-4406,Belvaux,49.5128,5.9294
L-4407,Belvaux,49.5128,5.9294
L-4410,Soleuvre,49.5256,5.9406
L-4411,Soleuvre,49.5256,5.9406
L-4412,Belvaux,49.5128,5.9294
L-4413,Soleuvre,49.5256,5.9406
L-4414,Soleuvre,49.5256,5.9406
L-4415,Soleuvre,49.5256,5.9406
L-4416,Belvaux,49.5128,5.9294
L-4417,Soleuvre,49.5256,5.9406
L-4418,Soleuvre,49.5256,5.9406
L-4419,Belvaux,49.5128,5.9294
L-4420,Soleuvre,49.5256,5.9406
L-4421,Soleuvre,49.5256,5.9406
L-4422,Belvaux,49.5128,5.9294
L-4423,Soleuvre,49.5256,5.9406
L-4429,Belvaux,49.5128,5.9294
L-4430,Belvaux,49.5128,5.9294
L-4431,Belvaux,49.5128,5.9294
L-4432,Soleuvre,49.5256,5.9406
L-4433,Soleuvre,49.5256,5.9406
L-4434,Soleuvre,49.5256,5.9406
L-4435,Soleuvre,49.5256,5.9406
L-4436,Belvaux,49.5128,5.9294
L-4437,Soleuvre,49.5256,5.9406
L-4438,Soleuvre,49.5256,5.9406
L-4439,Soleuvre,49.5256,5.9406
L-4440,Soleuvre,49.5256,5.9406
L-4441,Soleuvre,49.5256,5.9406
L-4442,Soleuvre,49.5256,5.9406
L-4443,Belvaux,49.5128,5.9294
L-4444,Belvaux,49.5128,5.9294
L-4445,Belvaux,49.5128,5.9294
L-4446,Belvaux,49.5128,5.9294
L-4447,Soleuvre,49.5256,5.9406
L-4448,Soleuvre,49.5256,5.9406
L-4449,Soleuvre,49.5256,5.9406
L-4450,Belvaux,49.5128,5.9294
L-4451,Belvaux,49.5128,5.9294
L-4459,Soleuvre,49.5256,5.9406
L-4460,Belvaux,49.5128,5.9294
L-4461,Belvaux,49.5128,5.9294
L-4462,Belvaux,49.5128,5.9294
L-4463,Soleuvre,49.5256,5.9406
L-4464,Soleuvre,49.5256,5.9406
L-4465,Soleuvre,49.5256,5.9406
L-4466,Soleuvre,49.5256,5.9406
L-4467,Soleuvre,49.5256,5.9406
L-4468,Belvaux,49.5128,5.9294
L-4469,Soleuvre,49.5256,5.9406
L-4470,Soleuvre,49.5256,5.9406
L-4475,Belvaux,49.5128,5.9294
L-4476,Belvaux,49.5128,5.9294
L-4477,Belvaux,49.5128,5.9294
L-4478,Belvaux,49.5128,5.9294
L-4479,Soleuvre,49.5256,5.9406
L-4480,Belvaux,49.5128,5.9294
L-4481,Belvaux,49.5128,5.9294
L-4482,Belvaux,49.5128,5.9294
L-4483,Soleuvre,49.5256,5.9406
L-4484,Soleuvre,49.5256,5.9406
L-4485,Soleuvre,49.5256,5.9406
L-4486,Soleuvre,49.5256,5.9406
L-4487,Belvaux,49.5128,5.9294
L-4488,Belvaux,49.5128,5.9294
L-4489,Belvaux,49.5128,5.9294
L-4490,Belvaux,49.5128,5.9294
L-4491,Belvaux,49.5128,5.9294
L-4492,Soleuvre,49.5256,5.9406
L-4493,Soleuvre,49.5256,5.9406
L-4499,Limpach,49.5589,5.9806
L-4501,Differdange,49.5242,5.8914
L-4502,Differdange,49.5242,5.8914
L-4503,Differdange,49.5242,5.8914
L-4504,Oberkorn,49.5136,5.8961
L-4505,Differdange,49.5242,5.8914
L-4506,Differdange,49.5242,5.8914
L-4507,Differdange,49.5242,5.8914
L-4508,Differdange,49.5242,5.8914
L-4509,Differdange,49.5242,5.8914
L-4510,Differdange,49.5242,5.8914
L-4511,Differdange,49.5242,5.8914
L-4512,Differdange,49.5242,5.8914
L-4513,Differdange,49.5242,5.8914
L-4514,Differdange,49.5242,5.8914
L-4515,Differdange,49.5242,5.8914
L-4516,Differdange,49.5242,5.8914
L-4517,Differdange,49.5242,5.8914
L-4518,Differdange,49.5242,5.8914
L-4519,Differdange,49.5242,5.8914
L-4520,Differdange,49.5242,5.8914
L-4521,Soleuvre,49.5256,5.9406
L-4523,Differdange,49.5242,5.8914
L-4524,Differdange,49.5242,5.8914
L-4525,Differdange,49.5242,5.8914
L-4526,Differdange,49.5242,5.8914
L-4527,Differdange,49.5242,5.8914
L-4528,Differdange,49.5242,5.8914
L-4529,Differdange,49.5242,5.8914
L-4530,Differdange,49.5242,5.8914
L-4531,Differdange,49.5242,5.8914
L-4532,Differdange,49.5242,5.8914
L-4533,Differdange,49.5242,5.8914
L-4534,Differdange,49.5242,5.8914
L-4535,Differdange,49.5242,5.8914
L-4536,Differdange,49.5242,5.8914
L-4537,Differdange,49.5242,5.8914
L-4538,Differdange,49.5242,5.8914
L-4539,Differdange,49.5242,5.8914
L-4540,Differdange,49.5242,5.8914
L-4541,Differdange,49.5242,5.8914
L-4545,Differdange,49.5242,5.8914
L-4550,Differdange,49.5242,5.8914
L-4551,Differdange,49.5242,5.8914
L-4552,Differdange,49.5242,5.8914
L-4553,Differdange,49.5242,5.8914
L-4554,Differdange,49.5242,5.8914
L-4555,Differdange,49.5242,5.8914
L-4556,Differdange,49.5242,5.8914
L-4557,Differdange,49.5242,5.8914
L-4558,Differdange,49.5242,5.8914
L-4559,Differdange,49.5242,5.8914
L-4560,Differdange,49.5242,5.8914
L-4561,Differdange,49.5242,5.8914
L-4562,Differdange,49.5242,5.8914
L-4569,Differdange,49.5242,5.8914
L-4570,Differdange,49.5242,5.8914
L-4571,Differdange,49.5242,5.8914
L-4572,Differdange,49.5242,5.8914
L-4573,Differdange,49.5242,5.8914
L-4574,Differdange,49.5242,5.8914
L-4575,Differdange,49.5242,5.8914
L-4576,Differdange,49.5242,5.8914
L-4577,Differdange,49.5242,5.8914
L-4578,Differdange,49.5242,5.8914
L-4579,Differdange,49.5242,5.8914
L-4580,Differdange,49.5242,5.8914
L-4581,Differdange,49.5242,5.8914
L-4582,Differdange,49.5242,5.8914
L-4583,Differdange,49.5242,5.8914
L-4590,Differdange,49.5242,5.8914
L-4591,Differdange,49.5242,5.8914
L-4592,Differdange,49.5242,5.8914
L-4593,Differdange,49.5242,5.8914
L-4594,Differdange,49.5242,5.8914
L-4595,Differdange,49.5242,5.8914
L-4596,Differdange,49.5242,5.8914
L-4597,Differdange,49.5242,5.8914
L-4598,Differdange,49.5242,5.8914
L-4599,Differdange,49.5242,5.8914
L-4601,Differdange,49.5242,5.8914
L-4602,Differdange,49.5242,5.8914
L-4603,Differdange,49.5242,5.8914
L-4604,Differdange,49.5242,5.8914
L-4605,Differdange,49.5242,5.8914
L-4606,Differdange,49.5242,5.8914
L-4607,Differdange,49.5242,5.8914
L-4608,Differdange,49.5242,5.8914
L-4609,Differdange,49.5242,5.8914
L-4610,Differdange,49.5242,5.8914
L-4611,Differdange,49.5242,5.8914
L-4612,Differdange,49.5242,5.8914
L-4620,Differdange,49.5242,5.8914
L-4621,Differdange,49.5242,5.8914
L-4622,Differdange,49.5242,5.8914
L-4623,Differdange,49.5242,5.8914
L-4624,Differdange,49.5242,5.8914
L-4625,Differdange,49.5242,5.8914
L-4626,Differdange,49.5242,5.8914
L-4627,Differdange,49.5242,5.8914
L-4628,Differdange,49.5242,5.8914
L-4629,Differdange,49.5242,5.8914
L-4630,Differdange,49.5242,5.8914
L-4631,Differdange,49.5242,5.8914
L-4632,Differdange,49.5242,5.8914
L-4633,Differdange,49.5242,5.8914
L-4634,Differdange,49.5242,5.8914
L-4635,Differdange,49.5242,5.8914
L-4636,Differdange,49.5242,5.8914
L-4640,Differdange,49.5242,5.8914
L-4641,Differdange,49.5242,5.8914
L-4642,Differdange,49.5242,5.8914
L-4643,Differdange,49.5242,5.8914
L-4644,Differdange,49.5242,5.8914
L-4645,Differdange,49.5242,5.8914
L-4646,Differdange,49.5242,5.8914
L-4647,Differdange,49.5242,5.8914
L-4648,Differdange,49.5242,5.8914
L-4649,Differdange,49.5242,5.8914
L-4650,Differdange,49.5242,5.8914
L-4651,Differdange,49.5242,5.8914
L-4656,Differdange,49.5242,5.8914
L-4657,Differdange,49.5242,5.8914
L-4658,Differdange,49.5242,5.8914
L-4659,Differdange,49.5242,5.8914
L-4660,Differdange,49.5242,5.8914
L-4661,Differdange,49.5242,5.8914
L-4662,Differdange,49.5242,5.8914
L-4663,Differdange,49.5242,5.8914
L-4664,Differdange,49.5242,5.8914
L-4665,Differdange,49.5242,5.8914
L-4666,Differdange,49.5242,5.8914
L-4667,Differdange,49.5242,5.8914
L-4668,Differdange,49.5242,5.8914
L-4669,Differdange,49.5242,5.8914
L-4670,Differdange,49.5242,5.8914
L-4671,Differdange,49.5242,5.8914
L-4672,Differdange,49.5242,5.8914
L-4676,Differdange,49.5242,5.8914
L-4677,Differdange,49.5242,5.8914
L-4678,Differdange,49.5242,5.8914
L-4679,Differdange,49.5242,5.8914
L-4680,Differdange,49.5242,5.8914
L-4681,Differdange,49.5242,5.8914
L-4682,Differdange,49.5242,5.8914
L-4683,Differdange,49.5242,5.8914
L-4684,Differdange,49.5242,5.8914
L-4685,Differdange,49.5242,5.8914
L-4686,Differdange,49.5242,5.8914
L-4687,Differdange,49.5242,5.8914
L-4688,Differdange,49.5242,5.8914
L-4689,Differdange,49.5242,5.8914
L-4690,Differdange,49.5242,5.8914
L-4691,Differdange,49.5242,5.8914
L-4692,Differdange,49.5242,5.8914
L-4693,Differdange,49.5242,5.8914
L-4696,Lasauvage,49.525,5.8375
L-4697,Lasauvage,49.525,5.8375
L-4698,Lasauvage,49.525,5.8375
L-4701,Petange,49.5583,5.8806
L-4702,Petange,49.5583,5.8806
L-4707,Petange,49.5583,5.8806
L-4708,Petange,49.5583,5.8806
L-4709,Petange,49.5583,5.8806
L-4710,Petange,49.5583,5.8806
L-4711,Petange,49.5583,5.8806
L-4712,Petange,49.5583,5.8806
L-4713,Petange,49.5583,5.8806
L-4714,Petange,49.5583,5.8806
L-4715,Petange,49.5583,5.8806
L-4716,Petange,49.5583,5.8806
L-4717,Petange,49.5583,5.8806
L-4718,Petange,49.5583,5.8806
L-4719,Petange,49.5583,5.8806
L-4720,Petange,49.5583,5.8806
L-4721,Petange,49.5583,5.8806
L-4722,Petange,49.5583,5.8806
L-4730,Petange,49.5583,5.8806
L-4731,Petange,49.5583,5.8806
L-4732,Petange,49.5583,5.8806
L-4733,Petange,49.5583,5.8806
L-4734,Petange,49.5583,5.8806
L-4735,Petange,49.5583,5.8806
L-4736,Petange,49.5583,5.8806
L-4737,Petange,49.5583,5.8806
L-4738,Petange,49.5583,5.8806
L-4739,Petange,49.5583,5.8806
L-4740,Petange,49.5583,5.8806
L-4741,Petange,49.5583,5.8806
L-4742,Petange,49.5583,5.8806
L-4743,Petange,49.5583,5.8806
L-4744,Lamadelaine,49.5464,5.8564
L-4745,Petange,49.5583,5.8806
L-4750,Petange,49.5583,5.8806
L-4751,Petange,49.5583,5.8806
L-4752,Petange,49.5583,5.8806
L-4753,Petange,49.5583,5.8806
L-4754,Petange,49.5583,5.8806
L-4755,Petange,49.5583,5.8806
L-4756,Petange,49.5583,5.8806
L-4757,Petange,49.5583,5.8806
L-4758,Petange,49.5583,5.8806
L-4759,Petange,49.5583,5.8806
L-4760,Petange,49.5583,5.8806
L-4761,Petange,49.5583,5.8806
L-4762,Petange,49.5583,5.8806
L-4763,Petange,49.5583,5.8806
L-4770,Petange,49.5583,5.8806
L-4771,Petange,49.5583,5.8806
L-4772,Petange,49.5583,5.8806
L-4773,Petange,49.5583,5.8806
L-4774,Petange,49.5583,5.8806
L-4775,Petange,49.5583,5.8806
L-4776,Petange,49.5583,5.8806
L-4777,Petange,49.5583,5.8806
L-4778,Petange,49.5583,5.8806
L-4779,Petange,49.5583,5.8806
L-4780,Petange,49.5583,5.8806
L-4781,Petange,49.5583,5.8806
L-4782,Petange,49.5583,5.8806
L-4783,Petange,49.5583,5.8806
L-4784,Petange,49.5583,5.8806
L-4785,Petange,49.5583,5.8806
L-4786,Petange,49.5583,5.8806
L-4795,Linger,49.5658,5.8867
L-4796,Linger,49.5658,5.8867
L-4797,Linger,49.5658,5.8867
L-4798,Linger,49.5658,5.8867
L-4801,Rodange,49.5464,5.8408
L-4802,Rodange,49.5464,5.8408
L-4804,Rodange,49.5464,5.8408
L-4805,Rodange,49.5464,5.8408
L-4806,Rodange,49.5464,5.8408
L-4807,Rodange,49.5464,5.8408
L-4808,Rodange,49.5464,5.8408
L-4809,Rodange,49.5464,5.8408
L-4810,Rodange,49.5464,5.8408
L-4811,Rodange,49.5464,5.8408
L-4812,Rodange,49.5464,5.8408
L-4813,Rodange,49.5464,5.8408
L-4814,Rodange,49.5464,5.8408
L-4815,Rodange,49.5464,5.8408
L-4818,Rodange,49.5464,5.8408
L-4819,Rodange,49.5464,5.8408
L-4820,Rodange,49.5464,5.8408
L-4822,Rodange,49.5464,5.8408
L-4823,Rodange,49.5464,5.8408
L-4824,Rodange,49.5464,5.8408
L-4825,Rodange,49.5464,5.8408
L-4826,Rodange,49.5464,5.8408
L-4829,Rodange,49.5464,5.8408
L-4830,Rodange,49.5464,5.8408
L-4831,Rodange,49.5464,5.8408
L-4832,Rodange,49.5464,5.8408
L-4833,Rodange,49.5464,5.8408
L-4837,Rodange,49.5464,5.8408
L-4838,Rodange,49.5464,5.8408
L-4839,Rodange,49.5464,5.8408
L-4842,Rodange,49.5464,5.8408
L-4843,Rodange,49.5464,5.8408
L-4844,Rodange,49.5464,5.8408
L-4845,Rodange,49.5464,5.8408
L-4846,Rodange,49.5464,5.8408
L-4847,Rodange,49.5464,5.8408
L-4849,Rodange,49.5464,5.8408
L-4850,Rodange,49.5464,5.8408
L-4853,Rodange,49.5464,5.8408
L-4870,Lamadelaine,49.5464,5.8564
L-4871,Lamadelaine,49.5464,5.8564
L-4872,Lamadelaine,49.5464,5.8564
L-4873,Lamadelaine,49.5464,5.8564
L-4874,Lamadelaine,49.5464,5.8564
L-4875,Lamadelaine,49.5464,5.8564
L-4876,Lamadelaine,49.5464,5.8564
L-4877,Lamadelaine,49.5464,5.8564
L-4878,Lamadelaine,49.5464,5.8564
L-4879,Lamadelaine,49.5464,5.8564
L-4880,Lamadelaine,49.5464,5.8564
L-4881,Lamadelaine,49.5464,5.8564
L-4882,Lamadelaine,49.5464,5.8564
L-4883,Lamadelaine,49.5464,5.8564
L-4884,Lamadelaine,49.5464,5.8564
L-4885,Lamadelaine,49.5464,5.8564
L-4886,Lamadelaine,49.5464,5.8564
L-4887,Lamadelaine,49.5464,5.8564
L-4888,Lamadelaine,49.5464,5.8564
L-4901,Bascharage,49.5675,5.9103
L-4902,Bascharage,49.5675,5.9103
L-4906,Dippach,49.5883,5.9833
L-4907,Bascharage,49.5675,5.9103
L-4908,Bascharage,49.5675,5.9103
L-4909,Bascharage,49.5675,5.9103
L-4910,Hautcharage,49.5775,5.9108
L-4911,Bascharage,49.5675,5.9103
L-4912,Bascharage,49.5675,5.9103
L-4913,Hautcharage,49.5775,5.9108
L-4914,Bascharage,49.5675,5.9103
L-4915,Hautcharage,49.5775,5.9108
L-4916,Bascharage,49.5675,5.9103
L-4917,Bascharage,49.5675,5.9103
L-4918,Bascharage,49.5675,5.9103
L-4919,Bascharage,49.5675,5.9103
L-4920,Bascharage,49.5675,5.9103
L-4921,Hautcharage,49.5775,5.9108
L-4922,Bascharage,49.5675,5.9103
L-4923,Hautcharage,49.5775,5.9108
L-4924,Hautcharage,49.5775,5.9108
L-4925,Bascharage,49.5675,5.9103
L-4926,Bascharage,49.5675,5.9103
L-4927,Hautcharage,49.5775,5.9108
L-4928,Bascharage,49.5675,5.9103
L-4929,Hautcharage,49.5775,5.9108
L-4930,Bascharage,49.5675,5.9103
L-4931,Hautcharage,49.5775,5.9108
L-4932,Hautcharage,49.5775,5.9108
L-4933,Bascharage,49.5675,5.9103
L-4934,Hautcharage,49.5775,5.9108
L-4935,Hautcharage,49.5775,5.9108
L-4936,Bascharage,49.5675,5.9103
L-4937,Hautcharage,49.5775,5.9108
L-4938,Bascharage,49.5675,5.9103
L-4939,Bascharage,49.5675,5.9103
L-4940,Bascharage,49.573,5.9234
L-4941,Bascharage,49.5675,5.9103
L-4942,Bascharage,49.5675,5.9103
L-4943,Hautcharage,49.5775,5.9108
L-4944,Bascharage,49.5675,5.9103
L-4945,Bascharage,49.5675,5.9103
L-4946,Bascharage,49.5675,5.9103
L-4947,Bascharage,49.5675,5.9103
L-4948,Bascharage,49.5675,5.9103
L-4949,Hautcharage,49.5775,5.9108
L-4950,Bascharage,49.5646,5.9053
L-4951,Bascharage,49.5675,5.9103
L-4952,Bascharage,49.5675,5.9103
L-4953,Hautcharage,49.5775,5.9108
L-4954,Bascharage,49.5675,5.9103
L-4955,Bascharage,49.5675,5.9103
L-4956,Hautcharage,49.5775,5.9108
L-4959,Bascharage,49.5675,5.9103
L-4960,Clemency,49.5967,5.8758
L-4961,Clemency,49.5967,5.8758
L-4962,Clemency,49.5967,5.8758
L-4963,Clemency,49.5967,5.8758
L-4964,Clemency,49.5967,5.8758
L-4965,Clemency,49.5967,5.8758
L-4966,Clemency,49.5967,5.8758
L-4967,Clemency,49.5967,5.8758
L-4970,Bettange-Sur-Mess,49.5758,5.9839
L-4971,Bettange-Sur-Mess,49.5758,5.9839
L-4972,Dippach,49.5883,5.9833
L-4973,Dippach,49.5883,5.9833
L-4974,Dippach,49.5883,5.9833
L-4975,Bettange-Sur-Mess,49.5758,5.9839
L-4976,Bettange-Sur-Mess,49.5758,5.9839
L-4978,Fingig,49.6036,5.9008
L-4979,Fingig,49.6036,5.9008
L-4980,Reckange-Sur-Mess,49.5625,6.0089
L-4981,Reckange-Sur-Mess,49.5625,6.0089
L-4982,Reckange-Sur-Mess,49.5625,6.0089
L-4984,Sanem,49.5481,5.9289
L-4985,Sanem,49.5481,5.9289
L-4986,Sanem,49.5481,5.9289
L-4987,Sanem,49.5481,5.9289
L-4988,Sanem,49.5481,5.9289
L-4989,Sanem,49.5481,5.9289
L-4990,Sanem,49.5481,5.9289
L-4991,Sanem,49.5481,5.9289
L-4992,Sanem,49.5481,5.9289
L-4993,Sanem,49.5481,5.9289
L-4994,Sprinkange,49.5825,5.9564
L-4995,Schouweiler,49.5825,5.9564
L-4996,Schouweiler,49.5825,5.9564
L-4997,Schouweiler,49.5825,5.9564
L-4998,Schouweiler,49.5825,5.9564
L-4999,Sprinkange,49.5825,5.9564
L-5201,Sandweiler,49.6133,6.2189
L-5211,Sandweiler,49.6133,6.2189
L-5212,Sandweiler,49.6133,6.2189
L-5213,Sandweiler,49.6133,6.2189
L-5214,Sandweiler,49.6133,6.2189
L-5215,Sandweiler,49.6133,6.2189
L-5216,Sandweiler,49.6133,6.2189
L-5217,Sandweiler,49.6133,6.2189
L-5218,Sandweiler,49.6133,6.2189
L-5219,Sandweiler,49.6133,6.2189
L-5220,Sandweiler,49.6133,6.2189
L-5221,Sandweiler,49.6133,6.2189
L-5222,Sandweiler,49.6133,6.2189
L-5230,Sandweiler,49.6133,6.2189
L-5231,Sandweiler,49.6133,6.2189
L-5232,Sandweiler,49.6133,6.2189
L-5233,Sandweiler,49.6133,6.2189
L-5234,Sandweiler,49.6133,6.2189
L-5235,Sandweiler,49.6133,6.2189
L-5236,Sandweiler,49.6133,6.2189
L-5237,Sandweiler,49.6133,6.2189
L-5238,Sandweiler,49.6133,6.2189
L-5239,Sandweiler,49.6133,6.2189
L-5240,Sandweiler,49.6133,6.2189
L-5241,Sandweiler,49.6133,6.2189
L-5243,Sandweiler,49.6133,6.2189
L-5250,Sandweiler,49.6133,6.2189
L-5251,Sandweiler,49.6133,6.2189
L-5252,Sandweiler,49.6133,6.2189
L-5253,Sandweiler,49.6133,6.2189
L-5254,Sandweiler,49.6133,6.2189
L-5255,Sandweiler,49.6133,6.2189
L-5256,Sandweiler,49.6133,6.2189
L-5280,Itzig,49.5842,6.1736
L-5290,Sandweiler,49.6133,6.2189
L-5299,Schrassig,49.6058,6.2589
L-5310,Contern,49.5819,6.2267
L-5312,Contern,49.5819,6.2267
L-5314,Contern,49.5819,6.2267
L-5316,Contern,49.5819,6.2267
L-5318,Contern,49.5819,6.2267
L-5320,Contern,49.5819,6.2267
L-5322,Contern,49.5819,6.2267
L-5324,Oetrange,49.5964,6.26
L-5326,Contern,49.5819,6.2267
L-5328,Contern,49.5819,6.2267
L-5330,Moutfort,49.5853,6.2556
L-5331,Moutfort,49.5853,6.2556
L-5332,Moutfort,49.5853,6.2556
L-5333,Moutfort,49.5853,6.2556
L-5334,Moutfort,49.5853,6.2556
L-5335,Moutfort,49.5853,6.2556
L-5336,Moutfort,49.5853,6.2556
L-5337,Moutfort,49.5853,6.2556
L-5339,Moutfort,49.5853,6.2556
L-5341,Moutfort,49.5853,6.2556
L-5351,Oetrange,49.5964,6.26
L-5352,Oetrange,49.5964,6.26
L-5353,Oetrange,49.5964,6.26
L-5355,Oetrange,49.5964,6.26
L-5360,Schrassig,49.6058,6.2589
L-5361,Schrassig,49.6058,6.2589
L-5362,Schrassig,49.6058,6.2589
L-5363,Schrassig,49.6058,6.2589
L-5364,Schrassig,49.6058,6.2589
L-5365,Munsbach,49.6292,6.2675
L-5366,Munsbach,49.6292,6.2675
L-5367,Schuttrange,49.6206,6.2686
L-5368,Schuttrange,49.6206,6.2686
L-5369,Schuttrange,49.6206,6.2686
L-5370,Schuttrange,49.6206,6.2686
L-5371,Schuttrange,49.6206,6.2686
L-5372,Schuttrange,49.6206,6.2686
L-5373,Schuttrange,49.6206,6.2686
L-5374,Munsbach,49.6292,6.2675
L-5376,Uebersyren,49.6286,6.2781
L-5377,Uebersyren,49.6286,6.2781
L-5378,Uebersyren,49.6286,6.2781
L-5380,Uebersyren,49.6286,6.2781
L-5401,Ahn,49.6244,6.4217
L-5402,Assel,49.5528,6.3158
L-5403,Bech-Kleinmacher,49.5308,6.355
L-5404,Bech-Kleinmacher,49.5308,6.355
L-5405,Bech-Kleinmacher,49.5308,6.355
L-5407,Bous,49.5539,6.3292
L-5408,Bous,49.5539,6.3292
L-5410,Beyren,49.6264,6.3369
L-5411,Canach,49.6069,6.3258
L-5412,Canach,49.6069,6.3258
L-5413,Canach,49.6069,6.3258
L-5414,Canach,49.6069,6.3258
L-5415,Canach,49.6069,6.3258
L-5416,Ehnen,49.5997,6.3878
L-5417,Ehnen,49.5997,6.3878
L-5418,Ehnen,49.5997,6.3878
L-5419,Ehnen,49.5997,6.3878
L-5421,Erpeldange (Bous),49.5444,6.3275
L-5422,Remich,49.545,6.3669
L-5423,Ersange,49.5744,6.2756
L-5424,Gostingen,49.6192,6.3544
L-5425,Gostingen,49.6192,6.3544
L-5426,Greiveldange,49.5839,6.3592
L-5427,Greiveldange,49.5839,6.3592
L-5429,Stadtbredimus,49.5628,6.3644
L-5430,Lenningen,49.5986,6.3681
L-5431,Lenningen,49.5986,6.3681
L-5432,Kapenacker,49.6344,6.3558
L-5433,Niederdonven,49.6314,6.4036
L-5434,Niederdonven,49.6314,6.4036
L-5435,Oberdonven,49.6467,6.4006
L-5439,Remerschen,49.4886,6.3517
L-5440,Remerschen,49.4886,6.3517
L-5441,Remerschen,49.4886,6.3517
L-5442,Roedt,49.5678,6.285
L-5443,Rolling,49.5489,6.3172
L-5444,Schengen,49.4717,6.3658
L-5445,Remerschen,49.4886,6.3517
L-5447,Schwebsingen,49.5117,6.3569
L-5450,Stadtbredimus,49.5656,6.3642
L-5451,Stadtbredimus,49.5628,6.3644
L-5460,Trintange,49.5708,6.2806
L-5465,Waldbredimus,49.555,6.2875
L-5470,Wellenstein,49.5239,6.3422
L-5471,Wellenstein,49.5239,6.3422
L-5480,Wormeldange,49.6083,6.4058
L-5481,Wormeldange,49.6083,6.4058
L-5482,Wormeldange,49.6083,6.4058
L-5483,Wormeldange,49.6083,6.4058
L-5485,Wormeldange-Haut,49.6062,6.4013
L-5488,Ehnen,49.5997,6.3878
L-5489,Ehnen,49.5997,6.3878
L-5495,Wintrange,49.5014,6.3528
L-5499,Dreiborn,49.6172,6.3939
L-5501,Remich,49.545,6.3669
L-5505,Canach,49.6069,6.3258
L-5506,Remerschen,49.4886,6.3517
L-5507,Wormeldange,49.6083,6.4058
L-5511,Remich,49.545,6.3669
L-5512,Remich,49.545,6.3669
L-5513,Remich,49.545,6.3669
L-5514,Remich,49.545,6.3669
L-5515,Remich,49.545,6.3669
L-5516,Remich,49.545,6.3669
L-5517,Remich,49.545,6.3669
L-5518,Remich,49.545,6.3669
L-5519,Remich,49.545,6.3669
L-5520,Remich,49.545,6.3669
L-5521,Remich,49.545,6.3669
L-5522,Remich,49.545,6.3669
L-5530,Remich,49.545,6.3669
L-5531,Remich,49.5478,6.3589
L-5532,Remich,49.545,6.3669
L-5533,Remich,49.5451,6.3705
L-5534,Remich,49.545,6.3669
L-5535,Remich,49.545,6.3669
L-5536,Remich,49.545,6.3669
L-5537,Remich,49.545,6.3669
L-5538,Remich,49.545,6.3669
L-5539,Remich,49.545,6.3669
L-5540,Remich,49.545,6.3669
L-5544,Remich,49.545,6.3669
L-5548,Remich,49.545,6.3669
L-5549,Remich,49.545,6.3669
L-5550,Remich,49.545,6.3669
L-5551,Remich,49.545,6.3669
L-5552,Remich,49.545,6.3669
L-5553,Remich,49.545,6.3669
L-5554,Remich,49.545,6.3669
L-5555,Remich,49.545,6.3669
L-5556,Remich,49.545,6.3669
L-5557,Remich,49.545,6.3669
L-5558,Remich,49.545,6.3669
L-5559,Remich,49.545,6.3669
L-5560,Remich,49.545,6.3669
L-5561,Remich,49.545,6.3669
L-5570,Remich,49.545,6.3669
L-5571,Remich,49.545,6.3669
L-5572,Remich,49.545,6.3669
L-5573,Remich,49.545,6.3669
L-5574,Remich,49.545,6.3669
L-5575,Remich,49.545,6.3669
L-5576,Remich,49.545,6.3669
L-5577,Remich,49.545,6.3669
L-5601,Mondorf-Les-Bains,49.5041,6.279
L-5602,Mondorf-Les-Bains,49.505,6.2811
L-5605,Dalheim,49.5408,6.2597
L-5610,Mondorf-Les-Bains,49.505,6.2811
L-5611,Mondorf-Les-Bains,49.505,6.2811
L-5612,Mondorf-Les-Bains,49.504,6.2765
L-5613,Mondorf-Les-Bains,49.505,6.2811
L-5614,Mondorf-Les-Bains,49.505,6.2811
L-5615,Mondorf-Les-Bains,49.505,6.2811
L-5616,Mondorf-Les-Bains,49.505,6.2811
L-5617,Mondorf-Les-Bains,49.505,6.2811
L-5618,Mondorf-Les-Bains,49.505,6.2811
L-5619,Mondorf-Les-Bains,49.505,6.2811
L-5620,Mondorf-Les-Bains,49.505,6.2811
L-5626,Mondorf-Les-Bains,49.505,6.2811
L-5627,Mondorf-Les-Bains,49.505,6.2811
L-5628,Mondorf-Les-Bains,49.505,6.2811
L-5629,Mondorf-Les-Bains,49.505,6.2811
L-5630,Mondorf-Les-Bains,49.505,6.2811
L-5631,Mondorf-Les-Bains,49.505,6.2811
L-5632,Mondorf-Les-Bains,49.505,6.2811
L-5633,Mondorf-Les-Bains,49.505,6.2811
L-5634,Mondorf-Les-Bains,49.505,6.2811
L-5635,Mondorf-Les-Bains,49.505,6.2811
L-5636,Mondorf-Les-Bains,49.505,6.2811
L-5637,Mondorf-Les-Bains,49.505,6.2811
L-5638,Mondorf-Les-Bains,49.505,6.2811
L-5639,Mondorf-Les-Bains,49.505,6.2811
L-5640,Mondorf-Les-Bains,49.505,6.2811
L-5650,Mondorf-Les-Bains,49.505,6.2811
L-5651,Mondorf-Les-Bains,49.505,6.2811
L-5652,Mondorf-Les-Bains,49.505,6.2811
L-5653,Mondorf-Les-Bains,49.505,6.2811
L-5654,Mondorf-Les-Bains,49.505,6.2811
L-5655,Mondorf-Les-Bains,49.505,6.2811
L-5656,Mondorf-Les-Bains,49.505,6.2811
L-5657,Mondorf-Les-Bains,49.505,6.2811
L-5658,Mondorf-Les-Bains,49.505,6.2811
L-5659,Mondorf-Les-Bains,49.505,6.2811
L-5670,Altwies,49.5106,6.2572
L-5671,Altwies,49.5106,6.2572
L-5675,Burmerange,49.4853,6.3231
L-5680,Dalheim,49.5408,6.2597
L-5681,Dalheim,49.5408,6.2597
L-5682,Dalheim,49.5408,6.2597
L-5683,Dalheim,49.5408,6.2597
L-5684,Dalheim,49.5408,6.2597
L-5685,Dalheim,49.5408,6.2597
L-5686,Dalheim,49.5408,6.2597
L-5687,Dalheim,49.5408,6.2597
L-5690,Ellange,49.52,6.2983
L-5691,Ellange,49.52,6.2983
L-5692,Elvange (Burmerange),49.5053,6.3164
L-5693,Elvange (Burmerange),49.5053,6.3164
L-5695,Emerange,49.4869,6.2917
L-5698,Welfrange,49.5381,6.2842
L-5701,Aspelt,49.5228,6.2247
L-5710,Aspelt,49.5228,6.2247
L-5711,Aspelt,49.5228,6.2247
L-5712,Aspelt,49.5228,6.2247
L-5713,Aspelt,49.5228,6.2247
L-5716,Aspelt,49.5228,6.2247
L-5717,Aspelt,49.5228,6.2247
L-5718,Aspelt,49.5228,6.2247
L-5720,Aspelt,49.5228,6.2247
L-5721,Aspelt,49.5228,6.2247
L-5722,Aspelt,49.5228,6.2247
L-5723,Aspelt,49.5228,6.2247
L-5730,Aspelt,49.5228,6.2247
L-5740,Filsdorf,49.5325,6.2483
L-5741,Filsdorf,49.5325,6.2483
L-5750,Frisange,49.515,6.1917
L-5751,Frisange,49.515,6.1917
L-5752,Frisange,49.515,6.1917
L-5753,Frisange,49.515,6.1917
L-5754,Frisange,49.515,6.1917
L-5760,Hassel,49.5486,6.2092
L-5761,Hassel,49.5486,6.2092
L-5762,Hassel,49.5486,6.2092
L-5770,Weiler-La-Tour,49.5408,6.2008
L-5771,Weiler-La-Tour,49.5408,6.2008
L-5772,Weiler-La-Tour,49.5408,6.2008
L-5773,Weiler-La-Tour,49.5408,6.2008
L-5774,Weiler-La-Tour,49.5408,6.2008
L-5775,Weiler-La-Tour,49.5408,6.2008
L-5801,Hesperange,49.5681,6.1514
L-5808,Fentange,49.5628,6.1539
L-5809,Hesperange,49.5681,6.1514
L-5810,Hesperange,49.5681,6.1514
L-5811,Fentange,49.5628,6.1539
L-5812,Hesperange,49.5681,6.1514
L-5813,Fentange,49.5628,6.1539
L-5814,Fentange,49.5628,6.1539
L-5815,Alzingen,49.565,6.1636
L-5816,Hesperange,49.5681,6.1514
L-5817,Fentange,49.5628,6.1539
L-5818,Alzingen,49.565,6.1636
L-5819,Alzingen,49.565,6.1636
L-5820,Fentange,49.5628,6.1539
L-5821,Howald,49.565,6.1552
L-5822,Hesperange,49.5681,6.1514
L-5823,Fentange,49.5628,6.1539
L-5824,Alzingen,49.565,6.1636
L-5825,Fentange,49.5628,6.1539
L-5826,Hesperange,49.5681,6.1514
L-5827,Hesperange,49.5681,6.1514
L-5828,Fentange,49.5628,6.1539
L-5829,Alzingen,49.565,6.1636
L-5830,Alzingen,49.565,6.1636
L-5831,Hesperange,49.5681,6.1514
L-5832,Fentange,49.5628,6.1539
L-5833,Alzingen,49.565,6.1636
L-5834,Hesperange,49.5681,6.1514
L-5835,Alzingen,49.565,6.1636
L-5836,Alzingen,49.565,6.1636
L-5837,Fentange,49.5628,6.1539
L-5838,Fentange,49.5628,6.1539
L-5839,Fentange,49.5628,6.1539
L-5840,Hesperange,49.5681,6.1514
L-5841,Hesperange,49.5681,6.1514
L-5842,Hesperange,49.5681,6.1514
L-5850,Howald,49.5667,6.1538
L-5852,Hesperange,49.5681,6.1514
L-5853,Fentange,49.5628,6.1539
L-5854,Alzingen,49.565,6.1636
L-5855,Hesperange,49.5681,6.1514
L-5856,Hesperange,49.5681,6.1514
L-5859,Hesperange,49.5681,6.1514
L-5860,Hesperange,49.5681,6.1514
L-5861,Fentange,49.5628,6.1539
L-5862,Hesperange,49.5681,6.1514
L-5863,Hesperange,49.5681,6.1514
L-5864,Fentange,49.5628,6.1539
L-5865,Alzingen,49.565,6.1636
L-5866,Hesperange,49.5681,6.1514
L-5867,Fentange,49.5628,6.1539
L-5868,Alzingen,49.565,6.1636
L-5869,Alzingen,49.565,6.1636
L-5870,Alzingen,49.565,6.1636
L-5871,Alzingen,49.565,6.1636
L-5872,Alzingen,49.565,6.1636
L-5873,Alzingen,49.565,6.1636
L-5874,Hesperange,49.5681,6.1514
L-5876,Hesperange,49.5681,6.1514
L-5878,Hesperange,49.5681,6.1514
L-5880,Hesperange,49.5681,6.1514
L-5884,Hesperange,49.5681,6.1514
L-5885,Hesperange,49.5681,6.1514
L-5886,Hesperange,49.5681,6.1514
L-5887,Hesperange,49.5681,6.1514
L-5888,Alzingen,49.565,6.1636
L-5889,Fentange,49.5628,6.1539
L-5890,Alzingen,49.565,6.1636
L-5891,Fentange,49.5628,6.1539
L-5892,Alzingen,49.565,6.1636
L-5893,Hesperange,49.5681,6.1514
L-5898,Syren,49.5619,6.2217
L-5899,Syren,49.5619,6.2217
L-5940,Hesperange,49.5681,6.1514
L-5941,Hesperange,49.5681,6.1514
L-5942,Itzig,49.5842,6.1736
L-5943,Itzig,49.5842,6.1736
L-5950,Itzig,49.5842,6.1736
L-5951,Itzig,49.5842,6.1736
L-5952,Itzig,49.5842,6.1736
L-5953,Itzig,49.5842,6.1736
L-5954,Itzig,49.5842,6.1736
L-5955,Itzig,49.5842,6.1736
L-5956,Itzig,49.5842,6.1736
L-5957,Itzig,49.5842,6.1736
L-5958,Itzig,49.5842,6.1736
L-5959,Itzig,49.5842,6.1736
L-5960,Itzig,49.5842,6.1736
L-5961,Itzig,49.5842,6.1736
L-5962,Itzig,49.5842,6.1736
L-5963,Itzig,49.5842,6.1736
L-5964,Itzig,49.5842,6.1736
L-5969,Itzig,49.5842,6.1736
L-5970,Itzig,49.5842,6.1736
L-5971,Itzig,49.5842,6.1736
L-5972,Itzig,49.5842,6.1736
L-5973,Itzig,49.5842,6.1736
L-5974,Itzig,49.5842,6.1736
L-5975,Itzig,49.5842,6.1736
L-5976,Itzig,49.5842,6.1736
L-5977,Itzig,49.5842,6.1736
L-5978,Itzig,49.5842,6.1736
L-6101,Junglinster,49.7072,6.2531
L-6111,Junglinster,49.7072,6.2531
L-6112,Junglinster,49.7072,6.2531
L-6113,Junglinster,49.7072,6.2531
L-6114,Junglinster,49.7072,6.2531
L-6115,Junglinster,49.7072,6.2531
L-6116,Junglinster,49.7072,6.2531
L-6117,Junglinster,49.7072,6.2531
L-6118,Junglinster,49.7072,6.2531
L-6119,Junglinster,49.7072,6.2531
L-6120,Junglinster,49.7072,6.2531
L-6121,Junglinster,49.7072,6.2531
L-6130,Junglinster,49.7072,6.2531
L-6131,Junglinster,49.7072,6.2531
L-6132,Junglinster,49.7072,6.2531
L-6133,Junglinster,49.7072,6.2531
L-6134,Junglinster,49.7072,6.2531
L-6135,Junglinster,49.7072,6.2531
L-6136,Junglinster,49.7072,6.2531
L-6137,Junglinster,49.7072,6.2531
L-6140,Junglinster,49.7072,6.2531
L-6141,Junglinster,49.7072,6.2531
L-6142,Junglinster,49.7072,6.2531
L-6143,Junglinster,49.7072,6.2531
L-6144,Junglinster,49.7072,6.2531
L-6145,Junglinster,49.7072,6.2531
L-6146,Junglinster,49.7072,6.2531
L-6147,Junglinster,49.7072,6.2531
L-6148,Junglinster,49.7072,6.2531
L-6150,Altlinster,49.7156,6.2167
L-6155,Koedange,49.7283,6.2103
L-6160,Bourglinster,49.6978,6.2197
L-6161,Bourglinster,49.6978,6.2197
L-6162,Bourglinster,49.6978,6.2197
L-6163,Bourglinster,49.6978,6.2197
L-6165,Ernster,49.6756,6.2472
L-6166,Ernster,49.6756,6.2472
L-6169,Eschweiler (Junglinster),49.6904,6.2289
L-6170,Godbrange,49.7289,6.2319
L-6171,Godbrange,49.7289,6.2319
L-6175,Schiltzberg,49.7289,6.2319
L-6180,Gonderange,49.6889,6.2483
L-6181,Gonderange,49.6889,6.2483
L-6182,Gonderange,49.6911,6.2396
L-6183,Gonderange,49.6889,6.2483
L-6184,Gonderange,49.6889,6.2483
L-6185,Gonderange,49.6889,6.2483
L-6186,Gonderange,49.6889,6.2483
L-6187,Gonderange,49.6889,6.2483
L-6188,Gonderange,49.6889,6.2483
L-6189,Gonderange,49.6889,6.2483
L-6195,Imbringen,49.6975,6.1975
L-6196,Eisenborn,49.6867,6.1853
L-6201,Consdorf,49.7731,6.3383
L-6210,Consdorf,49.7731,6.3383
L-6211,Consdorf,49.7807,6.3234
L-6212,Consdorf,49.7731,6.3383
L-6213,Consdorf,49.7731,6.3383
L-6214,Consdorf,49.7731,6.3383
L-6225,Altrier,49.7442,6.3283
L-6230,Bech,49.7461,6.3636
L-6231,Bech,49.7461,6.3636
L-6235,Beidweiler,49.7233,6.3025
L-6238,Breidweiler,49.7708,6.3042
L-6239,Marscherwald,49.7664,6.3038
L-6240,Graulinster,49.7347,6.2872
L-6243,Hemstal,49.7344,6.3361
L-6245,Mullerthal,49.7847,6.3108
L-6246,Rippig,49.7342,6.3194
L-6250,Scheidgen,49.775,6.3606
L-6251,Scheidgen,49.775,6.3606
L-6252,Wolper,49.7578,6.3533
L-6255,Zittig,49.7389,6.345
L-6301,Beaufort,49.8358,6.2917
L-6310,Beaufort,49.8358,6.2917
L-6311,Beaufort,49.8358,6.2917
L-6312,Beaufort,49.8358,6.2917
L-6313,Beaufort,49.8358,6.2917
L-6314,Beaufort,49.8358,6.2917
L-6315,Beaufort,49.8358,6.2917
L-6340,Bigelbach,49.8603,6.2881
L-6350,Dillingen,49.8536,6.3192
L-6360,Grundhof,49.835,6.3314
L-6370,Haller,49.8125,6.2825
L-6380,Beaufort,49.8358,6.2917
L-6401,Echternach,49.8056,6.4222
L-6402,Echternach,49.8056,6.4222
L-6406,Rosport,49.7978,6.5042
L-6408,Echternach,49.8056,6.4222
L-6409,Echternach,49.8056,6.4222
L-6410,Echternach,49.8056,6.4222
L-6411,Echternach,49.8056,6.4222
L-6412,Echternach,49.8056,6.4222
L-6413,Echternach,49.8056,6.4222
L-6414,Echternach,49.8056,6.4222
L-6415,Echternach,49.8056,6.4222
L-6416,Echternach,49.8056,6.4222
L-6417,Echternach,49.8056,6.4222
L-6418,Echternach,49.8056,6.4222
L-6419,Echternach,49.8056,6.4222
L-6420,Echternach,49.8056,6.4222
L-6421,Echternach,49.8056,6.4222
L-6422,Echternach,49.8056,6.4222
L-6423,Echternach,49.8056,6.4222
L-6430,Echternach,49.8056,6.4222
L-6431,Echternach,49.8056,6.4222
L-6432,Echternach,49.8056,6.4222
L-6433,Echternach,49.8056,6.4222
L-6434,Echternach,49.8056,6.4222
L-6435,Echternach,49.8056,6.4222
L-6436,Echternach,49.8056,6.4222
L-6437,Echternach,49.8056,6.4222
L-6438,Echternach,49.8056,6.4222
L-6439,Echternach,49.8056,6.4222
L-6440,Echternach,49.8138,6.4186
L-6441,Echternach,49.8056,6.4222
L-6442,Echternach,49.8056,6.4222
L-6445,Echternach,49.8056,6.4222
L-6446,Echternach,49.8056,6.4222
L-6447,Echternach,49.8056,6.4222
L-6448,Echternach,49.8056,6.4222
L-6449,Echternach,49.8056,6.4222
L-6450,Echternach,49.8056,6.4222
L-6451,Echternach,49.8056,6.4222
L-6452,Echternach,49.8056,6.4222
L-6453,Echternach,49.8056,6.4222
L-6454,Echternach,49.8056,6.4222
L-6455,Echternach,49.8056,6.4222
L-6460,Echternach,49.8128,6.4208
L-6461,Echternach,49.8056,6.4222
L-6462,Echternach,49.8056,6.4222
L-6463,Echternach,49.8056,6.4222
L-6464,Echternach,49.8056,6.4222
L-6465,Echternach,49.8056,6.4222
L-6466,Echternach,49.8056,6.4222
L-6467,Echternach,49.8056,6.4222
L-6468,Echternach,49.8056,6.4222
L-6469,Echternach,49.8056,6.4222
L-6470,Echternach,49.8056,6.4222
L-6471,Echternach,49.8056,6.4222
L-6472,Echternach,49.8056,6.4222
L-6473,Echternach,49.8056,6.4222
L-6474,Echternach,49.8045,6.4053
L-6475,Echternach,49.8056,6.4222
L-6476,Echternach,49.8056,6.4222
L-6477,Echternach,49.8056,6.4222
L-6478,Echternach,49.8056,6.4222
L-6479,Echternach,49.8056,6.4222
L-6480,Echternach,49.8056,6.4222
L-6481,Echternach,49.8056,6.4222
L-6482,Echternach,49.8056,6.4222
L-6483,Echternach,49.8056,6.4222
L-6484,Echternach,49.8056,6.4222
L-6485,Echternach,49.8056,6.4222
L-6486,Echternach,49.8056,6.4222
L-6488,Echternach,49.8056,6.4222
L-6490,Echternach,49.8056,6.4222
L-6491,Echternach,49.8056,6.4222
L-6492,Echternach,49.8056,6.4222
L-6493,Echternach,49.8056,6.4222
L-6494,Echternach,49.8056,6.4222
L-6495,Echternach,49.8056,6.4222
L-6496,Echternach,49.8056,6.4222
L-6497,Echternach,49.8056,6.4222
L-6499,Echternach,49.8056,6.4222
L-6550,Berdorf,49.8136,6.3503
L-6551,Heisbich,49.8136,6.3503
L-6552,Birkelt,49.8136,6.3503
L-6553,Berdorf,49.8136,6.3503
L-6555,Bollendorf-Pont,49.7968,6.422
L-6557,Dickweiler,49.7775,6.4722
L-6558,Girsterklaus,49.7778,6.4994
L-6559,Girst,49.7672,6.4989
L-6560,Hinkel,49.7764,6.5153
L-6562,Berdorf,49.8136,6.3503
L-6570,Osweiler,49.7789,6.4414
L-6571,Osweiler,49.7789,6.4414
L-6572,Echternach,49.8056,6.4222
L-6579,Rosport,49.7978,6.5042
L-6580,Rosport,49.7978,6.5042
L-6581,Rosport,49.7978,6.5042
L-6582,Rosport,49.7978,6.5042
L-6583,Rosport,49.7978,6.5042
L-6585,Steinheim,49.8202,6.474
L-6586,Steinheim,49.8114,6.4783
L-6587,Steinheim,49.8114,6.4783
L-6590,Weilerbach,49.8333,6.3828
L-6601,Wasserbillig,49.71,6.5003
L-6610,Wasserbillig,49.71,6.5003
L-6611,Wasserbillig,49.71,6.5003
L-6612,Wasserbillig,49.71,6.5003
L-6613,Wasserbillig,49.71,6.5003
L-6614,Wasserbillig,49.71,6.5003
L-6615,Wasserbillig,49.71,6.5003
L-6616,Wasserbillig,49.71,6.5003
L-6617,Wasserbillig,49.71,6.5003
L-6618,Wasserbillig,49.71,6.5003
L-6619,Wasserbillig,49.71,6.5003
L-6620,Wasserbillig,49.71,6.5003
L-6630,Wasserbillig,49.71,6.5003
L-6631,Wasserbillig,49.71,6.5003
L-6632,Wasserbillig,49.71,6.5003
L-6633,Wasserbillig,49.71,6.5003
L-6634,Wasserbillig,49.71,6.5003
L-6635,Wasserbillig,49.71,6.5003
L-6636,Wasserbillig,49.71,6.5003
L-6637,Wasserbillig,49.71,6.5003
L-6638,Wasserbillig,49.71,6.5003
L-6645,Wasserbillig,49.71,6.5003
L-6646,Wasserbillig,49.71,6.5003
L-6647,Wasserbillig,49.71,6.5003
L-6648,Wasserbillig,49.71,6.5003
L-6649,Wasserbillig,49.71,6.5003
L-6650,Wasserbillig,49.71,6.5003
L-6651,Wasserbillig,49.71,6.5003
L-6660,Born,49.7542,6.5139
L-6661,Born,49.7542,6.5139
L-6663,Boursdorf,49.7581,6.4786
L-6665,Herborn,49.7417,6.4278
L-6666,Givenich,49.7422,6.48
L-6670,Mertert,49.6961,6.4814
L-6671,Mertert,49.6961,6.4814
L-6672,Mertert,49.6961,6.4814
L-6673,Mertert,49.6961,6.4814
L-6674,Mertert,49.6961,6.4814
L-6675,Mertert,49.6961,6.4814
L-6676,Mertert,49.6961,6.4814
L-6677,Mertert,49.6961,6.4814
L-6680,Mertert,49.6961,6.4814
L-6681,Mertert,49.6961,6.4814
L-6682,Mertert,49.6961,6.4814
L-6683,Mertert,49.6961,6.4814
L-6684,Mertert,49.6961,6.4814
L-6685,Mertert,49.6961,6.4814
L-6686,Mertert,49.6961,6.4814
L-6687,Mertert,49.6961,6.4814
L-6688,Mertert,49.6961,6.4814
L-6689,Mertert,49.6961,6.4814
L-6690,Moersdorf,49.7383,6.5
L-6691,Moersdorf,49.7383,6.5
L-6692,Moersdorf,49.7383,6.5
L-6693,Mertert,49.6961,6.4814
L-6695,Wasserbillig,49.71,6.5003
L-6701,Grevenmacher,49.6747,6.4419
L-6711,Grevenmacher,49.6747,6.4419
L-6712,Grevenmacher,49.6747,6.4419
L-6713,Grevenmacher,49.6747,6.4419
L-6714,Grevenmacher,49.6747,6.4419
L-6715,Grevenmacher,49.6747,6.4419
L-6716,Grevenmacher,49.6747,6.4419
L-6717,Grevenmacher,49.6747,6.4419
L-6718,Grevenmacher,49.6747,6.4419
L-6719,Grevenmacher,49.6747,6.4419
L-6720,Grevenmacher,49.6747,6.4419
L-6721,Grevenmacher,49.6747,6.4419
L-6722,Grevenmacher,49.6747,6.4419
L-6723,Grevenmacher,49.6747,6.4419
L-6724,Grevenmacher,49.6747,6.4419
L-6725,Grevenmacher,49.6747,6.4419
L-6726,Grevenmacher,49.6747,6.4419
L-6730,Grevenmacher,49.6747,6.4419
L-6731,Grevenmacher,49.6747,6.4419
L-6732,Grevenmacher,49.6747,6.4419
L-6733,Grevenmacher,49.6747,6.4419
L-6734,Grevenmacher,49.6747,6.4419
L-6735,Grevenmacher,49.6747,6.4419
L-6736,Grevenmacher,49.6747,6.4419
L-6737,Grevenmacher,49.6747,6.4419
L-6738,Grevenmacher,49.6747,6.4419
L-6739,Grevenmacher,49.6747,6.4419
L-6740,Grevenmacher,49.6747,6.4419
L-6741,Grevenmacher,49.6747,6.4419
L-6742,Grevenmacher,49.6747,6.4419
L-6743,Grevenmacher,49.6747,6.4419
L-6744,Grevenmacher,49.6747,6.4419
L-6745,Grevenmacher,49.6747,6.4419
L-6750,Grevenmacher,49.6747,6.4419
L-6751,Grevenmacher,49.6747,6.4419
L-6752,Grevenmacher,49.6747,6.4419
L-6753,Grevenmacher,49.6747,6.4419
L-6754,Grevenmacher,49.6747,6.4419
L-6755,Grevenmacher,49.6747,6.4419
L-6756,Grevenmacher,49.6747,6.4419
L-6757,Grevenmacher,49.6747,6.4419
L-6758,Grevenmacher,49.6747,6.4419
L-6759,Grevenmacher,49.6747,6.4419
L-6760,Grevenmacher,49.6747,6.4419
L-6761,Grevenmacher,49.6747,6.4419
L-6762,Grevenmacher,49.6747,6.4419
L-6763,Grevenmacher,49.6747,6.4419
L-6764,Grevenmacher,49.6747,6.4419
L-6765,Grevenmacher,49.6747,6.4419
L-6770,Grevenmacher,49.6747,6.4419
L-6771,Grevenmacher,49.6747,6.4419
L-6772,Grevenmacher,49.6747,6.4419
L-6773,Grevenmacher,49.6747,6.4419
L-6774,Grevenmacher,49.6747,6.4419
L-6775,Grevenmacher,49.6747,6.4419
L-6776,Grevenmacher,49.6743,6.414
L-6777,Grevenmacher,49.6747,6.4419
L-6778,Grevenmacher,49.6747,6.4419
L-6779,Grevenmacher,49.6747,6.4419
L-6780,Grevenmacher,49.6747,6.4419
L-6781,Grevenmacher,49.6747,6.4419
L-6782,Grevenmacher,49.6747,6.4419
L-6783,Grevenmacher,49.6747,6.4419
L-6784,Grevenmacher,49.6747,6.4419
L-6785,Grevenmacher,49.6747,6.4419
L-6786,Grevenmacher,49.6747,6.4419
L-6790,Grevenmacher,49.6747,6.4419
L-6791,Grevenmacher,49.6747,6.4419
L-6792,Grevenmacher,49.6747,6.4419
L-6793,Grevenmacher,49.6747,6.4419
L-6794,Grevenmacher,49.6747,6.4419
L-6795,Grevenmacher,49.6747,6.4419
L-6796,Grevenmacher,49.6747,6.4419
L-6815,Grevenmacher,49.6747,6.4419
L-6830,Berbourg,49.7272,6.3939
L-6831,Berbourg,49.7272,6.3939
L-6832,Betzdorf,49.6833,6.35
L-6833,Biwer,49.7028,6.3747
L-6834,Biwer,49.7028,6.3747
L-6835,Boudlerbach,49.7178,6.355
L-6836,Breinert,49.7067,6.3406
L-6837,Brouch (Biwer),49.7236,6.3425
L-6838,Hagelsdorf,49.6878,6.3656
L-6839,Lellig,49.7161,6.4364
L-6840,Machtum,49.6556,6.4344
L-6841,Machtum,49.6556,6.4344
L-6850,Manternach,49.7028,6.4264
L-6851,Manternach,49.7028,6.4264
L-6852,Wecker,49.6914,6.3883
L-6858,Muenschecker,49.6939,6.4422
L-6868,Wecker,49.6914,6.3883
L-6869,Wecker,49.6914,6.3883
L-6870,Wecker,49.6914,6.3883
L-6871,Wecker,49.6914,6.3883
L-6880,Weydig,49.696,6.3962
L-6901,Roodt-Sur-Syre,49.6625,6.3028
L-6905,Niederanven,49.6475,6.26
L-6906,Niederanven,49.6475,6.26
L-6910,Roodt-Sur-Syre,49.6625,6.3028
L-6911,Roodt-Sur-Syre,49.6625,6.3028
L-6912,Roodt-Sur-Syre,49.6625,6.3028
L-6913,Roodt-Sur-Syre,49.6625,6.3028
L-6914,Roodt-Sur-Syre,49.6625,6.3028
L-6915,Roodt-Sur-Syre,49.6625,6.3028
L-6916,Roodt-Sur-Syre,49.6625,6.3028
L-6917,Roodt-Sur-Syre,49.6625,6.3028
L-6918,Mensdorf,49.6508,6.3036
L-6919,Roodt-Sur-Syre,49.6625,6.3028
L-6921,Roodt-Sur-Syre,49.6625,6.3028
L-6922,Berg (Betzdorf),49.6619,6.33
L-6925,Flaxweiler,49.6617,6.3436
L-6926,Flaxweiler,49.6617,6.3436
L-6930,Mensdorf,49.6508,6.3036
L-6931,Mensdorf,49.6508,6.3036
L-6933,Mensdorf,49.6508,6.3036
L-6934,Mensdorf,49.6508,6.3036
L-6940,Niederanven,49.6475,6.26
L-6941,Niederanven,49.6475,6.26
L-6942,Niederanven,49.6475,6.26
L-6943,Niederanven,49.6475,6.26
L-6944,Niederanven,49.6475,6.26
L-6945,Niederanven,49.6475,6.26
L-6946,Niederanven,49.6475,6.26
L-6947,Niederanven,49.6475,6.26
L-6948,Niederanven,49.6475,6.26
L-6950,Olingen,49.6761,6.3156
L-6951,Olingen,49.6761,6.3156
L-6955,Rodenbourg,49.6825,6.2892
L-6960,Senningen,49.6419,6.2394
L-6961,Senningen,49.6419,6.2394
L-6962,Senningen,49.6419,6.2394
L-6969,Oberanven,49.6536,6.2411
L-6970,Oberanven,49.6536,6.2411
L-6971,Hostert (Niederanven),49.6557,6.2364
L-6972,Rameldange,49.6569,6.2336
L-6973,Rameldange,49.6569,6.2336
L-6974,Rameldange,49.6569,6.2336
L-6975,Rameldange,49.6569,6.2336
L-6976,Oberanven,49.6536,6.2411
L-6977,Oberanven,49.6536,6.2411
L-6978,Hostert (Niederanven),49.6557,6.2364
L-6979,Rameldange,49.6569,6.2336
L-6980,Rameldange,49.6569,6.2336
L-6981,Rameldange,49.6569,6.2336
L-6982,Oberanven,49.6536,6.2411
L-6985,Hostert (Niederanven),49.6556,6.2366
L-6986,Oberanven,49.6536,6.2411
L-6987,Rameldange,49.6569,6.2336
L-6988,Hostert (Niederanven),49.6556,6.2366
L-6989,Hostert (Niederanven),49.6556,6.2366
L-6990,Rameldange,49.6569,6.2336
L-6991,Rameldange,49.6569,6.2336
L-6992,Oberanven,49.6536,6.2411
L-6995,Rameldange,49.6569,6.2336
L-6996,Oberanven,49.6536,6.2411
L-6997,Oberanven,49.6536,6.2411
L-6998,Hostert (Niederanven),49.6553,6.2374
L-6999,Oberanven,49.6536,6.2411
L-7201,Walferdange,49.6583,6.1372
L-7205,Lorentzweiler,49.6947,6.1425
L-7206,Steinsel,49.6769,6.1239
L-7209,Walferdange,49.6583,6.1372
L-7210,Helmsange,49.6528,6.1414
L-7211,Helmsange,49.6528,6.1414
L-7212,Bereldange,49.6569,6.1275
L-7213,Bereldange,49.6569,6.1275
L-7214,Bereldange,49.6569,6.1275
L-7215,Bereldange,49.6569,6.1275
L-7216,Bereldange,49.6569,6.1275
L-7217,Bereldange,49.6569,6.1275
L-7218,Helmsange,49.6528,6.1414
L-7219,Helmsange,49.6528,6.1414
L-7220,Helmsange,49.6528,6.1414
L-7221,Bereldange,49.6569,6.1275
L-7222,Walferdange,49.6583,6.1372
L-7223,Bereldange,49.6569,6.1275
L-7224,Walferdange,49.6583,6.1372
L-7225,Bereldange,49.6569,6.1275
L-7226,Walferdange,49.6583,6.1372
L-7227,Bereldange,49.6569,6.1275
L-7228,Helmsange,49.6528,6.1414
L-7229,Helmsange,49.6528,6.1414
L-7230,Helmsange,49.6528,6.1414
L-7231,Helmsange,49.6528,6.1414
L-7232,Bereldange,49.6569,6.1275
L-7233,Bereldange,49.6569,6.1275
L-7234,Helmsange,49.6528,6.1414
L-7235,Bereldange,49.6569,6.1275
L-7236,Bereldange,49.6569,6.1275
L-7237,Helmsange,49.6528,6.1414
L-7238,Walferdange,49.6583,6.1372
L-7239,Bereldange,49.6569,6.1275
L-7240,Bereldange,49.6569,6.1275
L-7241,Bereldange,49.6569,6.1275
L-7242,Helmsange,49.6528,6.1414
L-7243,Bereldange,49.6569,6.1275
L-7244,Bereldange,49.6569,6.1275
L-7245,Bereldange,49.6569,6.1275
L-7246,Helmsange,49.6528,6.1414
L-7247,Helmsange,49.6528,6.1414
L-7248,Bereldange,49.6569,6.1275
L-7249,Bereldange,49.6569,6.1275
L-7250,Helmsange,49.6528,6.1414
L-7251,Helmsange,49.6528,6.1414
L-7252,Bereldange,49.6569,6.1275
L-7253,Walferdange,49.6583,6.1372
L-7254,Bereldange,49.6569,6.1275
L-7255,Helmsange,49.6528,6.1414
L-7256,Walferdange,49.6583,6.1372
L-7257,Walferdange,49.6583,6.1372
L-7258,Helmsange,49.6528,6.1414
L-7259,Bereldange,49.6569,6.1275
L-7260,Bereldange,49.6569,6.1275
L-7261,Helmsange,49.6528,6.1414
L-7262,Helmsange,49.6528,6.1414
L-7263,Helmsange,49.6528,6.1414
L-7268,Bereldange,49.6569,6.1275
L-7269,Walferdange,49.6583,6.1372
L-7270,Helmsange,49.6528,6.1414
L-7274,Walferdange,49.6583,6.1372
L-7302,Steinsel,49.6769,6.1239
L-7303,Steinsel,49.6769,6.1239
L-7304,Heisdorf,49.6784,6.1265
L-7305,Mullendorf,49.6803,6.13
L-7306,Mullendorf,49.6803,6.13
L-7307,Steinsel,49.6769,6.1239
L-7308,Heisdorf,49.6784,6.1265
L-7309,Steinsel,49.6769,6.1239
L-7310,Heisdorf,49.6779,6.1256
L-7311,Heisdorf,49.6779,6.1256
L-7312,Mullendorf,49.6803,6.13
L-7313,Heisdorf,49.6779,6.1256
L-7314,Heisdorf,49.6779,6.1256
L-7315,Steinsel,49.6769,6.1239
L-7316,Steinsel,49.6769,6.1239
L-7317,Mullendorf,49.6803,6.13
L-7318,Heisdorf,49.6779,6.1256
L-7319,Steinsel,49.6769,6.1239
L-7320,Steinsel,49.6769,6.1239
L-7321,Steinsel,49.6769,6.1239
L-7322,Steinsel,49.6769,6.1239
L-7323,Steinsel,49.6769,6.1239
L-7324,Mullendorf,49.6803,6.13
L-7325,Heisdorf,49.6781,6.1259
L-7326,Mullendorf,49.6803,6.13
L-7327,Steinsel,49.6769,6.1239
L-7328,Heisdorf,49.6781,6.1259
L-7329,Heisdorf,49.6781,6.1259
L-7330,Heisdorf,49.6776,6.1251
L-7331,Steinsel,49.6769,6.1239
L-7332,Mullendorf,49.6803,6.13
L-7333,Steinsel,49.6769,6.1239
L-7334,Heisdorf,49.6776,6.1251
L-7335,Heisdorf,49.6776,6.1251
L-7336,Steinsel,49.6769,6.1239
L-7337,Heisdorf,49.6776,6.1251
L-7338,Heisdorf,49.6776,6.1251
L-7339,Steinsel,49.6769,6.1239
L-7340,Heisdorf,49.6769,6.1239
L-7341,Heisdorf,49.6769,6.1239
L-7342,Heisdorf,49.6769,6.1239
L-7343,Steinsel,49.6769,6.1239
L-7344,Steinsel,49.6769,6.1239
L-7345,Heisdorf,49.6769,6.1239
L-7346,Steinsel,49.6769,6.1239
L-7348,Heisdorf,49.6769,6.1239
L-7349,Heisdorf,49.6769,6.1239
L-7350,Lorentzweiler,49.6947,6.1425
L-7351,Helmdange,49.6872,6.1436
L-7352,Helmdange,49.6872,6.1436
L-7353,Lorentzweiler,49.6947,6.1425
L-7354,Helmdange,49.6872,6.1436
L-7355,Helmdange,49.6872,6.1436
L-7356,Lorentzweiler,49.6947,6.1425
L-7357,Helmdange,49.6872,6.1436
L-7358,Lorentzweiler,49.6947,6.1425
L-7359,Lorentzweiler,49.6947,6.1425
L-7360,Helmdange,49.6872,6.1436
L-7361,Lorentzweiler,49.6947,6.1425
L-7362,Bofferdange,49.6831,6.1417
L-7363,Lorentzweiler,49.6947,6.1425
L-7370,Lorentzweiler,49.6947,6.1425
L-7371,Helmdange,49.6872,6.1436
L-7372,Lorentzweiler,49.6947,6.1425
L-7373,Lorentzweiler,49.6947,6.1425
L-7374,Helmdange,49.6872,6.1436
L-7375,Lorentzweiler,49.6947,6.1425
L-7376,Bofferdange,49.6831,6.1417
L-7377,Lorentzweiler,49.6947,6.1425
L-7378,Bofferdange,49.6831,6.1417
L-7379,Lorentzweiler,49.6947,6.1425
L-7380,Lorentzweiler,49.6947,6.1425
L-7381,Bofferdange,49.6831,6.1417
L-7382,Helmdange,49.6872,6.1436
L-7390,Blaschette,49.6972,6.1706
L-7391,Blaschette,49.6972,6.1706
L-7392,Asselscheuer,49.6972,6.1706
L-7395,Hunsdorf,49.6967,6.1317
L-7396,Hunsdorf,49.6967,6.1317
L-7397,Hunsdorf,49.6967,6.1317
L-7409,Beringen,49.7583,6.1169
L-7410,Mersch,49.7489,6.1061
L-7411,Marienthal,49.71,6.0617
L-7412,Bour,49.7014,6.0189
L-7415,Brouch (Boevange-Sur-Attert),49.7283,6.0665
L-7416,Brouch (Boevange-Sur-Attert),49.7283,6.0665
L-7417,Brouch (Boevange-Sur-Attert),49.7283,6.0665
L-7418,Buschdorf,49.7508,6.0083
L-7420,Cruchten,49.7919,6.1328
L-7421,Cruchten,49.7919,6.1328
L-7423,Dondelange,49.7743,6.1013
L-7424,Essingen,49.7789,6.1167
L-7425,Reckange (Mersch),49.7497,6.0831
L-7430,Fischbach,49.7397,6.1872
L-7431,Glabach,49.7354,6.0972
L-7432,Gosseldange,49.7264,6.1169
L-7433,Grevenknapp,49.7625,6.0339
L-7435,Hollenfels,49.7131,6.0508
L-7440,Lintgen,49.7158,6.1336
L-7441,Lintgen,49.7158,6.1336
L-7442,Lintgen,49.7158,6.1336
L-7443,Lintgen,49.7158,6.1336
L-7444,Lintgen,49.7158,6.1336
L-7445,Lintgen,49.7158,6.1336
L-7446,Lintgen,49.7158,6.1336
L-7447,Lintgen,49.7158,6.1336
L-7448,Lintgen,49.7158,6.1336
L-7449,Lintgen,49.7158,6.1336
L-7450,Lintgen,49.7158,6.1336
L-7451,Lintgen,49.7158,6.1336
L-7452,Lintgen,49.7158,6.1336
L-7453,Lintgen,49.7158,6.1336
L-7454,Lintgen,49.7158,6.1336
L-7455,Lintgen,49.7158,6.1336
L-7456,Lintgen,49.7158,6.1336
L-7457,Lintgen,49.7158,6.1336
L-7460,Prettingen,49.7175,6.1203
L-7461,Meysembourg,49.7617,6.1889
L-7462,Moesdorf (Mersch),49.7589,6.142
L-7463,Pettingen,49.7703,6.1092
L-7464,Beringen,49.7583,6.1169
L-7465,Nommern,49.7869,6.1747
L-7470,Saeul,49.7272,5.9864
L-7471,Saeul,49.7272,5.9864
L-7473,Mersch,49.7489,6.1061
L-7475,Schoos,49.7442,6.1708
L-7480,Tuntange,49.7178,6.0103
L-7481,Tuntange,49.7178,6.0103
L-7501,Mersch,49.7489,6.1061
L-7502,Mersch,49.7489,6.1061
L-7505,Lintgen,49.7158,6.1336
L-7506,Saeul,49.7272,5.9864
L-7511,Rollingen,49.7417,6.1144
L-7512,Mersch,49.7489,6.1061
L-7513,Mersch,49.7489,6.1061
L-7514,Mersch,49.7489,6.1061
L-7515,Mersch,49.7489,6.1061
L-7516,Rollingen,49.7417,6.1144
L-7517,Mersch,49.7489,6.1061
L-7518,Rollingen,49.7417,6.1144
L-7519,Mersch,49.7489,6.1061
L-7520,Mersch,49.7489,6.1061
L-7521,Mersch,49.7489,6.1061
L-7522,Mersch,49.7489,6.1061
L-7523,Mersch,49.7489,6.1061
L-7525,Mersch,49.7489,6.1061
L-7526,Mersch,49.7489,6.1061
L-7531,Mersch,49.7489,6.1061
L-7532,Rollingen,49.7417,6.1144
L-7533,Mersch,49.7489,6.1061
L-7534,Mersch,49.7489,6.1061
L-7535,Mersch,49.7489,6.1061
L-7536,Mersch,49.7489,6.1061
L-7537,Rollingen,49.7417,6.1144
L-7539,Rollingen,49.7417,6.1144
L-7540,Berschbach,49.7439,6.115
L-7541,Mersch,49.7489,6.1061
L-7542,Mersch,49.7489,6.1061
L-7543,Berschbach,49.7439,6.115
L-7544,Mersch,49.7489,6.1061
L-7545,Mersch,49.7508,6.1157
L-7546,Rollingen,49.7417,6.1144
L-7553,Mersch,49.7489,6.1061
L-7554,Mersch,49.7489,6.1061
L-7555,Mersch,49.7489,6.1061
L-7556,Mersch,49.7489,6.1061
L-7557,Mersch,49.7489,6.1061
L-7558,Rollingen,49.7417,6.1144
L-7559,Mersch,49.7489,6.1061
L-7560,Mersch,49.7489,6.1061
L-7561,Mersch,49.7489,6.1061
L-7562,Mersch,49.7489,6.1061
L-7563,Mersch,49.7489,6.1061
L-7564,Mersch,49.7489,6.1061
L-7565,Mersch,49.7489,6.1061
L-7566,Mersch,49.7489,6.1061
L-7567,Rollingen,49.7417,6.1144
L-7568,Mersch,49.7489,6.1061
L-7569,Mersch,49.7489,6.1061
L-7570,Mersch,49.7489,6.1061
L-7571,Mersch,49.7489,6.1061
L-7572,Mersch,49.7489,6.1061
L-7590,Beringen,49.7583,6.1169
L-7591,Beringen,49.7583,6.1169
L-7592,Beringen,49.7583,6.1169
L-7593,Beringen,49.7583,6.1169
L-7594,Beringen,49.7583,6.1169
L-7595,Reckange (Mersch),49.7497,6.0831
L-7596,Reckange (Mersch),49.7497,6.0831
L-7597,Reckange (Mersch),49.7497,6.0831
L-7598,Reckange (Mersch),49.7497,6.0831
L-7599,Mersch,49.7489,6.1061
L-7601,Larochette,49.7769,6.2211
L-7610,Larochette,49.7838,6.22
L-7611,Larochette,49.7769,6.2211
L-7612,Larochette,49.7769,6.2211
L-7613,Larochette,49.7769,6.2211
L-7614,Larochette,49.7769,6.2211
L-7615,Larochette,49.7769,6.2211
L-7616,Larochette,49.7769,6.2211
L-7617,Larochette,49.7769,6.2211
L-7618,Larochette,49.7769,6.2211
L-7619,Larochette,49.7856,6.215
L-7620,Larochette,49.7769,6.2211
L-7621,Larochette,49.7769,6.2211
L-7622,Larochette,49.7769,6.2211
L-7623,Larochette,49.7769,6.2211
L-7624,Larochette,49.7769,6.2211
L-7625,Larochette,49.7769,6.2211
L-7626,Larochette,49.7769,6.2211
L-7627,Larochette,49.7769,6.2211
L-7633,Larochette,49.7769,6.2211
L-7634,Medernach,49.8019,6.2183
L-7635,Ernzen,49.7658,6.2219
L-7636,Ernzen,49.7658,6.2219
L-7639,Blumenthal,49.7383,6.2672
L-7640,Christnach,49.7811,6.2736
L-7641,Christnach,49.7899,6.2746
L-7649,Freckeisen,49.7811,6.2736
L-7650,Heffingen,49.7625,6.2414
L-7651,Heffingen,49.7625,6.2414
L-7652,Heffingen,49.7625,6.2414
L-7653,Heffingen,49.7625,6.2414
L-7660,Medernach,49.8019,6.2183
L-7661,Medernach,49.8019,6.2183
L-7662,Medernach,49.8019,6.2183
L-7663,Medernach,49.8019,6.2183
L-7664,Medernach,49.8019,6.2183
L-7670,Reuland,49.7467,6.2603
L-7673,Heffingen,49.7625,6.2414
L-7680,Waldbillig,49.7889,6.2867
L-7681,Waldbillig,49.7889,6.2867
L-7701,Colmar-Berg,49.7875,6.0694
L-7703,Bissen,49.7875,6.0694
L-7710,Colmar-Berg,49.8169,6.0881
L-7711,Colmar-Berg,49.8169,6.0881
L-7712,Colmar-Berg,49.8169,6.0881
L-7713,Colmar-Berg,49.8169,6.0881
L-7714,Colmar-Berg,49.8169,6.0881
L-7715,Colmar-Berg,49.8169,6.0881
L-7716,Colmar-Berg,49.8169,6.0881
L-7720,Colmar-Berg,49.8169,6.0881
L-7721,Colmar-Berg,49.8169,6.0881
L-7722,Colmar-Berg,49.8169,6.0881
L-7723,Welsdorf,49.8169,6.0881
L-7724,Colmar-Berg,49.8169,6.0881
L-7726,Colmar-Berg,49.8169,6.0881
L-7727,Colmar-Berg,49.8169,6.0881
L-7730,Colmar-Berg,49.8306,6.0986
L-7731,Colmar-Berg,49.8306,6.0986
L-7732,Colmar-Berg,49.8306,6.0986
L-7733,Colmar-Berg,49.8306,6.0986
L-7734,Colmar-Berg,49.8306,6.0986
L-7735,Colmar-Berg,49.8306,6.0986
L-7737,Colmar-Berg,49.8306,6.0986
L-7738,Colmar-Berg,49.8306,6.0986
L-7739,Colmar-Berg,49.8306,6.0986
L-7740,Colmar-Berg,49.7924,6.0731
L-7741,Colmar-Berg,49.7924,6.0731
L-7750,Colmar-Berg,49.8152,6.0935
L-7758,Grentzingen,49.8319,6.0931
L-7759,Roost,49.7867,6.0961
L-7760,Bissen,49.7875,6.0694
L-7761,Bissen,49.7875,6.0694
L-7762,Bissen,49.7875,6.0694
L-7763,Bissen,49.7875,6.0694
L-7764,Bissen,49.7875,6.0694
L-7765,Bissen,49.7875,6.0694
L-7766,Bissen,49.7875,6.0694
L-7767,Bissen,49.7875,6.0694
L-7768,Bissen,49.7875,6.0694
L-7769,Bissen,49.7875,6.0694
L-7770,Bissen,49.7875,6.0694
L-7771,Bissen,49.7875,6.0694
L-7772,Bissen,49.7875,6.0694
L-7773,Bissen,49.7875,6.0694
L-7777,Bissen,49.7875,6.0694
L-7778,Bissen,49.7875,6.0694
L-7780,Bissen,49.7875,6.0694
L-7781,Bissen,49.7875,6.0694
L-7782,Bissen,49.7875,6.0694
L-7783,Bissen,49.7875,6.0694
L-7784,Bissen,49.7875,6.0694
L-7785,Bissen,49.7875,6.0694
L-7786,Bissen,49.7875,6.0694
L-7787,Bissen,49.7875,6.0694
L-7788,Bissen,49.7875,6.0694
L-7789,Bissen,49.7875,6.0694
L-7790,Bissen,49.7875,6.0694
L-7791,Bissen,49.7875,6.0694
L-7792,Bissen,49.7875,6.0694
L-7793,Bissen,49.7875,6.0694
L-7794,Bissen,49.7875,6.0694
L-8001,Strassen,49.6206,6.0733
L-8002,Strassen,49.6206,6.0733
L-8005,Bertrange,49.6111,6.05
L-8006,Bertrange,49.6111,6.05
L-8007,Bertrange,49.6111,6.05
L-8008,Strassen,49.6206,6.0733
L-8009,Strassen,49.6206,6.0733
L-8010,Strassen,49.6214,6.0632
L-8011,Strassen,49.6206,6.0733
L-8012,Strassen,49.6206,6.0733
L-8013,Strassen,49.6206,6.0733
L-8014,Strassen,49.6206,6.0733
L-8015,Strassen,49.6206,6.0733
L-8016,Strassen,49.6206,6.0733
L-8017,Strassen,49.6206,6.0733
L-8018,Strassen,49.6206,6.0733
L-8019,Strassen,49.6206,6.0733
L-8020,Strassen,49.6206,6.0733
L-8021,Strassen,49.6206,6.0733
L-8022,Strassen,49.6206,6.0733
L-8023,Strassen,49.6206,6.0733
L-8024,Strassen,49.6206,6.0733
L-8025,Strassen,49.6206,6.0733
L-8026,Strassen,49.6206,6.0733
L-8027,Strassen,49.6206,6.0733
L-8028,Strassen,49.6206,6.0733
L-8029,Strassen,49.6206,6.0733
L-8030,Strassen,49.6206,6.0733
L-8031,Strassen,49.6206,6.0733
L-8032,Strassen,49.6206,6.0733
L-8033,Strassen,49.6206,6.0733
L-8034,Strassen,49.6206,6.0733
L-8035,Strassen,49.6206,6.0733
L-8036,Strassen,49.6206,6.0733
L-8037,Strassen,49.6206,6.0733
L-8038,Strassen,49.6206,6.0733
L-8039,Strassen,49.6206,6.0733
L-8040,Strassen,49.6206,6.0733
L-8041,Bertrange,49.6111,6.05
L-8042,Strassen,49.6206,6.0733
L-8043,Strassen,49.6206,6.0733
L-8044,Strassen,49.6206,6.0733
L-8045,Strassen,49.6206,6.0733
L-8046,Strassen,49.6206,6.0733
L-8047,Strassen,49.6206,6.0733
L-8048,Strassen,49.6206,6.0733
L-8049,Strassen,49.6206,6.0733
L-8050,Bertrange,49.6111,6.05
L-8051,Bertrange,49.6111,6.05
L-8052,Bertrange,49.6111,6.05
L-8053,Bertrange,49.6111,6.05
L-8054,Bertrange,49.6111,6.05
L-8055,Bertrange,49.6111,6.05
L-8056,Bertrange,49.6111,6.05
L-8057,Bertrange,49.6111,6.05
L-8058,Bertrange,49.6111,6.05
L-8059,Bertrange,49.6111,6.05
L-8060,Bertrange,49.6111,6.05
L-8061,Bertrange,49.6111,6.05
L-8062,Bertrange,49.6111,6.05
L-8063,Bertrange,49.6111,6.05
L-8064,Bertrange,49.6111,6.05
L-8065,Bertrange,49.6111,6.05
L-8066,Bertrange,49.6111,6.05
L-8067,Bertrange,49.6111,6.05
L-8068,Bertrange,49.6111,6.05
L-8069,Bertrange,49.6111,6.05
L-8070,Bertrange,49.6111,6.05
L-8071,Bertrange,49.6111,6.05
L-8074,Bertrange,49.6111,6.05
L-8075,Bertrange,49.6111,6.05
L-8077,Bertrange,49.6111,6.05
L-8078,Bertrange,49.6111,6.05
L-8079,Bertrange,49.6111,6.05
L-8080,Bertrange,49.6111,6.05
L-8081,Bertrange,49.6111,6.05
L-8082,Bertrange,49.6111,6.05
L-8083,Bertrange,49.6111,6.05
L-8084,Bertrange,49.6111,6.05
L-8085,Bertrange,49.6111,6.05
L-8086,Bertrange,49.6111,6.05
L-8087,Bertrange,49.6111,6.05
L-8088,Bertrange,49.6111,6.05
L-8089,Bertrange,49.6111,6.05
L-8090,Bertrange,49.6111,6.05
L-8091,Bertrange,49.6111,6.05
L-8092,Bertrange,49.6111,6.05
L-8093,Bertrange,49.6111,6.05
L-8094,Bertrange,49.6111,6.05
L-8095,Bertrange,49.6111,6.05
L-8116,Bridel,49.6583,6.0822
L-8118,Bridel,49.6583,6.0822
L-8119,Bridel,49.6583,6.0822
L-8120,Bridel,49.6583,6.0822
L-8121,Bridel,49.6583,6.0822
L-8123,Bridel,49.6583,6.0822
L-8124,Bridel,49.6583,6.0822
L-8125,Bridel,49.6583,6.0822
L-8126,Bridel,49.6583,6.0822
L-8127,Bridel,49.6583,6.0822
L-8128,Bridel,49.6583,6.0822
L-8129,Bridel,49.6583,6.0822
L-8131,Bridel,49.6583,6.0822
L-8132,Bridel,49.6583,6.0822
L-8133,Bridel,49.6583,6.0822
L-8134,Bridel,49.6583,6.0822
L-8135,Bridel,49.6583,6.0822
L-8137,Bridel,49.6583,6.0822
L-8138,Bridel,49.6583,6.0822
L-8139,Bridel,49.6583,6.0822
L-8140,Bridel,49.6583,6.0822
L-8141,Bridel,49.6583,6.0822
L-8142,Bridel,49.6583,6.0822
L-8145,Bridel,49.6583,6.0822
L-8146,Bridel,49.6583,6.0822
L-8147,Bridel,49.6583,6.0822
L-8149,Bridel,49.6583,6.0822
L-8150,Bridel,49.6583,6.0822
L-8151,Bridel,49.6583,6.0822
L-8152,Bridel,49.6583,6.0822
L-8153,Bridel,49.6583,6.0822
L-8154,Bridel,49.6583,6.0822
L-8156,Bridel,49.6583,6.0822
L-8157,Bridel,49.6583,6.0822
L-8158,Bridel,49.6583,6.0822
L-8159,Bridel,49.6583,6.0822
L-8160,Bridel,49.6583,6.0822
L-8165,Bridel,49.6583,6.0822
L-8179,Kopstal,49.6644,6.0731
L-8180,Kopstal,49.6644,6.0731
L-8181,Kopstal,49.6644,6.0731
L-8182,Kopstal,49.6644,6.0731
L-8183,Kopstal,49.6644,6.0731
L-8184,Kopstal,49.6644,6.0731
L-8185,Kopstal,49.6644,6.0731
L-8186,Kopstal,49.6644,6.0731
L-8187,Kopstal,49.6644,6.0731
L-8188,Kopstal,49.6644,6.0731
L-8189,Kopstal,49.6644,6.0731
L-8190,Kopstal,49.6644,6.0731
L-8191,Kopstal,49.6644,6.0731
L-8201,Mamer,49.6275,6.0233
L-8205,Kehlen,49.6683,6.0358
L-8209,Mamer,49.6275,6.0233
L-8210,Mamer,49.6275,6.0233
L-8211,Mamer,49.6275,6.0233
L-8212,Mamer,49.6275,6.0233
L-8213,Mamer,49.6275,6.0233
L-8214,Mamer,49.6275,6.0233
L-8215,Mamer,49.6275,6.0233
L-8216,Mamer,49.6275,6.0233
L-8217,Mamer,49.6275,6.0233
L-8218,Mamer,49.6275,6.0233
L-8219,Mamer,49.6275,6.0233
L-8220,Mamer,49.6275,6.0233
L-8221,Mamer,49.6275,6.0233
L-8222,Mamer,49.6275,6.0233
L-8223,Mamer,49.6275,6.0233
L-8224,Mamer,49.6275,6.0233
L-8225,Mamer,49.6275,6.0233
L-8226,Mamer,49.6275,6.0233
L-8227,Mamer,49.6275,6.0233
L-8228,Mamer,49.6275,6.0233
L-8229,Mamer,49.6275,6.0233
L-8230,Mamer,49.6275,6.0233
L-8232,Mamer,49.6275,6.0233
L-8233,Mamer,49.6275,6.0233
L-8234,Mamer,49.6275,6.0233
L-8235,Mamer,49.6275,6.0233
L-8236,Mamer,49.6275,6.0233
L-8237,Mamer,49.6275,6.0233
L-8238,Mamer,49.6275,6.0233
L-8239,Mamer,49.6275,6.0233
L-8240,Mamer,49.6275,6.0233
L-8244,Mamer,49.6275,6.0233
L-8245,Mamer,49.6275,6.0233
L-8246,Mamer,49.6275,6.0233
L-8247,Mamer,49.6275,6.0233
L-8248,Mamer,49.6275,6.0233
L-8249,Mamer,49.6275,6.0233
L-8250,Mamer,49.6275,6.0233
L-8251,Mamer,49.6275,6.0233
L-8252,Mamer,49.6275,6.0233
L-8253,Mamer,49.6275,6.0233
L-8254,Mamer,49.6275,6.0233
L-8255,Mamer,49.6275,6.0233
L-8260,Mamer,49.6275,6.0233
L-8261,Mamer,49.6275,6.0233
L-8262,Mamer,49.6275,6.0233
L-8263,Mamer,49.6275,6.0233
L-8264,Mamer,49.6275,6.0233
L-8265,Mamer,49.6275,6.0233
L-8266,Mamer,49.6275,6.0233
L-8267,Mamer,49.6275,6.0233
L-8268,Mamer,49.6275,6.0233
L-8269,Mamer,49.6275,6.0233
L-8270,Mamer,49.6275,6.0233
L-8271,Mamer,49.6275,6.0233
L-8272,Mamer,49.6275,6.0233
L-8273,Mamer,49.6275,6.0233
L-8274,Kehlen,49.6683,6.0358
L-8277,Holzem,49.6164,5.9903
L-8278,Holzem,49.6164,5.9903
L-8279,Holzem,49.6164,5.9903
L-8280,Kehlen,49.6683,6.0358
L-8281,Kehlen,49.6683,6.0358
L-8282,Kehlen,49.6683,6.0358
L-8283,Kehlen,49.6683,6.0358
L-8284,Kehlen,49.6683,6.0358
L-8285,Kehlen,49.6683,6.0358
L-8286,Kehlen,49.6683,6.0358
L-8287,Kehlen,49.6683,6.0358
L-8288,Kehlen,49.6683,6.0358
L-8289,Kehlen,49.6683,6.0358
L-8290,Kehlen,49.6683,6.0358
L-8291,Meispelt,49.6911,6.0592
L-8292,Meispelt,49.6911,6.0592
L-8293,Keispelt,49.6944,6.0694
L-8294,Keispelt,49.6944,6.0694
L-8295,Keispelt,49.6944,6.0694
L-8301,Cap,49.6444,5.9844
L-8302,Cap,49.6444,5.9844
L-8303,Cap,49.6444,5.9844
L-8305,Garnich,49.6167,5.9525
L-8306,Koerich,49.67,5.95
L-8307,Kleinbettingen,49.6464,5.9164
L-8308,Cap,49.6444,5.9844
L-8309,Cap,49.6444,5.9844
L-8310,Cap,49.6444,5.9844
L-8311,Cap,49.6444,5.9844
L-8312,Olm,49.6572,6.0003
L-8313,Cap,49.6444,5.9844
L-8314,Cap,49.6444,5.9844
L-8315,Olm,49.6572,6.0003
L-8316,Olm,49.6572,6.0003
L-8317,Olm,49.6572,6.0003
L-8318,Cap,49.6444,5.9844
L-8319,Olm,49.6572,6.0003
L-8321,Olm,49.6572,6.0003
L-8322,Olm,49.6572,6.0003
L-8323,Olm,49.6572,6.0003
L-8324,Olm,49.6572,6.0003
L-8325,Cap,49.6444,5.9844
L-8326,Cap,49.6444,5.9844
L-8327,Olm,49.6572,6.0003
L-8328,Cap,49.6444,5.9844
L-8329,Cap,49.6444,5.9844
L-8330,Cap,49.6444,5.9844
L-8331,Cap,49.6444,5.9844
L-8332,Olm,49.6572,6.0003
L-8333,Olm,49.6572,6.0003
L-8334,Cap,49.6444,5.9844
L-8335,Cap,49.6444,5.9844
L-8336,Cap,49.6444,5.9844
L-8337,Cap,49.6444,5.9844
L-8338,Olm,49.6572,6.0003
L-8339,Olm,49.6572,6.0003
L-8340,Olm,49.6572,6.0003
L-8341,Olm,49.6572,6.0003
L-8342,Olm,49.6572,6.0003
L-8343,Olm,49.6572,6.0003
L-8344,Olm,49.6572,6.0003
L-8351,Dahlem,49.6022,5.9483
L-8352,Dahlem,49.6022,5.9483
L-8353,Garnich,49.6167,5.9525
L-8354,Garnich,49.6167,5.9525
L-8355,Garnich,49.6167,5.9525
L-8356,Garnich,49.6167,5.9525
L-8357,Goeblange,49.6697,5.9653
L-8358,Goeblange,49.6697,5.9653
L-8359,Goeblange,49.6697,5.9653
L-8360,Goetzingen,49.6603,5.9817
L-8361,Goetzingen,49.6603,5.9817
L-8362,Grass,49.6308,5.8914
L-8363,Leesbach,49.7054,5.9778
L-8365,Hagen,49.6494,5.9317
L-8366,Hagen,49.6494,5.9317
L-8367,Hagen,49.6494,5.9317
L-8368,Hagen,49.6494,5.9317
L-8369,Hivange,49.6072,5.9322
L-8370,Hobscheid,49.6886,5.9147
L-8371,Hobscheid,49.6886,5.9147
L-8372,Hobscheid,49.6886,5.9147
L-8373,Hobscheid,49.6886,5.9147
L-8374,Hobscheid,49.6886,5.9147
L-8376,Kahler,49.6314,5.9178
L-8378,Kleinbettingen,49.6464,5.9164
L-8379,Kleinbettingen,49.6464,5.9164
L-8380,Kleinbettingen,49.6464,5.9164
L-8381,Kleinbettingen,49.6464,5.9164
L-8383,Cap,49.6444,5.9844
L-8384,Koerich,49.67,5.95
L-8385,Koerich,49.67,5.95
L-8386,Koerich,49.67,5.95
L-8387,Koerich,49.67,5.95
L-8388,Koerich,49.67,5.95
L-8390,Nospelt,49.6753,6.0089
L-8391,Nospelt,49.6753,6.0089
L-8392,Nospelt,49.6753,6.0089
L-8393,Olm,49.6572,6.0003
L-8394,Olm,49.6572,6.0003
L-8395,Septfontaines,49.7011,5.9672
L-8396,Septfontaines,49.7011,5.9672
L-8398,Roodt (Septfontaines),49.6734,5.9933
L-8399,Windhof (Koerich),49.6444,5.9844
L-8401,Steinfort,49.6614,5.9192
L-8410,Steinfort,49.6614,5.9192
L-8411,Steinfort,49.6614,5.9192
L-8412,Steinfort,49.6614,5.9192
L-8413,Steinfort,49.6614,5.9192
L-8414,Steinfort,49.6614,5.9192
L-8415,Steinfort,49.6614,5.9192
L-8420,Steinfort,49.6614,5.9192
L-8421,Steinfort,49.6614,5.9192
L-8422,Steinfort,49.6614,5.9192
L-8423,Steinfort,49.6614,5.9192
L-8424,Steinfort,49.6614,5.9192
L-8435,Steinfort,49.6614,5.9192
L-8436,Steinfort,49.6614,5.9192
L-8437,Steinfort,49.6614,5.9192
L-8438,Steinfort,49.6614,5.9192
L-8440,Steinfort,49.6614,5.9192
L-8441,Steinfort,49.6614,5.9192
L-8442,Steinfort,49.6614,5.9192
L-8443,Steinfort,49.6614,5.9192
L-8444,Steinfort,49.6614,5.9192
L-8445,Steinfort,49.6614,5.9192
L-8447,Steinfort,49.6614,5.9192
L-8448,Steinfort,49.6614,5.9192
L-8449,Steinfort,49.6614,5.9192
L-8450,Steinfort,49.6614,5.9192
L-8451,Steinfort,49.6614,5.9192
L-8452,Steinfort,49.6614,5.9192
L-8453,Steinfort,49.6614,5.9192
L-8460,Eischen,49.6856,5.8786
L-8461,Eischen,49.6856,5.8786
L-8462,Eischen,49.6856,5.8786
L-8463,Eischen,49.6856,5.8786
L-8464,Eischen,49.6856,5.8786
L-8465,Eischen,49.6856,5.8786
L-8466,Eischen,49.6856,5.8786
L-8467,Eischen,49.6856,5.8786
L-8468,Eischen,49.6856,5.8786
L-8469,Eischen,49.6856,5.8786
L-8470,Eischen,49.6856,5.8786
L-8471,Eischen,49.6856,5.8786
L-8472,Eischen,49.6856,5.8786
L-8473,Eischen,49.6856,5.8786
L-8474,Eischen,49.6856,5.8786
L-8475,Eischen,49.6856,5.8786
L-8476,Eischen,49.6856,5.8786
L-8477,Eischen,49.6856,5.8786
L-8478,Eischen,49.6856,5.8786
L-8479,Eischen,49.6856,5.8786
L-8480,Eischen,49.6856,5.8786
L-8501,Redange-Sur-Attert,49.7656,5.8908
L-8505,Noerdange,49.7422,5.9261
L-8506,Redange-Sur-Attert,49.7656,5.8908
L-8507,Redange-Sur-Attert,49.7656,5.8908
L-8508,Redange-Sur-Attert,49.7656,5.8908
L-8509,Redange-Sur-Attert,49.7656,5.8908
L-8510,Redange-Sur-Attert,49.7656,5.8908
L-8511,Redange-Sur-Attert,49.7656,5.8908
L-8521,Beckerich,49.7306,5.8872
L-8522,Beckerich,49.7306,5.8872
L-8523,Beckerich,49.7306,5.8872
L-8525,Calmus,49.7256,5.9644
L-8526,Colpach-Bas,49.7583,5.8269
L-8527,Colpach-Bas,49.7583,5.8269
L-8528,Colpach-Haut,49.7686,5.82
L-8529,Ehner,49.7175,5.95
L-8530,Ell,49.7639,5.8572
L-8531,Ell,49.7639,5.8572
L-8533,Elvange (Beckerich),49.7247,5.9178
L-8537,Folschette,49.8142,5.8747
L-8538,Hovelange,49.7225,5.9072
L-8539,Huttange,49.7361,5.8986
L-8540,Ospern,49.7839,5.9044
L-8541,Kapweiler,49.7394,5.9706
L-8542,Lannen,49.7894,5.8397
L-8543,Levelange,49.7397,5.8567
L-8544,Nagem,49.7892,5.8578
L-8545,Niederpallen,49.7553,5.9122
L-8546,Hostert (Rambrouch),49.7679,5.8909
L-8550,Noerdange,49.7422,5.9261
L-8551,Noerdange,49.7422,5.9261
L-8552,Oberpallen,49.7303,5.8439
L-8557,Petit-Nobressart,49.7797,5.8094
L-8558,Platen,49.7911,5.9347
L-8560,Roodt (Ell),49.7944,5.8217
L-8561,Schwebach,49.7461,5.9719
L-8562,Schweich,49.7228,5.9275
L-8601,Bettborn,49.7953,5.9411
L-8606,Bettborn,49.7953,5.9411
L-8610,Buschrodt,49.8272,5.9358
L-8611,Platen,49.7911,5.9347
L-8612,Pratz,49.8017,5.9392
L-8613,Pratz,49.8017,5.9392
L-8614,Reimberg,49.7972,5.9539
L-8615,Platen,49.7911,5.9347
L-8620,Schandel,49.7922,5.9758
L-8701,Useldange,49.7697,5.9822
L-8705,Useldange,49.7697,5.9822
L-8706,Useldange,49.7697,5.9822
L-8707,Useldange,49.7697,5.9822
L-8708,Useldange,49.7697,5.9822
L-8710,Boevange-Sur-Attert,49.7753,6.0156
L-8711,Boevange-Sur-Attert,49.7753,6.0156
L-8715,Everlange,49.7742,5.9556
L-8720,Rippweiler,49.7517,5.9575
L-8801,Rambrouch,49.8308,5.845
L-8802,Perle,49.8117,5.7658
L-8805,Rambrouch,49.8308,5.845
L-8806,Rambrouch,49.8308,5.845
L-8808,Arsdorf,49.8614,5.8439
L-8809,Arsdorf,49.8614,5.8439
L-8811,Bilsdorf,49.8575,5.825
L-8812,Flatzbour,49.8361,5.7892
L-8813,Bigonville,49.8517,5.7933
L-8814,Bigonville,49.8517,5.7933
L-8816,Brattert,49.8556,5.9036
L-8817,Eschette,49.8231,5.8883
L-8818,Grevels,49.8531,5.9158
L-8819,Heispelt (Wahl),49.8572,5.8806
L-8820,Holtz,49.8072,5.7917
L-8821,Koetschette,49.8381,5.8403
L-8822,Kuborn,49.8706,5.9031
L-8823,Martelange-Haut,49.825,5.7511
L-8824,Perle,49.8117,5.7658
L-8825,Perle,49.8117,5.7658
L-8826,Perle,49.8117,5.7658
L-8831,Rindschleiden,49.8503,5.9014
L-8832,Rombach-Martelange,49.8347,5.7428
L-8833,Wolwelange,49.8286,5.7647
L-8834,Folschette,49.8142,5.8747
L-8835,Folschette,49.8142,5.8747
L-8838,Wahl,49.8367,5.9064
L-9001,Ettelbruck,49.8475,6.1042
L-9002,Ettelbruck,49.8475,6.1042
L-9003,Ettelbruck,49.8475,6.1042
L-9004,Ettelbruck,49.8475,6.1042
L-9006,Grosbous,49.8278,5.9672
L-9007,Mertzig,49.8339,6.0075
L-9008,Schieren,49.8306,6.0986
L-9010,Ettelbruck,49.8475,6.1042
L-9011,Ettelbruck,49.8475,6.1042
L-9012,Ettelbruck,49.8475,6.1042
L-9013,Ettelbruck,49.8475,6.1042
L-9014,Ettelbruck,49.8475,6.1042
L-9015,Ettelbruck,49.8475,6.1042
L-9016,Ettelbruck,49.8475,6.1042
L-9017,Ettelbruck,49.8475,6.1042
L-9018,Warken,49.8544,6.095
L-9019,Warken,49.8544,6.095
L-9020,Ettelbruck,49.8475,6.1042
L-9021,Ettelbruck,49.8475,6.1042
L-9022,Ettelbruck,49.8475,6.1042
L-9023,Ettelbruck,49.8475,6.1042
L-9024,Ettelbruck,49.8475,6.1042
L-9025,Ettelbruck,49.8475,6.1042
L-9026,Ettelbruck,49.8475,6.1042
L-9027,Ettelbruck,49.8475,6.1042
L-9028,Warken,49.8544,6.095
L-9029,Warken,49.8544,6.095
L-9030,Warken,49.8544,6.095
L-9040,Ettelbruck,49.8475,6.1042
L-9041,Ettelbruck,49.8475,6.1042
L-9042,Ettelbruck,49.8475,6.1042
L-9043,Ettelbruck,49.8475,6.1042
L-9044,Ettelbruck,49.8475,6.1042
L-9045,Ettelbruck,49.8475,6.1042
L-9046,Ettelbruck,49.8475,6.1042
L-9047,Ettelbruck,49.8475,6.1042
L-9048,Ettelbruck,49.8475,6.1042
L-9050,Ettelbruck,49.8475,6.1042
L-9051,Ettelbruck,49.8475,6.1042
L-9052,Ettelbruck,49.8475,6.1042
L-9053,Ettelbruck,49.8475,6.1042
L-9054,Ettelbruck,49.8475,6.1042
L-9055,Ettelbruck,49.8475,6.1042
L-9060,Ettelbruck,49.8475,6.1042
L-9061,Ettelbruck,49.8475,6.1042
L-9062,Ettelbruck,49.8475,6.1042
L-9063,Ettelbruck,49.8475,6.1042
L-9064,Ettelbruck,49.8475,6.1042
L-9065,Ettelbruck,49.8475,6.1042
L-9066,Ettelbruck,49.8475,6.1042
L-9067,Ettelbruck,49.8475,6.1042
L-9068,Ettelbruck,49.8475,6.1042
L-9069,Ettelbruck,49.8475,6.1042
L-9070,Ettelbruck,49.8475,6.1042
L-9071,Ettelbruck,49.8475,6.1042
L-9080,Ettelbruck,49.8475,6.1042
L-9081,Ettelbruck,49.8475,6.1042
L-9082,Ettelbruck,49.8475,6.1042
L-9083,Ettelbruck,49.8475,6.1042
L-9084,Ettelbruck,49.8475,6.1042
L-9085,Ettelbruck,49.8475,6.1042
L-9086,Ettelbruck,49.8475,6.1042
L-9087,Ettelbruck,49.8475,6.1042
L-9088,Ettelbruck,49.8475,6.1042
L-9089,Ettelbruck,49.8475,6.1042
L-9090,Warken,49.8544,6.095
L-9091,Ettelbruck,49.8475,6.1042
L-9092,Ettelbruck,49.8475,6.1042
L-9093,Ettelbruck,49.8475,6.1042
L-9094,Ettelbruck,49.8475,6.1042
L-9098,Ettelbruck,49.8475,6.1042
L-9099,Ingeldorf,49.8519,6.1347
L-9115,Schieren,49.8306,6.0986
L-9116,Schieren,49.8306,6.0986
L-9117,Schieren,49.8306,6.0986
L-9118,Schieren,49.8306,6.0986
L-9119,Schieren,49.8306,6.0986
L-9120,Schieren,49.8306,6.0986
L-9121,Schieren,49.8306,6.0986
L-9122,Schieren,49.8306,6.0986
L-9123,Schieren,49.8306,6.0986
L-9124,Schieren,49.8306,6.0986
L-9125,Schieren,49.8306,6.0986
L-9126,Schieren,49.8306,6.0986
L-9127,Schieren,49.8306,6.0986
L-9128,Schieren,49.8306,6.0986
L-9129,Schieren,49.8306,6.0986
L-9130,Schieren,49.8306,6.0986
L-9131,Schieren,49.8306,6.0986
L-9132,Schieren,49.8306,6.0986
L-9133,Schieren,49.8306,6.0986
L-9134,Schieren,49.8306,6.0986
L-9135,Schieren,49.8306,6.0986
L-9136,Schieren,49.8306,6.0986
L-9140,Bourscheid,49.9067,6.0609
L-9142,Buerden,49.8831,6.0989
L-9144,Lehrhof,49.8661,5.9462
L-9145,Erpeldange,49.8813,6.0147
L-9146,Erpeldange,49.8813,6.0147
L-9147,Erpeldange,49.8813,6.0147
L-9150,Eschdorf,49.8831,5.9387
L-9151,Eschdorf,49.8861,5.9367
L-9153,Goebelsmuehle,49.9225,6.0542
L-9154,Grosbous,49.8278,5.9672
L-9155,Grosbous,49.8278,5.9672
L-9156,Niederfeulen,49.8556,6.0472
L-9157,Heiderscheid,49.8889,5.9789
L-9158,Heiderscheid,49.8889,5.9789
L-9160,Ingeldorf,49.8519,6.1347
L-9161,Ingeldorf,49.8519,6.1347
L-9163,Kehmen,49.9008,6.0372
L-9164,Lipperscheid,49.9099,6.0808
L-9165,Merscheid (Heiderscheid),49.8719,5.9725
L-9166,Mertzig,49.8339,6.0075
L-9167,Mertzig,49.8339,6.0075
L-9168,Mertzig,49.8339,6.0075
L-9169,Mertzig,49.8339,6.0075
L-9170,Mertzig,49.8339,6.0075
L-9171,Michelau,49.9,6.0919
L-9172,Bourscheid,49.91,6.0672
L-9173,Michelbouch,49.8186,6.0203
L-9175,Niederfeulen,49.8556,6.0472
L-9176,Niederfeulen,49.8556,6.0472
L-9177,Niederfeulen,49.8556,6.0472
L-9179,Oberfeulen,49.8481,6.0356
L-9180,Oberfeulen,49.8481,6.0356
L-9181,Ringel,49.9169,6.0119
L-9182,Scheidel,49.8936,6.0447
L-9183,Ennerschlenner,49.9331,6.0636
L-9184,Schieren,49.8306,6.0986
L-9186,Stegen,49.83,6.1719
L-9188,Vichten,49.8031,6
L-9189,Vichten,49.8031,6
L-9190,Vichten,49.8031,6
L-9191,Welscheid,49.8881,6.0678
L-9201,Diekirch,49.8678,6.1558
L-9202,Diekirch,49.8678,6.1558
L-9203,Diekirch,49.8678,6.1558
L-9204,Reisdorf,49.8686,6.2678
L-9205,Diekirch,49.8678,6.1558
L-9206,Diekirch,49.8678,6.1558
L-9207,Diekirch,49.8678,6.1558
L-9208,Diekirch,49.8678,6.1558
L-9209,Diekirch,49.8678,6.1558
L-9210,Diekirch,49.8678,6.1558
L-9211,Diekirch,49.8678,6.1558
L-9212,Diekirch,49.8678,6.1558
L-9213,Diekirch,49.8678,6.1558
L-9214,Diekirch,49.8678,6.1558
L-9215,Diekirch,49.8678,6.1558
L-9216,Diekirch,49.8678,6.1558
L-9217,Diekirch,49.8678,6.1558
L-9218,Diekirch,49.8678,6.1558
L-9220,Diekirch,49.8678,6.1558
L-9221,Gilsdorf,49.8669,6.1825
L-9224,Diekirch,49.8678,6.1558
L-9225,Diekirch,49.8678,6.1558
L-9226,Diekirch,49.8678,6.1558
L-9227,Diekirch,49.8678,6.1558
L-9228,Diekirch,49.8678,6.1558
L-9229,Diekirch,49.8678,6.1558
L-9230,Diekirch,49.8678,6.1558
L-9231,Diekirch,49.8678,6.1558
L-9232,Diekirch,49.8678,6.1558
L-9233,Diekirch,49.8667,6.1588
L-9234,Diekirch,49.8678,6.1558
L-9235,Diekirch,49.8678,6.1558
L-9236,Diekirch,49.8678,6.1558
L-9237,Diekirch,49.8678,6.1558
L-9238,Diekirch,49.8678,6.1558
L-9239,Diekirch,49.8678,6.1558
L-9240,Diekirch,49.8678,6.1558
L-9241,Diekirch,49.8678,6.1558
L-9242,Diekirch,49.8678,6.1558
L-9243,Diekirch,49.8678,6.1558
L-9244,Diekirch,49.8678,6.1558
L-9250,Diekirch,49.8678,6.1558
L-9251,Diekirch,49.8678,6.1558
L-9252,Diekirch,49.8678,6.1558
L-9253,Diekirch,49.8678,6.1558
L-9254,Diekirch,49.8678,6.1558
L-9255,Diekirch,49.8678,6.1558
L-9256,Diekirch,49.8678,6.1558
L-9257,Diekirch,49.8678,6.1558
L-9258,Diekirch,49.8678,6.1558
L-9259,Diekirch,49.8678,6.1558
L-9260,Diekirch,49.8678,6.1558
L-9261,Diekirch,49.8678,6.1558
L-9262,Diekirch,49.8678,6.1558
L-9263,Diekirch,49.8678,6.1558
L-9264,Diekirch,49.8678,6.1558
L-9265,Diekirch,49.8678,6.1558
L-9266,Diekirch,49.8678,6.1558
L-9267,Diekirch,49.8678,6.1558
L-9268,Diekirch,49.8678,6.1558
L-9273,Diekirch,49.8678,6.1558
L-9275,Diekirch,49.8678,6.1558
L-9276,Diekirch,49.8678,6.1558
L-9277,Diekirch,49.8678,6.1558
L-9278,Diekirch,49.8678,6.1558
L-9279,Diekirch,49.8678,6.1558
L-9280,Diekirch,49.8678,6.1558
L-9281,Diekirch,49.8678,6.1558
L-9282,Diekirch,49.8678,6.1558
L-9283,Diekirch,49.8678,6.1558
L-9284,Diekirch,49.8678,6.1558
L-9285,Diekirch,49.8678,6.1558
L-9286,Diekirch,49.8678,6.1558
L-9287,Diekirch,49.8678,6.1558
L-9288,Diekirch,49.8678,6.1558
L-9289,Diekirch,49.8678,6.1558
L-9290,Diekirch,49.8678,6.1558
L-9291,Diekirch,49.8678,6.1558
L-9292,Diekirch,49.8678,6.1558
L-9293,Diekirch,49.8678,6.1558
L-9330,Diekirch,49.8678,6.1558
L-9350,Bastendorf,49.8919,6.1653
L-9351,Bastendorf,49.8919,6.1653
L-9353,Bettendorf,49.8767,6.2181
L-9354,Bettendorf,49.8767,6.2181
L-9355,Bettendorf,49.8767,6.2181
L-9356,Bettendorf,49.8767,6.2181
L-9357,Bettendorf,49.8767,6.2181
L-9359,Bastendorf,49.8919,6.1653
L-9360,Brandenbourg,49.9125,6.14
L-9361,Brandenbourg,49.9125,6.14
L-9364,Keiwelbach,49.8369,6.2362
L-9365,Eppeldorf,49.8444,6.2497
L-9366,Ermsdorf,49.8294,6.2228
L-9368,Folkendange,49.8431,6.2042
L-9369,Diekirch,49.8678,6.1558
L-9370,Gilsdorf,49.8669,6.1825
L-9371,Gilsdorf,49.8669,6.1825
L-9372,Gilsdorf,49.8669,6.1825
L-9373,Gilsdorf,49.8669,6.1825
L-9375,Gralingen,49.9369,6.1017
L-9376,Hoscheid,49.946,6.081
L-9377,Hoscheid,49.9472,6.0817
L-9378,Flebour,49.8992,5.8128
L-9380,Merscheid (Puetscheid),49.9547,6.1069
L-9381,Moestroff,49.8678,6.2394
L-9382,Moestroff,49.8678,6.2394
L-9390,Reisdorf,49.8686,6.2678
L-9391,Reisdorf,49.8686,6.2678
L-9392,Wallendorf-Pont,49.8782,6.2396
L-9395,Tandel,49.8975,6.1833
L-9401,Vianden,49.9336,6.2043
L-9405,Vianden,49.935,6.2089
L-9406,Vianden,49.935,6.2089
L-9407,Vianden,49.935,6.2089
L-9408,Vianden,49.935,6.2089
L-9409,Vianden,49.9316,6.2013
L-9410,Vianden,49.9332,6.2051
L-9411,Vianden,49.9352,6.2011
L-9412,Vianden,49.935,6.2089
L-9414,Vianden,49.9343,6.2075
L-9415,Vianden,49.929,6.2219
L-9416,Vianden,49.935,6.2089
L-9417,Vianden,49.935,6.2089
L-9418,Vianden,49.935,6.2089
L-9419,Vianden,49.935,6.2089
L-9420,Vianden,49.934,6.2091
L-9421,Vianden,49.935,6.2089
L-9422,Vianden,49.935,6.2089
L-9423,Vianden,49.935,6.2089
L-9424,Vianden,49.935,6.2089
L-9425,Vianden,49.935,6.2089
L-9426,Vianden,49.935,6.2089
L-9440,Vianden,49.935,6.2089
L-9451,Bettel,49.9172,6.2278
L-9452,Bettel,49.9172,6.2278
L-9453,Bivels,49.9603,6.1922
L-9454,Fouhren,49.9156,6.1961
L-9455,Fouhren,49.9156,6.1961
L-9456,Hoesdorf,49.8839,6.2581
L-9457,Landscheid,49.9244,6.1303
L-9458,Landscheid,49.9244,6.1303
L-9459,Longsdorf,49.8989,6.2053
L-9461,Nachtmanderscheid,49.9483,6.1294
L-9462,Puetscheid,49.9546,6.1526
L-9463,Stolzembourg,49.9672,6.1678
L-9464,Stolzembourg,49.9672,6.1678
L-9465,Walsdorf,49.9267,6.1736
L-9466,Weiler (Puetscheid),49.9636,6.1242
L-9501,Wiltz,49.9689,5.9319
L-9502,Wiltz,49.9689,5.9319
L-9506,Esch-Sur-Sure,49.9114,5.9364
L-9510,Wiltz,49.9689,5.9319
L-9511,Wiltz,49.9689,5.9319
L-9512,Wiltz,49.9689,5.9319
L-9513,Wiltz,49.9689,5.9319
L-9514,Wiltz,49.9689,5.9319
L-9515,Wiltz,49.9689,5.9319
L-9516,Wiltz,49.9689,5.9319
L-9517,Weidingen,49.9728,5.9419
L-9518,Weidingen,49.9728,5.9419
L-9519,Wiltz,49.9689,5.9319
L-9520,Wiltz,49.9689,5.9319
L-9521,Wiltz,49.9689,5.9319
L-9522,Wiltz,49.9689,5.9319
L-9523,Wiltz,49.9689,5.9319
L-9530,Wiltz,49.9689,5.9319
L-9531,Wiltz,49.9689,5.9319
L-9532,Wiltz,49.9689,5.9319
L-9533,Wiltz,49.9689,5.9319
L-9534,Wiltz,49.9689,5.9319
L-9535,Weidingen,49.9728,5.9419
L-9536,Wiltz,49.9689,5.9319
L-9537,Wiltz,49.9689,5.9319
L-9538,Wiltz,49.9689,5.9319
L-9539,Wiltz,49.9689,5.9319
L-9540,Wiltz,49.9689,5.9319
L-9541,Wiltz,49.9689,5.9319
L-9542,Wiltz,49.9689,5.9319
L-9543,Wiltz,49.9689,5.9319
L-9544,Wiltz,49.9689,5.9319
L-9545,Wiltz,49.9689,5.9319
L-9550,Wiltz,49.9702,5.9317
L-9551,Wiltz,49.9689,5.9319
L-9552,Wiltz,49.9689,5.9319
L-9553,Weidingen,49.9728,5.9419
L-9554,Wiltz,49.9689,5.9319
L-9555,Wiltz,49.9689,5.9319
L-9556,Wiltz,49.9689,5.9319
L-9557,Wiltz,49.9689,5.9319
L-9558,Wiltz,49.9689,5.9319
L-9559,Wiltz,49.9689,5.9319
L-9560,Wiltz,49.9689,5.9319
L-9570,Wiltz,49.9689,5.9319
L-9571,Wiltz,49.9689,5.9319
L-9572,Weidingen,49.9728,5.9419
L-9573,Wiltz,49.9689,5.9319
L-9574,Wiltz,49.9689,5.9319
L-9575,Wiltz,49.9689,5.9319
L-9576,Weidingen,49.9728,5.9419
L-9577,Wiltz,49.9689,5.9319
L-9631,Allerborn,50.0367,5.8708
L-9632,Alscheid,49.9711,6.0097
L-9633,Baschleiden,49.8983,5.8203
L-9635,Bavigne,49.9219,5.8494
L-9636,Berle,49.9522,5.8561
L-9637,Bockholtz (Goesdorf),49.9395,5.8625
L-9638,Pommerloch,49.9603,5.8608
L-9639,Boulaide,49.8878,5.8164
L-9640,Boulaide,49.8878,5.8164
L-9641,Brachtenbach,50.0214,5.9114
L-9643,Buederscheid,49.9339,5.9419
L-9644,Dahl,49.9353,5.9758
L-9645,Derenbach,50.015,5.8897
L-9647,Sonlez,49.965,5.8267
L-9648,Erpeldange (Eschweiler),49.9612,5.8856
L-9650,Esch-Sur-Sure,49.9117,5.9352
L-9651,Eschweiler,49.9978,5.9489
L-9653,Goesdorf,49.9217,5.9683
L-9654,Gruemmelscheid,49.9844,5.8725
L-9655,Harlange,49.9314,5.79
L-9656,Harlange,49.9314,5.79
L-9657,Harlange,49.9314,5.79
L-9659,Heiderscheidergrund,49.9036,5.9622
L-9660,Insenborn,49.9017,5.8847
L-9662,Kaundorf,49.9214,5.9031
L-9663,Alscheid,49.9711,6.0097
L-9665,Liefrange,49.91,5.8775
L-9666,Lultzhausen,49.9094,5.8908
L-9668,Masseler,49.9308,6.0372
L-9669,Mecher (Haute Sure),49.9282,5.9462
L-9670,Merkholtz,49.9625,5.9817
L-9671,Neunhausen,49.8775,5.8872
L-9672,Niederwampach,50.0117,5.8436
L-9673,Oberwampach,50.0167,5.8608
L-9674,Nocher,49.9475,5.9792
L-9676,Noertrange,49.9797,5.9108
L-9678,Nothum,49.9414,5.8828
L-9681,Roullingen,49.9558,5.9247
L-9682,Selscheid,50.0181,5.9489
L-9684,Schimpach,50.0103,5.8522
L-9687,Surre,49.9031,5.78
L-9689,Tarchamps,49.9506,5.7961
L-9690,Watrange,49.9442,5.7858
L-9696,Wiltz,49.9689,5.9319
L-9701,Clervaux,50.0547,6.0314
L-9703,Wincrange,50.0533,5.9192
L-9706,Clervaux,50.0547,6.0314
L-9707,Clervaux,50.0547,6.0314
L-9708,Clervaux,50.0547,6.0314
L-9709,Clervaux,50.0547,6.0314
L-9710,Clervaux,50.0547,6.0314
L-9711,Clervaux,50.0547,6.0314
L-9712,Clervaux,50.0547,6.0314
L-9713,Clervaux,50.0547,6.0314
L-9714,Clervaux,50.0547,6.0314
L-9715,Clervaux,50.0547,6.0314
L-9737,Clervaux,50.0547,6.0314
L-9738,Eselborn,50.0628,6.0036
L-9740,Boevange (Clervaux),50.0464,5.9342
L-9741,Boxhorn,50.0839,5.9925
L-9742,Boxhorn,50.0839,5.9925
L-9743,Crendal,50.0578,5.8981
L-9744,Deiffelt,50.0656,5.9639
L-9745,Doennange,50.0622,5.9558
L-9746,Drauffelt,50.0178,6.0061
L-9747,Enscherange,49.9994,5.9928
L-9748,Eselborn,50.0628,6.0036
L-9749,Fischbach (Heinerscheid),50.0533,5.971
L-9751,Grindhausen,50.0833,6.06
L-9752,Hamiville,50.0461,5.9042
L-9753,Heinerscheid,50.0961,6.0881
L-9754,Hinter-Hassel,50.0729,6.0366
L-9755,Hupperdange,50.0961,6.0592
L-9756,Hupperdange,50.0961,6.0592
L-9757,Kalborn,50.1028,6.1131
L-9758,Kalborn,50.1028,6.1131
L-9759,Kleinhoscheid,50.0194,5.9681
L-9760,Lellingen,49.9836,6.0144
L-9761,Lentzweiler,50.07,5.9781
L-9762,Lullange,50.06,5.9419
L-9763,Marnach,50.0533,6.0619
L-9764,Marnach,50.0533,6.0619
L-9765,Mecher (Clervaux),50.0408,6.0175
L-9766,Munshausen,50.0336,6.0386
L-9767,Pintsch,49.9944,6.0131
L-9768,Reuler,50.0578,6.0375
L-9769,Roder,50.0558,6.0836
L-9770,Rumlange,50.08,5.9756
L-9771,Stockem,50.0789,5.9581
L-9772,Troine,50.0644,5.8831
L-9773,Troine-Route,50.0461,5.8781
L-9774,Urspelt,50.0756,6.0467
L-9775,Weicherdange,50.0383,5.9894
L-9776,Wilwerwiltz,49.9889,5.9992
L-9779,Lentzweiler,50.07,5.9781
L-9780,Lullange,50.06,5.9419
L-9801,Hosingen,50.0178,6.0933
L-9805,Hosingen,50.0178,6.0933
L-9806,Hosingen,50.0178,6.0933
L-9807,Hosingen,50.0178,6.0933
L-9808,Hosingen,50.0178,6.0933
L-9809,Hosingen,50.0178,6.0933
L-9830,Bockholtz (Hosingen),50.0122,6.0528
L-9831,Consthum,49.9747,6.0542
L-9833,Dorscheid,50.0361,6.0714
L-9834,Holzthum,49.985,6.0733
L-9835,Hoscheid-Dickt,50.0096,6.0837
L-9836,Wahlhausen,49.9853,6.1267
L-9837,Neidhausen,50.0289,6.0667
L-9838,Eisenbach,50.0096,6.0837
L-9839,Eisenbach,50.0367,6.1311
L-9840,Siebenaler,50.0106,6.0267
L-9841,Wahlhausen,49.9853,6.1267
L-9901,Troisvierges,50.1211,6.0003
L-9902,Cinqfontaines,50.1072,6.0078
L-9903,Troisvierges,50.1211,6.0003
L-9905,Troisvierges,50.1211,6.0003
L-9906,Troisvierges,50.1211,6.0003
L-9907,Troisvierges,50.1211,6.0003
L-9908,Troisvierges,50.1211,6.0003
L-9909,Troisvierges,50.1211,6.0003
L-9910,Troisvierges,50.1211,6.0003
L-9911,Troisvierges,50.1211,6.0003
L-9912,Troisvierges,50.1211,6.0003
L-9913,Troisvierges,50.1211,6.0003
L-9940,Asselborn,50.0972,5.9731
L-9942,Besslingen,50.1458,5.9839
L-9943,Hautbellain,50.1567,5.9786
L-9944,Beiler,50.1656,6.0889
L-9946,Binsfeld,50.1189,6.0386
L-9948,Biwisch,50.1181,5.9792
L-9950,Breidfeld,50.1242,6.0636
L-9952,Drinklange,50.1336,6.0192
L-9954,Goedange,50.1492,6.0133
L-9956,Hachiville,50.1081,5.9233
L-9960,Hoffelt,50.0997,5.9233
L-9962,Holler,50.1236,6.0494
L-9964,Huldange,50.1647,6.015
L-9966,Kaesfurt (Beiler),50.1207,6.0318
L-9968,Lausdorn,50.1192,6.0833
L-9970,Leithum,50.1608,6.1089
L-9972,Lieler,50.1244,6.11
L-9974,Maulusmuehle,50.1282,6.0721
L-9976,Sassel,50.0994,5.9975
L-9980,Wilwerdange,50.1406,6.0239
L-9982,Weiler (Wincrange),50.1406,6.0239
L-9990,Weiswampach,50.1372,6.075
L-9991,Weiswampach,50.1372,6.075
L-9992,Weiswampach,50.1372,6.075
L-9999,Wemperhardt,50.1556,6.0533
